HS Number,Name,Address,City,State,Zip,Primary Identifier,Website
7658011172,"Allies, Inc.",1262 Whitehores-Hamilton Square Road,Hamilton,NJ,08690,Pipeline,alliesnj.org
33489257612,"Community Options, Inc - New York State",,,NY,,Pipeline,comop.org
7610771834,Community Access Unlimited,80 W. Grand St,Elizabeth,NJ,07202,Pipeline,caunj.org
9072847926,BANCROFT-ADULT SERVICES (NJ-S),, -,NJ, -,Client,
9072823210,OAKS INTEGRATED CARE (NJ-S),770 WOODLANE RD,MT HOLLY,NJ,08060,Client,
8118753890,The Arc of Atlantic County,"6550 Delilah Road, Suite 101",Egg Harbor Township,NJ,08234,Prospect,thearcatlantic.org
9072524092,DEVEREUX (NJ-S), -, -,NJ, -,Client,
9072896424,SPECTRUM (NJ-N),210 RIVERVALE ROAD,RIVER VALE,NJ,07675,Client,
7925801819,Community Living Corporation,135 Radio Circle Drive,Mt. Kisco,NY,10549,Influencer,communitylivingcorp.org
7792597630,GATEWAY HUDSON VALLEY,1 Amy Kay Parkway,Kingston,NY,12401,Prospect,ghv.org
7613354801,New Jersey Institute for Disabilities,10A Oak Drive,Edison,NJ,08837,Pipeline,njid.org
7611239017,KELSCH (NJ-S),, -,NJ, -,Client,kelschnj.com
7658034862,SARATOGA CO. NYSARC  INC.,16 SARATOGA BRIDGES BOULEVARD,BALLSTON SPA,NY,12020,Pipeline,saratogabridges.org
7658014849,Heart to Heart,"576 Central Ave, Suite 301 East",Orange,Nj,07018,Prospect,h2hhc.com
9072581156,DEVEREUX (NJ-N),797 county road,skillman,NJ,08558,Client,
7792545599,Cardinal Hayes Home,60 St.joseph Drive,Millbrook,NY,12545,Prospect,cardinalhayeshome.org
8311557028,"Dungarvin Colorado, LLC",4704 Harlan Street,Denver,CO,80212,Prospect,www.dungarvin.com
7657972256,Community Based Services,3 Fields Lane,North Salem,NY,10560,Influencer,commbasedservices.org
7611914117,Everas,24K World's Fair Drive,Somerset,NJ,08873,Pipeline,everas.org
7609493007,Friends of Cyrus,"505 Thornall Street, Suite 305",Edison,NJ,08837,Non-Prospect,friendsofcyrus.com
29285185685,Vista Care - CO,Corporate Dr,Colorado Springs,CO,80919,Pipeline,vistacare.org
29667164421,Catholic Charities Disability Services,901 Forest Ave,Albany,NY,12205,Pipeline,
7613528073,CAFS (NJ-N),200 ROBIN RD,PARAMUS,NJ,07652,Client,cafsnj.org
8118133925,The Arc of Morris,1 Executive Drive,Morris Plains,NJ,07950,Client,arcmorris.org
8118126912,The Arc of Sussex County,"11 US Route 206, Suite 100",Augusta,NJ,07822,Prospect,scarc.org
8118753885,Our House - NJ,76 Floral Avenue,Murray Hill,NJ,07974,Pipeline,ourhousenj.org
7613482929,The Arc of Middlesex,"1100 Cornwall Road, Suite 100",Mounmouth Junction,NJ,08852,Non-Prospect,arc-middlesex.org
7657972132,PATHFINDER VILLAGE (NY),3 CHENANGO RD,EDMESTON,NY,13335,Client,pathfindervillage.org
19148405766,Hope Christian Services,700 Mountain Avenue,Wyckoff,NJ,07481,Prospect,hopechristian.org
8118686801,New Horizons in Autism,906 State Route 33 East,Freehold,NJ,07228,Non-Prospect,nhautism.org
7609209773,AMIB (NJ-N),35 BEAVERSON BLVD,BRICK,NJ,08723,Client,amib.net
7610773309,NEW CONCEPTS FOR LIVING (NJ-N),68A W PASSAIC AVENUE,ROCHELLE PARK,NJ,07662,Client,ncfl.net
9072874080,ARC OF OCEAN (NJ-N),815 CEDAR BRIDGE AVE,LAKEWOOD,NJ,08701,Client,arcocean.org
9072903503,DELTA CENTRAL (NJ-N),1130 ROUTE 202,RARITAN,NJ,08869,Client,
9072869023,ARC OF BERGEN/PASS (NJ-N),223 MOORE STREET,HACKENSACK,NJ,07601,Client,
9072585276,ARC GLOUCESTER (NJ-S),1555 GATEWAY BLVD,WEST DEPTFORD,NJ,08096,Client,
9072494965,BANCROFT - NEUROREHAB (NJ-S),1200 ROUTE 70,BRICK,NJ,08724,Client,
7657383348,Center for Family Support,,,NJ,,Prospect,
7609492993,CAPITOL CARE (NJ-N), -, -,NJ, -,Client,capitol-care.org
8118753886,The Arc of Union,70 Diamond Road,Springfield,NJ,07081,Prospect,arcunion.org
8118692948,Partnerships For People,"23 Vreeland Rd, Ste 120",Florham Park,NJ,07932,Pipeline,partnershipsforpeople.org
7611239036,Qmainc,700 Cinnaminson Avenue,Palmyra,NJ,08065,Pipeline,qmainc.com
9072859980,DPD/CATHOLIC CHARITIES (NJ-N),1 CATHOLIC CHARITIES WAY,OAK RIDGE,NJ,07438,Client,http://dpd.org
9072853795,AVIDD (NJ-N),92 BROADWAY,DENVILLE,NJ,07834,Client,aviddnj.org
7611996336,ARC OF CAPE MAY (NJ-S),822 ROUTE 47,SOUTH DENNIS,NJ,08245,Client,arcofcapemay.org
7609209775,PILLAR CARE CONTINUUM (NJ-N),220 S ORANGE AVE,LIVINGSTON,NJ,07039,Client,pillarnj.org
19595180163,Goodwill of Colorado,1460 Garden of the Gods Road,Colorado Springs,CO,80907,Pipeline,goodwillcolorado.org
7657546057,Jespy House,102 Propect Street,Orange,NJ,07079,Non-Prospect,jespy.org
7658011187,Developmental Disabilities Association of NJ,40 Woodbridge Avenue,Sewaren,NJ,07077,Non-Prospect,ddanj.org
9072916063,BANCROFT-PEDS (NJ-S) NO 3P DH, -, -,NJ, -,Client,
9072903501,ARC OF BURLINGTON (NJ-S),115 E BROAD ST.,BURLINGTON,NJ,08016,Client,
9072494969,SPECTRUM ICF (NJ-N),50 BLANCH AVE,CLOSTER,NJ,07624,Client,
7613281686,21 PLUS INC (NJ-N),1900 RT 70,MANCHESTER,NJ,08759,Client,21plus.org
9072859978,J-ADD (NJ-N),50 EISNEHOWER DR,PARAMUS,NJ,07652,Client,
9072546999,COMM OPTIONS - SOUTH (NJ-S), -, -,NJ, -,Client,
9072859979,PILOT (NJ-S),289 JACKSON ROAD,BERLIN,NJ,08009,Client,thepilotservices.org
9072859975,ADEPT (NJ-S),111 HIGH STREET,MOUNT HOLLY,NJ,08060,Client,
33359835008,Harmonie House,,,CO,,Prospect,harmoniehouse.org
7613354777,ARC OF CAMDEN COUNTY (NJ-S),215 West White Horse Pike,Berlin,NJ,08009,Client,arccamden.org
7611958872,DURAND (NJ-S), -, -,NJ, -,Client,durandac.org
7612081203,COMMUNITY HOPE -NO DH- (NJ-N),959 US-46,PARSIPPANY,NJ,07054,Client,communityhope-nj.org
31113771906,Beth Haven Inc,616 N. Royer St.,Colorado Springs,CO,,Prospect,bethhaveninc.org
7611939213,WEST BERGEN (NJ-N),120 CHESTNUT STREET,RIDGEWOOD,NJ,07450,Client,westbergen.org
9072859976,DELTA SOUTH (NJ-S),5914 MAIN STREET,MAYS LANDING,NJ,08330,Client,
7609744739,FORDHAM LEWIS (NJ-N),613 HOPE RD,EATONTOWN,NJ,07724,Client,fordham-lewisconsulting.org
9072869022,OAKS INTEG - OASIS (NJ-S),770 WOODLANE RD,MT HOLLY,NJ,08060,Client,
7612081202,LIFE OPPORTUNITIES (NJ-N),75 NORTH MAPLE AVENUE,RIDGEWOOD,NJ,07450,Client,lifeopp.org
7611865973,CFG --NO DAYHAB-- (NJ-S),1000 ATLANTIC AVE,CAMDEN,NJ,08104,Client,cfgpc.com
9072847927,OAKS INTEGRATED CARE (NJ-N),770 WOODLANE RD,MT HOLLY,NJ,08060,Client,
7686868567,BETHESDA HOMES (NJ-N),220 HAMBURG TURNPIKE,POMPTON LAKES,NJ,07442,Client,ablelight.org
7608717830,OTCBC (NJ-S), -, -,NJ, -,Client,otcbc.org
9072834608,CROSSROADS (NJ-S), -, -,NJ, -,Client,
9072934816,EASTER SEALS (NJ-N), -, -,NJ, -,Client,
7792580472,CFS (NJ-N),71 ZABRISKIE ST,HACKENSACK,NJ,07601,Client,cfsny.org
9072874082,ARC OF SALEM (NJ-S),150 SALEM-WOODSTOWN RD,SALEM,NJ,08079,Client,
7608223118,OAKS INTEG - COLES RUN (NJ-S), -, -,NJ, -,Client,oaksintcare.org
9072581154,EQUAL PARTNERS (NJ-S), -, -,NJ, -,Client,
9072869024,COMM OPTIONS -MONTVILLE (NJ-N),95 E MAIN ST,DEVILLE,NJ,07834,Client,
9072823208,21 PLUS INC (NJ-S),1900 RT 70,MANCHESTER,NJ,08759,Client,
7613326748,CROSSROADS (NJ-N), -, -,NJ, -,Client,crossroadsprograms.org
9072880187,HEMLOCK (NJ-S), -, -,NJ, -,Client,
9364666649,SERV (NJ-N),777 BLOOMFIELD AVENUE,CLIFTON,NJ,07012,Client,
7612081204,PENN REACH (NJ-S), -, -,NJ, -,Client,pennreach.org
15901527579,Otsuka,508 Carnegie Center,Princeton,NJ,08540,Influencer,otsuka-us.com
9072890669,BANCROFT - FLICKER (NJ-S),1001 VAN BUREN RD,VOORHEES,NJ,08043,Client,
30423986215,Soul Dogs,9053 Harlan Street,Westminster,CO,80031,,soul-dogs-inc.org
30012271222,Special Kids Special Families,424 West Pikes Peak Avenue,Colorado Springs,CO,80905,,sksfcolorado.org
29567965505,Carasolva,1517 Easy Rider Lane,Boulder,CO,80304,,carasolva.com
29088593705,Helio Health,329 North Salina Street,Syracuse,NY,13203,,helio.health
29094604957,Bergen's Promise,3 University Plaza Drive,Hackensack,NJ,07601,,bergenspromise.org
29094139778,Jefferson Center,4851 Independence Street,Wheat Ridge,CO,80033,,jcmh.org
29096772123,Acenda Integrated Health,42 Delsea Drive South,Glassboro,NJ,08028,,acendahealth.org
29087720048,Aurora Mental Health & Recovery,791 Chambers Road,Aurora,CO,,,auroramhr.org
29096306844,Kaleida Health,100 High St,Buffalo,NY,,Non-Prospect,kaleidahealth.org
29086326019,Best Self,255 Delaware Avenue,Buffalo,NY,14202,,bestselfwny.org
29088747808,St. Joseph's Addiction Treatment & Recovery Centers,159 Glenwood Drive,Saranac Lake,NY,12983,,stjoestreatment.org
29091845016,New Jersey Association of Mental Health and Addiction Agencies,3575 Quakerbridge Road,Hamilton Township,NJ,08619,,njamhaa.org
29090296164,Greater Mental Health of New York,17515 West Nine Mile Road,Southfield,NY,48075,,greatermentalhealth.org
28373690925,ACM - Association for Computing Machinery,2 Pennsylvania Plaza,New York,NY,10121,,acm.org
26797970516,Reflik,285 Davidson Avenue,Franklin Township,NJ,08873,Prospect,reflik.com
26629341261,AVON BAKERY & DELI,,Edwards,CO,81632,,avonbakerydeli.com
26518407351,Bergen County Academies,540 North Farview Avenue,Paramus,NJ,07652,Non-Prospect,bergen.org
26508772098,Grace Care,100 Horizon Center Boulevard,Hamilton Township,NJ,08691,Influencer,gracecommunitycare.com
26388825480,Cold Technology,1001 Lower Landing Road,Blackwood,NJ,08012,Non-Prospect,coldtech.com
26324784285,Quest Diagnostics,,MADISON,NJ,07940,Non-Prospect,questdiagnostics.com
26106159454,McKinsey & Company,3 World Trade Ctr 175,New York City,NY,10007,Non-Prospect,www.mckinsey.com
26059488347,Equity Warrior Strategies,,Rochester,NY,,Non-Prospect,equitywarriorstrategies.com
25698635058,NADSP,1971 Western Avenue,Albany,NY,12203,,nadsp.org
25185024904,Proof Positive,115 Broadway,New York,NY,10006,,proofpositive.org
25171992667,Walsh Pizzi O'Reilly Falanga,100 Mulberry Street,Newark,NJ,07102,Non-Prospect,walsh.law
25185038631,The Bonadio Group,171 Sullys Trl,Pittsford,NY,14534,Non-Prospect,bonadio.com
24997165927,Common Energy,201 Varick Street,New York,NY,10014,,commonenergy.us
23771017815,"Comfort Care Zone,",900 New Jersey 168,Washington Township,NJ,08012,Client,comfortcarezone.com
23331561247,Tennyson Center for Children,2950 Tennyson Street,Denver,CO,80212,Prospect,tennysoncenter.org
23232922209,Rapps Pharmacy,611 Park Avenue,Plainfield,NJ,07060,Competitors,rappspharmacy.com
23215332497,Sol Weiss,303 Merrick Road,Lynbrook,NY,11563,,millinmedical.com
23077105486,Vales Health Consulting,,Yonkers,NY,,,valeshealthconsulting.com
22984534180,Community Health Center of the North Country,,Canton,NY,13617,,chcnorthcountry.org
22948843161,My Blog,147-13 Union Turnpike,,NY,11367,Non-Prospect,echofl.com
22287136330,Children's Hospital Colorado,13123 E 16th Ave,Aurora,CO,80045,Non-Prospect,childrenscolorado.org
22287301754,City and County of Denver,1437 Bannock Street,Denver,CO,80202,Non-Prospect,denvergov.org
22287288383,Jewish Family Service of Colorado,3201 South Tamarac Drive,Denver,CO,80231,Non-Prospect,jewishfamilyservice.org
22287003457,Family Voices CO,7323 South Alton Way,Englewood,CO,80112,Non-Prospect,familyvoicesco.org
22287221313,Broomfield Housing Alliance,26 Garden Center,Broomfield,CO,80020,Non-Prospect,broomfieldhousingalliance.org
22287265102,PROWERS COUNTY,301 South Main Street,Lamar,CO,81052,,prowerscounty.net
22286990443,Community Roots,,Lafayette,CO,80026,Prospect,communityrootscolorado.com
22287136329,Strive Colorado,950 Grand Avenue,Grand Junction,CO,81501,,strivecolorado.org
22287232315,Rocky Mountain Human Services,9900 East Iliff Avenue,Denver,CO,80231,,rmhumanservices.org
22287690389,Sample Supports,620 Kimbark Street,Longmont,CO,80501,Prospect,samplesupports.com
22287032586,Stepping Stone Support Center,9700 Old Coal Mine Avenue,Littleton,CO,80123,Prospect,steppingstonesupportcenter.com
22287448179,Colorado Parks and Wildlife,6060 Broadway,Denver,CO,80216,Non-Prospect,state.co.us
22287690387,Community Connections,281 Sawyer Drive,Durango,CO,81303,Non-Prospect,communityconnectionsco.org
22287370923,Eastern Colorado Services for the Developmentally Disabled,617 South 10th Avenue,Sterling,CO,80751,Pipeline,ecsdd.org
22287292932,The Resource Exchange,6385 Corporate Drive,Colorado Springs,CO,80919,Influencer,tre.org
22287340663,VitalCare,1400 West 122nd Avenue,Westminster,CO,80234,,vitalcare.us
22287281166,Our Own Lives,325 South Pine Street,Cortez,CO,81321,Prospect,ourownlives.org
22287160199,Tepeyac Community Health Center,2101 East 48th Avenue,Denver,CO,80216,,tepeyachealth.org
22031907848,Almatica Pharma,9 Campus Drive,Parsippany-Troy Hills,NJ,07054,,almatica.com
21945318326,Colorado State Public Defender,1300 Broadway,Denver,CO,80203,Non-Prospect,coloradodefenders.us
20878208791,Twinbash,,New York,NY,,Non-Prospect,twinbash.co
20174083926,Nyhrc,18 East 50th Street,New York,NY,10022,Prospect,nyhrc.com
20174192743,Urban League of Rochester,265 North Clinton Avenue,Rochester,NY,14605,Non-Prospect,ulr.org
20173593388,"The Viscardi Center, Inc.",201 I U Willets Road,Albertson,NY,11507,Non-Prospect,viscardicenter.org
20174227735,Southern Tier Connect,438 Main Street,Oneonta,NY,13820,Associaton,southerntierconnect.org
20174183849,MEANINGFUL NY INITIATIVES FOR PEOPLE WITH DISABILITIES,81 Willoughby Street,BROOKLYN,NY,11201,Prospect,meaningfulny.org
33649375413,Goodwill,,New York,NY,,Non-Prospect,goodwillny.org
20174192742,LIFEPlan CCO NY LLC,258 Genesee Street,Utica,NY,13502,Prospect,lifeplanccony.com
20174160719,myacany.org,,New York,NY,,Associaton,myacany.org
20174307717,Beyond Support Network,2495 Main Street,Buffalo,NY,14214,Pipeline,beyondwny.org
19921664901,State of New York,120 Broadway,New York,NY,10271,Non-Prospect,opwdd.ny.gov
19810286908,beken holdings,451 21st Avenue,Longmont,CO,80501,Non-Prospect,bekenholdings.com
19810516308,TACT,2960 South Umatilla Street,Englewood,CO,80110,Influencer,buildwithtact.org
19810350380,Envision,4732 West 26th Street,Greeley,CO,80634,Prospect,envisionco.org
19810424335,Flood and Peterson,4687 West 18th Street,,CO,80222,Non-Prospect,floodpeterson.com
19810286907,"Alvarez & Marsal Holdings, LLC",600 Madison Avenue,New York,NY,10022,Non-Prospect,alvarezandmarsal.com
19810309947,Attorneys at Oscislawski LLC,782 Alexander Road,Princeton,NJ,08540,Non-Prospect,oscislaw.com
19809656128,"Dynamic Dimensions, Inc.",,Burlington,CO,80807,Prospect,dynamicdimensions.org
19771785776,Healthy Wellbeing,228 Park Avenue South,New York,NY,10003,Non-Prospect,healthywellbeing.com
19652126278,Easter Seals New York,633 3rd Avenue,New York,NY,10017,Prospect,eastersealsny.org
19652165759,Emerge Professionals,400 South Colorado Boulevard,Denver,CO,80246,Non-Prospect,emergeprofessionals.com
19652004278,Alliesinc,20 Freedom Blvd,Lawrence Township,NJ,08648,Non-Prospect,alliesinc.org
19652843812,Transitional Living Services of Northern New York,482 Black River Parkway,Watertown,NY,13601,Non-Prospect,tlsnny.com
19651521546,Tasc,305 Bond Street,Asbury Park,NJ,07712,Non-Prospect,tascllc.com
19652181049,AOL.com,,New York,NY,10003,Non-Prospect,corp.aol.com
19612873395,Radiant Abilities,,Syracuse,NY,13031,Prospect,radiantabilities.com
19613890353,CAREGIVERS OF NEW JERSEY,1 Aaa Drive,Hamilton Township,NJ,08723,Influencer,njcaregivers.org
19613949500,Faith Home Healthcare,271 U.S. 46,Fairfield,NJ,07004,Non-Prospect,faithcareus.com
19613964878,State of New Jersey Department of Law and Public Safety,25 Market Street,Trenton,NJ,08611,Non-Prospect,dhs.nj.gov
19613976623,Sussex County Government,1 Spring Street,Newton,NJ,07860,Influencer,sussex.nj.us
19613955958,dsausa.net,3 High Street,South River,NJ,08882,Influencer,dsausa.net
19613441801,partnershipforsuccessfulliving.com,1229 Haddonfield-Berlin Road,Voorhees Township,NJ,08043,Non-Prospect,partnershipforsuccessfulliving.com
19613286558,Skylands Family Support,126 Belvidere Avenue,Washington,NJ,07882,Influencer,skylandsfamilyservices.com
19613377603,Circle of Strength,291 U.S. 1,Edison,NJ,08817,Non-Prospect,njcircleofstrength.com
19593840503,PASCO,9197 West 6th Avenue,Lakewood,CO,80215,Influencer,pascohh.com
19595205538,Spectrum Community Services,105 Lehigh Avenue,Pueblo,CO,81005,Prospect,spectrumco.com
19593845130,HORIZONS SPECIALIZED SERVICES,405 Oak Street,Steamboat Springs,CO,80487,Prospect,horizonsnwc.org
19574215815,SJ Nurses,850 Hamilton Avenue,Trenton,NJ,08629,Non-Prospect,sjnurses.com
19433057902,C.A.R.E. Inc.,1950 Aspen Cir,Pueblo,CO,81006,Prospect,www.careincresidential.com
19373171984,Panda Imprinting & Graphics,10 Fadem Road,Springfield,NJ,07081,Non-Prospect,pandaimprinting.com
19262935642,Better Life Experience,550 Thornton Pkwy Unit 118,Thornton,CO,80229,Prospect,ablecolorado.com
19262935640,Innovations,1665 Coal Creek Dr,Lafayette,CO,80026,Non-Prospect,innovationsbehavior.com
19262935632,Your Choice Residential,320 N Academy Blvd Ste 303A,Colorado Springs,CO,80909,Prospect,yourchoiceresidential.com
19262803063,CentrePoint Support Living,6892 S Yosemite Ct #1-101 A,Centennial,CO,80112,Prospect,centrepointsupportliving.com
19236998314,Metro Support Services,9035 Wadsworth Parkay,Broomfield,CO,80021,Influencer,metrosupport.net
19236998308,Starpoint,700 S 8th St.,Canon City,CO,81212,Prospect,starpointco.com
19178052633,Pueblo Regional Center,830 N Main St Ste 100,Pueblo,CO,81003,Prospect,www.prbd.com
19161074105,JEWISH FEDERATION OF SOUTHERN NEW JERSEY,1301 Springdale Road,Cherry Hill,NJ,08003,Prospect,jewishsouthjersey.org
19160794436,Nima Care Supported Living LLP,,,NJ,,Non-Prospect,
19160794389,"New Care Health Partners, LLC",,,NJ,,Non-Prospect,
19160674144,"Premier Supports, LLC",1600 Liberty Place,Gloucester Township,NJ,08081,Non-Prospect,premierebehavioralsupports.org
19160747172,RESCARE - NJ,,,NJ,,Prospect,
19160747083,Mentor ABI - NJ,,,NJ,,Prospect,
19160746904,Keystone Community Resources - NJ,,,NJ,,Client,
19160620839,Community Options Enterprises,,,NJ,,Non-Prospect,
19148413301,SEARCH DAY PROGRAM,73 Wickapecko Drive,Wanamassa,NJ,07712,Influencer,searchdayprogram.com
19149709375,The Special Children's Center,1400 Prospect Street,Lakewood Township,NJ,08701,Non-Prospect,thecenternj.org
19149675926,Caring For Families ,940 Flora Street,Elizabeth,NJ,07201,Prospect,caringforfamilies.net
19149607563,CODI,901 Atlantic Avenue,Egg Harbor City,NJ,08215,Non-Prospect,njcodi.org
19149585804,Windmill Alliance,141 Broadway,Bayonne,NJ,07002,Prospect,windmillalliance.org
19149786801,Chelsea Senior Living,316 South Avenue,Fanwood,NJ,07023,Non-Prospect,cslal.com
19149555871,Cones by Design,12 U.S. 206,Stanhope,NJ,07874,Pipeline,chcnj.org
19149709374,WAR Ministry,211 Warren Street,Newark,NJ,07103,Prospect,war-ministry.org
19149431188,COMMUNITY QUEST INC,6814 Tilton Road,Egg Harbor Township,NJ,08234,Prospect,cqinc.org
19149772718,APluscare,197 New Jersey 18,East Brunswick,NJ,08816,Prospect,apluscarellc.com
19149610593,Home,803 Hopkins Road,Haddonfield,NJ,08033,Non-Prospect,woodsmanor.org
19149744449,HollyDELL,610 Holly Dell Drive,Washington Township,NJ,08080,Non-Prospect,hollydell.org
33649375414,Our House Inc.,1609 S Wahsatch Ave,Colorado Springs,CO,80905,Prospect,ourhouseinc.org
18923245954,AGNES DENT HOMES I,4805 16TH ST,LUBBOCK,NY,71665,Prospect,suddenlink.net
18627617125,Nonprofit Management Services of Colorado,325 Inverness Drive South,Englewood,CO,80112,Influencer,nmscolo.org
18417318039,Cpnys,486 78th St,Brooklyn,NY,11209,Non-Prospect,cpnys.org
18015518379,Life Opportunities Unlimited,50 West Ridgewood Avenue,Ridgewood,NJ,07450,Prospect,lifeop.org
17735096608,New Test Company 3,,,NY,,Non-Prospect,
17735479068,TEST JP 3,,NYC,NY,,Pipeline,
17692731174,Bway.net,Po Box 1688,New York,NY,10013,Non-Prospect,bway.net
17692810766,Wraparound Services of the Hudson Valley,250 Tuyten Bridge Road,Lake Katrine,NY,12449,Prospect,wshv.org
17692736623,MVP Health Care,625 State St,Schenectady,NY,12305,Non-Prospect,mvphealthcare.com
17668468068,Paradigm LTC,125 Half Mile Rd,Red Bank,NJ,07701,Non-Prospect,paradigmltc.com
17667870368,Cumberland County College,3322 College Drive,Vineland,NJ,08360,Client,cccnj.edu
17568990209,Integrated Life Choices Colorado,7800 S Elati Street Suite 111,Littleton,CO,80120,Pipeline,ilc.net
17520381494,NEWFAC - RHA NJ SOUTH (NJ-S),,,NJ,,Client,
17520236589,NEWFAC - RHA NJ NORTH (NJ-N),,,NJ,,Client,
17509024331,KAAUM ENTERPRISES,6675 Bear Tooth Drive,Colorado Springs,CO,80923,Prospect,kaaumenterprises.com
17459236260,IGHI,,,NY,,Prospect,ighi.org
17409998206,Premier Healthcare,48 Bi State Plaza,Old Tappan,NJ,07675,Non-Prospect,premierhealthcare.com
17324166215,"A Sub Above, LLC",2251 Landmark Pl,Manasquan,NJ,08736,Non-Prospect,jerseymikes.com
17304398211,Paraprofessional Healthcare Institute,400 E FORDHAM RD,Bronx,NY,10458,Non-Prospect,phinational.org
17301437491,University at Buffalo,701 Ellicott Street,Buffalo,NY,14203,Non-Prospect,buffalo.edu
17152974921,Building Maintenance and Facility Services,1 LIBERTY PLZ,New York,NY,10006,Non-Prospect,abm.com
17088971298,Steadfast Support Services,450 PARK AVE,New York,NY,10022,Prospect,steadfast.org
17048749645,Emerge,412 Linden Avenue,Rochester,NY,14625,Non-Prospect,emerge360.com
16624422438,Matheny Medical and Educational Center,339 PO Box,Peapack,NJ,07977,Associaton,matheny.org
33649375391,AbleLight - Colorado,5941 Middlefield Rd #100,littleton,CO,80123,Prospect,ablelight.org
16384515943,Center for Independence,740 Gunnison Ave,Grand Junction,CO,81501,Prospect,cfigj.org
16382165280,CommunitySupportsNet,170 Changebridge Road,Montville,NJ,07045,Prospect,yourcsn.com
16368967068,SOBA New Jersey,104 Bayard Street,New Brunswick,NJ,08901,Non-Prospect,sobanewjersey.com
16369505652,Rutgers University,406 PENN,New Brunswick,NJ,08901,Prospect,rutgers.edu
16330518188,Ramapo for Children,22 Camp Ramapo Road,Rhinebeck,NY,12572,Prospect,ramapoforchildren.org
16330208925,EPRINE COMMUNITY SERVICES,1650 Eastern Parkway,BROOKLYN,NY,11233,Prospect,eprine.com
16249367647,Verizon Data Services LLC,1095 6th Avenue,New York,NY,10036,Non-Prospect,verizonwireless.com
16181576030,Karuna Care Services,890 West Cherry Street,Louisville,CO,80027,Prospect,karunacareservices.com
16171838064,Cooper Medical Education,1 Cooper Plaza,Camden,NJ,08103,Influencer,cooperhealth.edu
16156273681,Center for Health Care Strategies,200 American Metro Boulevard,Hamilton Township,NJ,08619,Non-Prospect,chcs.org
16096548185,Camphill Village USA,84 Camphill Rd,Copake,NY,12516,Prospect,camphillvillage.org
16005006660,Wyndham Hotel Group LLC,22 Sylvan Way,Parsippany-Troy Hills,NJ,07054,Non-Prospect,wyndham.com
15668724817,uniteus.com,65 North Moore Street,New York,NY,10013,Non-Prospect,uniteus.com
15668001918,National Down Syndrome Society,8 East 41st Street,New York,NY,10017,Influencer,ndss.org
15668679471,SAGE,305 7th Avenue,New York,NY,10001,Non-Prospect,sageusa.org
15529074061,Community Link,6290 Lookout Road,Boulder,CO,80301,Prospect,communitylinkcolorado.org
15529443403,Colorado Blue Sky Enterprises,115 West 2nd Street,Pueblo,CO,81003,Pipeline,coloradoblueskyenterprises.org
15528709676,Wellspring Community,826 Park Street,Castle Rock,CO,80109,Prospect,wearewellspring.org
15528995746,voaches.org,7901 Annapolis Road,Lanham,CO,20706,Non-Prospect,voaches.org
15528762642,Ariel Clinical Services,2938 North Avenue Ste. G,Grand Junction,CO,81504,Prospect,arielcpa.org
15529047952,Elevated Supports,201 Coffman Street,Longmont,CO,80501,Prospect,elevatedsupports.com
15451758232,JPMorgan Chase & Co.,383 Madison Avenue,New York,NY,10017,Non-Prospect,jpmorganchase.com
15412255622,The Arc Steuben,1 Arc Way,Bath,NY,14810,Prospect,thearcas.org
15024144809,TTE Filters,1 Magnetic Parkway,Gowanda,NY,14070,Non-Prospect,tte.com
11043929475,biotech-gate.com,330 Madison Avenue,New York,NY,10017,Non-Prospect,biotech-gate.com
10926204161,DUTCHESS CO. NYSARC  INC.,84 PATRICK LANE,POUGHKEEPSIE,NY,12603,Prospect,dutchess-arc.org
10927901214,STEUBEN CO. NYSARC  INC.,ONE ARC WAY,BATH,NY,14810,Prospect,arcofsteuben.org
10927876773,SUFFOLK CO. NYSARC  INC.,2900 VETERANS MEMORIAL HIGHWAY,BOHEMIA,NY,11716,Prospect,ahrcsuffolk.org
10926901021,The Arc of Adams County,641 East 112th Avenue,Northglenn,CO,80233,Prospect,arcadams.org
10911495286,"Solutions, In",,,CO,,Non-Prospect,
10633255973,Foundation,4435 North Chestnut Street,Colorado Springs,CO,80907,Non-Prospect,skillsacademyvc.org
10603922025,Atlantic Health System,99 Beauvoir Avenue,Summit,NJ,07901,Prospect,atlantichealth.org
10548766482,Comprehensive Services of Tennessee,115 S. King Avenue ,Dyersburg,NY,38024,Influencer,
10526401303,"Comprehensive Consultation Psychological Services, P.C.",114-20 Queens Boulevard,Forest Hills,NY,11375,Non-Prospect,comprehendthemind.com
10526658578,Mountain Tiger,4475 West 58th Avenue,Arvada,CO,80002,Non-Prospect,mountaintiger.org
10526503335,HORIZON CONSULTING GROUP LLC,4972 South Zephyr Street,Littleton,CO,80123,Non-Prospect,horizonconsultinggroup.org
10409120924,ArcBuildingPartners,100 South Elmwood Avenue,Buffalo,NY,14202,Non-Prospect,arcbuildingpartners.com
10409182843,arc Thrift Stores,12345 W Alameda Pkwy Ste 111,Lakewood,CO,80228,Non-Prospect,arcthrift.com
10409339009,The Arc,985 Livingston Ave,North Brunswick,NJ,08902,Non-Prospect,thearcfamilyinstitute.org
10409339008,The Arc Kohler School,1137 Globe Ave,Mountainside,NJ,07092,Non-Prospect,kohleracademynj.org
10409339006,The Arc Mid-Hudson,575 Drewville Rd,Carmel,NY,10512,Prospect,putnamarc.org
10409339005,Arc Community League,1 South St,Beacon,NY,12508,Prospect,communityleagueny.org
10409310592,Ontario ARC,3071 County Complex Dr,Canandaigua,NY,14424,Prospect,ontarioarcevents.org
10409310578,Arc of Oswego County,7 Morrill Pl,Fulton,NY,13069,Prospect,arcofoswegocounty.org
10249560619,TARRYTOWN EXPOCARE NJ,281 HWY 46,ELMWOOD PARK,NJ,07407,Client,
10249554086,DUNGARVIN SOUTH (NJ-S),1543 NJ-27,SOMERSET,NJ,08873,Client,
10250224171,DUNGARVIN NORTH (NJ-N),1543 NJ-27,SOMERSET,NJ,08873,Client,
10250267938,TENDER CARE - NO DH (NJ-N),934 STUYVESANT AVE,UNION,NJ,07083,Client,
10201147449,High Focus Centers,47 Maple St,Summit,NJ,07901,Non-Prospect,highfocuscenters.com
10200859773,Epstein Becker Green,250 Park Ave,New York,NY,10022,Prospect,ebglaw.com
10201200789,Clickxio,347 5th Avenue,New York,NY,10016,Vendor,clickxio.com
33650870362,Johnson & Johnson,4031 Elyt Dr,New Brunswick,NJ,08933,Prospect,jnj.com
10201121092,Cityblock Health,55 Washington Street,BROOKLYN,NY,11201,Non-Prospect,cityblock.com
10201207891,Centene Corporation,3773 Cherry Creek Drive North,Denver,CO,80209,Non-Prospect,centene.com
10200773661,Training for HHA Certification,400 West 57th Street,New York,NY,10019,Non-Prospect,nevvon.com
10144411944,Pueblo Diversified Industries,2828 Granada Boulevard,Pueblo,CO,81005,Prospect,pdipueblo.org
10144363701,SANYS,500 Balltown Road,Schenectady,NY,12304,Prospect,sanys.org
10143479059,Care Design NY,8 Southwoods Boulevard,Albany,NY,12211,Prospect,caredesignny.org
9956075961,Madagoni-devices,247 East Front Street,Trenton,NJ,08611,Non-Prospect,madagoni-devices.com
9948226860,Woodstock Chimes,167 Dubois Rd,Shokan,NY,12481,Non-Prospect,chimes.com
9909638741,Their Place,415 RT 18 S,East Brunswick,NJ,08816,Non-Prospect,www.theirplace.org
9811800588,Willowglen Academy,8 Wilson Dr,Sparta,NJ,07871,Prospect,www.broadstep.com
9753188610,Advanced Recovery Services Inc,5434 KING AVE ROUTE 38 E,Pennsauken,NJ,08109,Non-Prospect,advancedrecoveryservice.com
9753113704,eVero Corporation,48 South Service Road,Melville,NY,11747,Non-Prospect,evero.com
9753384883,Shatterproof,950 6th Avenue,New York,NY,10001,Non-Prospect,shatterproof.org
9741793568,Unistel Industries,650 Blossom Road,Rochester,NY,14610,Non-Prospect,unistelindustries.com
9703457630,EDGEMONT AT TARRYTOWN CONDOMIN,301 Martling Avenue,Tarrytown,NY,10591,Prospect,edgemontcondo.com
9591810951,acenterforautism.org,4885 ROUTE 9,STAATSBURG,NY,,Prospect,acenterforautism.org
9590720595,Access One ATM,280 85th Street,BROOKLYN,NY,11209,Non-Prospect,accessoneusa.com
9584586354,Trailhead Community,11757 W Ken Caryl Ave f 426,Littleton,CO,80127,Non-Prospect,trailheadcommunity.org
9585047726,Tall Tales Ranch,6311 S Grant Dr,Centennial,CO,80121,Non-Prospect,talltalesranch.org
9583740801,Hilltop Ranch,3472 Research Pkwy Ste 104 611,Colorado Springs,CO,80920,Non-Prospect,hilltopranch.org
9560023584,"Cornerstone Services,",31 South Ohioville Road,New Paltz,NY,12561,Non-Prospect,crst.net
9462509137,CATHOLIC CHARITIES OF COLUMBIA AND GREENE COUNTIES,431 East Allen Street,Hudson,NY,12534,Prospect,catholiccharitiescg.org
9455419246,"Phil Church, Oswego County Adm.",10 Am To 4 Pm You May Be Required To Wait A Short Period Depending On The Availability Of Staff We Are Located At The Public Safety Center 39 Churchill Rd,New York,NY,13126,Non-Prospect,oswegocounty.com
9445182872,The Arc Arapahoe & Douglas Counties,6538 South Racine Circle,Centennial,CO,80111,Prospect,arc-ad.org
9628329073,Innovative Services of Colorado,14107 East Exposition Avenue,Aurora,CO,80012,Prospect,innovativeservicesco.com
9445133085,New World Child Placement Agency,15200 E Girard Ave Ste 3450,Aurora,CO,80014,Non-Prospect,anewworldcpa.org
9445133084,Kari Randall,1355 S Colorado Blvd Ste C810,Denver,CO,80222,Non-Prospect,randalllpc.com
9445133083,Foothills Service League,PO Box 734,Loveland,CO,80539,Influencer,foothillsserviceleague.org
9445133082,The Arc of the Central Mountains,817 Colorado Ave Ste 304,Glenwood Springs,CO,81601,Prospect,arccentralmountains.org
9445133080,CommonWorks,4575 Galley Rd Ste 100D,Colorado Springs,CO,80915,Non-Prospect,commonworks.org
9445133079,Absolute,12500 W 58th Ave Ste 103,Arvada,CO,80002,Non-Prospect,absoluteadultdayprogram.com
9445133078,Legacy Comprehensive Counseling & Consulting,19751 E Mainstreet Ste 218,Parker,CO,80138,Influencer,legacyparker.com
9445133077,Care and Community,18757 E Hampden Ave Ste 162,Aurora,CO,80013,Non-Prospect,careandcommunity.org
9445133076,The Arc Mesa County,845 Grand Ave,Grand Junction,CO,81501,Prospect,thearcmesa.org
9445133075,A Brighter Community,9701 W 50th Ave,Wheat Ridge,CO,80033,Prospect,abrightercommunity.com
9445133074,THINK+change,1342 S Chambers Rd,Aurora,CO,80017,Non-Prospect,thinkchange.training
9445133073,Positive Behavioral Services of the Four Corners,31 Ash St,Cortez,CO,81321,Non-Prospect,positivebehavioralservices.com
9445133072,Hope Services Center,2323 S Troy St Ste 1-311,Aurora,CO,80014,Non-Prospect,hopeservicescenter.com
9445133071,Jenny's Helping Hands,2690 S Columbine St,Denver,CO,80210,Non-Prospect,jennyshelpinghands.info
9445133069,Blue Spruce Community,1001 Lincoln Ave,Louisville,CO,80027,Prospect,bluesprucecommunity.org
9445133068,Aaron's Fund,1123 Spruce St,Boulder,CO,80302,Non-Prospect,aaronsfund.com
9445133067,Association For Community,624 Coffman St,Longmont,CO,80501,Associaton,aclboulder.org
9445133066,The Arc of Southwest Colorado,1199 Main Ave Ste 216,Durango,CO,81301,Prospect,thearcofswco.org
9445133065,Mile High Leaps & Bounds,6415 Estes St,Arvada,CO,80004,Non-Prospect,milehighleapsandbounds.org
19304021126,Developmental Pathways,325 Inverness Dr S,Englewood,CO,80112,Non-Prospect,dpcolo.org
9445104294,The Arc of Larimer County,1721 W Harmony Rd Unit 101,Fort Collins,CO,80526,Prospect,thearcoflarimercounty.org
9445104293,Complete Care Counseling Agency,21699 Quincy Ave Unit F344,Aurora,CO,80015,Non-Prospect,completecarecolorado.org
9445104291,The Arc Of Pueblo,2705 Vinewood Ln Unit 1,Pueblo,CO,81005,Prospect,arcofpueblo.org
9445104290,Tender Hearts Adult Day Care,10190 Montview Blvd,Aurora,CO,80010,Prospect,tenderheartsadc.com
9445104289,Stellar Care and Services,1150 Elkton Dr Ste 125,Colorado Springs,CO,80907,Pipeline,stellarcare.org
9445104288,Elderhaus,6813 S College Ave,Fort Collins,CO,80525,Influencer,elderhaus.org
9445104287,The Arc of Weld County,5312 W 9th Street Dr Ste 150,Greeley,CO,80634,Prospect,arcweldcounty.org
9445104286,Community Options,336 S 10th St,Montrose,CO,81402,Prospect,communityoptionsinc.org
9445104285,Comprehensive Community Based Services,8668 E Doane Pl,Denver,CO,80231,Prospect,ccbs.biz
9445104284,The Arc of Colorado,1580 Logan St Ste 730,Denver,CO,80203,Prospect,thearcofco.org
9445104283,The Arc of West Central Colorado,PO Box 586,Delta,CO,81416,Prospect,arcwcco.org
9445104281,Mountain Valley Developmental Services,700 Mount Sopris Dr,Glenwood Springs,CO,81601,Prospect,mtnvalley.org
9445104280,The Friends,11851 Saulsbury St,Broomfield,CO,80020,Prospect,friendsofbroomfield.org
9445104279,Southern Colorado Develpmental Disbilities Services,1205 Congress Drive,Trinidad,CO,81082,Prospect,scdds.com
9445104278,The Otero,1204 W Ash St Unit D,Windsor,CO,80550,Prospect,theoterocorp.com
9445104276,Interaction Resources DDD,3636 S Independence St,Lakewood,CO,80235,Non-Prospect,interactionresources.com
9445104275,Developmental Disability.org,13837 Lexington Pl,Westminster,CO,80023,Non-Prospect,developmentaldisability.org
9445104274,The Arc Pikes Peak Region,12 N Meade Ave,Colorado Springs,CO,80909,Prospect,thearcppr.org
9418453340,Peace Aging Care Experts,PO Box 495,Flanders,NJ,07836,Non-Prospect,peaceagingcare.com
9418453339,southeast foundation,1219 N Forest Rd,Williamsville,NY,14231,Non-Prospect,southeastfoundationwny.org
9418326648,Gateway Counseling Center,175-41 Liberty Ave,Jamaica,NY,11433,Prospect,gccnyc.org
9408458888,Nysarc,29 British American Blvd Fl 2,Latham,NY,12110,Prospect,thearcny.org
9394059317,DELTA SOUTH (NJ-N),,,NJ,,Prospect - Former Client,
9393984125,BANCROFT - NEUROREHAB (NJ-N),,,NJ,,Client,
9364815390,VICTORIA MANOR (NJ-S),,,NJ,,Client,
9364862296,AVE TO INDPNDT. LIVING (NJ-S),,,NJ,,Client,
9253785640,"Clayton, Dubilier & Rice, LLC",375 Park Avenue,New York,NY,10022,Non-Prospect,cdr-inc.com
9253770926,So. Jersey Radiology,901 New Jersey 168,Washington Township,NJ,08012,Non-Prospect,sjra.com
9160312582,Advancing Opportunities,"1005 Whitehead Road Extension, Ste 1",Ewing,NJ,08638,Prospect,advopps.org
9128238257,SCARC GUARDIANSHIP SERVICES,11 U.S. 206,Frankford,NJ,07822,Non-Prospect,scarcguardianship.org
9107360373,Catholic Health Initiatives,198 Inverness Dr W,Englewood,CO,80112,Non-Prospect,catholichealthinitiatives.org
9069363104,HELP USA,115 East 13th Street,New York,NY,10003,Non-Prospect,helpusa.org
8950204567,Support Inc,15591 East Centretech Parkway,Aurora,CO,80011,Client,supportinc.com
8784688655,Supply Inc,1340 Spofford Ave,Bronx,NY,10474,Non-Prospect,ffsupply.com
8757597045,sklsi.com,461 From Road,Paramus,NJ,07652,Non-Prospect,sklsi.com
8551582548,International Business Machines Corporation,1 Orchard Road,Armonk,NY,10504,Non-Prospect,ibm.com
8537454459,PostNet,1819 Wazee St,Denver,CO,80228,Non-Prospect,postnet.com
8371473156,Gregory Press,7 Mark Road,Kenilworth,NJ,07033,Non-Prospect,gregorypress.com
8364382271,C & K Solutions,13918 East Mississippi Avenue,Aurora,CO,80012,Non-Prospect,candksolutions.com
8364850946,Tastings NYC,251 East 110th Street,New York,NY,10029,Non-Prospect,tastingsnyc.com
9253698118,RESILIENT CARE PHYSICAL THERAPY,5718 Woodside Avenue,Woodside,NY,11377,Non-Prospect,resilientcarept.com
8363114326,SOUTH JERSEY COUNSELING ASSOCIATES,1307 White Horse Rd Ste A102,Voorhees Township,NJ,08043,Non-Prospect,www.sjra.com
8362958369,BAYADA HOME HEALTH CARE INC,290 Chester Ave,Pennsauken,NJ,08057,Prospect,bayada.com
8359554721,Preferred Behavioral Health Group,1500 New Jersey 88,Brick,NJ,08701,Non-Prospect,preferredbehavioral.org
8344858999,PAFACOM Inc,1301 West Forest Grove Road,Vineland,NJ,08360,Prospect,pafacom.org
8311594528,"Skills Unlimited, Inc.",405 Locust Avenue,Oakdale,NY,11769,Prospect,skillsunlimited.org
8310877569,Green Chimneys Children's Services,Putman Lake Road Box 719,Brewster,NY,10509,Non-Prospect,greenchimneys.org
8311659602,Cerebral Palsy of Orange County,2 Fletcher Street,Goshen,NY,10924,Prospect,
8311594516,Cerebral Palsy of New York State Affiliate Services Office,90 State Street,Albany,NY,12207,Influencer,
8311594538,Mosaic Northern Colorado,6833 North Franklin Avenue,Loveland,CO,80538-1180,Prospect,www.mosaicinfo.org
8311563693,Mosaic Grand Junction,2456 Industrial Boulevard,Grand Junction,CO,81506,Prospect,
8310877570,Premier Health Care,460 West 34th Street,New York,NY,10001,Non-Prospect,
8311588698,New Jersey MENTOR,80 Cottontail Lane,Somerset,NJ,08873,Non-Prospect,thementornetwork.com
8311609003,Mosaic Denver,3443 S Galena St,Denver,CO,80231,Prospect,mosaicinfo.org
8310891660,Mosaic Colorado Springs,4775 Centennial Blvd,Colorado Springs,CO,80919,Prospect,mosaicinfo.org
8119570039,Community Access,2 Washington Street,New York,NY,10004,Client,communityaccess.org
8119570038,Down the Shore Services,1707 New Jersey Avenue,North Wildwood,NJ,08260,Client,downtheshoreservices.com
8120083384,Avenues to Independent Living,304 South Broad Street,Woodbury,NJ,08096,Client,avenuestoindependentliving.com
8119474341,H&R Healthcare,1750 Oak Street,Lakewood,NJ,08701,Non-Prospect,handrhealthcare.com
8118731779,Vantage Health System,2 Park Avenue,Dumont,NJ,07628,Prospect,vantagenj.org
8118672233,The Rose House,51 Gibraltar Drive,Morris Plains,NJ,07950,Non-Prospect,therosehouse.org
8118664727,"Volunteers of America Greater New York, Inc",340 West 85th Street,New York,NY,10024,Prospect,voa-gny.org
8118652797,The Arc of Monmouth,1158 Wayside Road,Tinton Falls,NJ,07712,Client,arcofmonmouth.org
8118652796,"The Open Door, LLC",2152 New Jersey 70,Manchester Township,NJ,08759,Non-Prospect,theopendoornj.om
8118173767,St. John of God Community Services,1145 Delsea Drive,Westville,NJ,08093,Non-Prospect,sjogcs.org
8118126914,SSNY Cares,420 New Jersey 34,COLTS NECK,NJ,07722,Prospect,ssny.org
8118727076,"Precious Sapphires Healthcare, Inc",875 New Jersey 73,Evesham,NJ,08053,Non-Prospect,precioussapphires.com
8118700217,Person Centered Care,311 South New York Road,Galloway,NJ,08205,Non-Prospect,ourpcc.com
8118112410,REM-NJ Inc.,313 Congress St,Boston,NJ,02210,Prospect,
8118652793,Midland Adult Services,94 Readington Road,Branchburg,NJ,08876,Client,midlandschool.org
8118672231,Kasefa Care LLC,5 FRANKLIN AVE,Newark,NJ,07109,Non-Prospect,kasefacarellc.com
8118664718,Ladacin Network,1100 Airport Road,Wanamassa,NJ,07712,Prospect,ladacin.org
8118152248,Jonathan's Haven,42 Eagle Rock Avenue,Roseland,NJ,07068,Non-Prospect,jonathanshaven.com
8118112413,Keystone Community Living Inc.,154 Front Street,South Plainfield,NJ,07080,Non-Prospect,keystonecomliving.com
8118713673,First Cerebral Palsy of NJ,7 Sanford Avenue,Belleville,NJ,07109,Prospect,cerebralpalsycenter.org
8118664726,Gracious Services Inc.,25 South Avenue,Fanwood,NJ,07023,Non-Prospect,graciousservicesinc.com
8118731781,Elwyn NJ,228w West Landis Ave,Vineland,NJ,08360,Non-Prospect,elwyn.org
8118659224,Catholic Charities-Diocese of Newark,37 Evergreen Pl,Newark,NJ,07107,Client,ccannj.org
8118138657,Cerebral Palsy League,75 Rod Smith Place,Cranford,NJ,07016,Non-Prospect,thecplinc.org
8118120228,Cerebral Palsy of North Jersey,220 South Orange Avenue,Livingston,NJ,07039,Pipeline,cpnj.org
8118746676,"Broadway Respite and Homecare, Inc.",717 Broadway,Newark,NJ,07104,Non-Prospect,jhcare.com
8118738098,Brain Injury Alliance of NJ Inc.,825 Georges Road,North Brunswick Township,NJ,08902,Influencer,bianj.org
8118692952,"Attain and Gain Counseling, LLC",263 Hillside Avenue,Nutley,NJ,07110,Prospect,attainandgain.com
8118664720,"Attentive Care Partners, LLC",103 Carnegie Center,Princeton,NJ,08540,Prospect,abri.care
8118738101,Arc of Hudson,409 36th Street,Union City,NJ,07087,Prospect,archudson.org
8118632257,"Allegro School, Inc.",125 Ridgedale Avenue,Hanover,NJ,07927,Non-Prospect,allegroschool.org
8118173765,Abilities Unlimited New Jersey,104 Roslyn Drive,Tinton Falls,NJ,07753,Non-Prospect,abilitiesunlimitednj.org
8012213909,St. Mary's Center For Rehabilitation & Healthcare,210 Saint Marys Drive,Cherry Hill,NJ,08003,Non-Prospect,stmc.org
8002332280,FIRST FLIGHT USA,42 West 38th Street,New York,NY,10018,Non-Prospect,firstflightusa.com
7997758531,residentialalternatives.com,1183 Monroe Avenue,Rochester,NY,14620,,residentialalternatives.com
7996917910,Inter-Care,51 East 25th Street,New York,NY,10010,Prospect,inter-care.com
7973893780,"Unity House of Troy,",2431 6th Avenue,Troy,NY,12180,Prospect,unityhouseny.org
7955145850,IRI,112-40 Francis Lewis Boulevard,,NY,11429,Prospect,iriny.org
7952548220,Cardinal McCloskey Community Charter School,685 East 182nd Street,Bronx,NY,10458,Non-Prospect,cmccs.org
7934020723,Roman Catholic Diocese of Rochester,1150 Buffalo Road,Rochester,NY,14624,Non-Prospect,dor.org
7925954686,Parental Loving Care Inc. ,32 Steers St,Staten Island,NY,10314,Prospect,
7925944705,COMMUNITY ACTION F/HUMAN SERVICES  INC,2225 Lodovick Avenue,Bronx,NY,10469,Non-Prospect,
7925918215,WRAPAROUND SERVICES HUDSON VALLEY  INC.,250 Tuytenbridge Road,Lake Katrine,NY,12449,Non-Prospect,
7925844762,CATHOLIC CHARITIES OF CHENANGO COUNTY,3 O'hara Drive,Norwich,NY,13815,Non-Prospect,chenango.org
9341127462,Makor,1556 38th St,Brooklyn,NY,11218,Prospect,makornetwork.org
7925836651,THE ARC GREATER HUDSON VALLEY,162 EAST BROADWAY,MONTICELLO,NY,12701,Prospect,sullivanarc.org
7925826953,CENTER FOR RAPID RECOVERY,312 Greenwich Street,Hempstead,NY,11550,Non-Prospect,rapidrecovery.org
7925899382,Hamaspik of Orange County,1 Hamaspik Way,Monroe,NY,10950,Prospect,hamaspikorange.org
7925936646,Hamaspik of Kings County,4102 14th Avenue,Brooklyn,NY,11219,Prospect,hamaspikkings.org
7925862278,Advocacy and Resource Center - The Arc NY,231 New York Road,Plattsburgh,NY,12903,Prospect,cviarc.org
7926025884,CAMPHILL HUDSON INC,360 Warren Street,Hudson,NY,12534,Prospect,camphillhudson.org
7925818924,AHRC Suffolk - The Arc NY,2900 Veterans Memorial Highway,Bohemia,NY,11716,Client,ahrcsuffolk.org
7925836646,ABILITY BEYOND DISABILITY (Corporate Office),480 Bedford Road,Chappaqua,NY,10514,Prospect - Former Client,abilitybeyonddisability.org
7926017809,"Maryhaven Center of Hope, Inc. ",51 Terryville Road,Pt Jefferson Station,NY,11776,Prospect,maryhaven.org
7926025881,Catholic Charities of Broome County,232 Main Street,Binghamton,NY,13905,Prospect,catholiccharitiesbc.org
7792480607,HEARTSHARE HUMAN SERVICES OF NEW YORK,12 Metro Tech Center,Brooklyn,NY,11201,Pipeline,heartshare.org
7792516214,KELBERMAN CENTER  INC.,2608 Genesee Street,Utica,NY,13502,Prospect,kelbermancenter.org
7792516213,iKan,62 N MAIN ST,Florida,NY,10921,Influencer,ikanny.org
7925872404,ANGELS UNAWARE  INC.,1375 Nelson Avenue,Bronx,NY,10452,Prospect,angelsunaware.com
7791774292,NYSARC - WARREN  WASHINGTON & ALBANY CTY,436 Quaker Road,Queensbury,NY,12804,Prospect,wwaarc.org
7792499794,GUILD FOR THE EXCEPTIONAL CHILDREN  INC.,260 68th Street,Brooklyn,NY,11220,Prospect,gecbklyn.org
7792553730,ST REGIS MOHAWK TRIBE,71 Margaret Terrance Mmrl Way,Akwesasne,NY,13655,Prospect,srmt-nsn.gov
7792506642,THE ADIRONDACK ARC,12 MOHAWK STREET,TUPPER LAKE,NY,12986,Prospect,adirondackarc.org
7792536651,Community Resources,3450 Victory Boulevard,Staten Island,NY,10314,Influencer,cr-si.org
7792462155,LEARNING DIS. ASSN OF WNY,2555 Elmwood Avenue,Kenmore,NY,14217,Non-Prospect,ldaofwny.org
7792622445,Rising Treetops,111 Monmouth Rd,Oakhurst,NJ,07755,Non-Prospect,risingtreetops.org
7792480602,IRI: INNOVATIVE RES FOR INDEPEND  INC.,112 40 Francis Lewis Blvd,Queens Village,NY,11429,Prospect,in-res.org
7792480601,"Southeast Bronx Neighborhood Center, Inc",955 Tinton Avenue,Bronx,NY,10456,Prospect,sebnc.org
7791703118,Unity House,217 Genesee Street,Auburn,NY,13021,Prospect,unityhouse.com
7925810776,CATHOLIC CHARITIES OF STATEN ISLAND  INC,6581 Hylan Boulevard,Staten Island,NY,10309,Prospect,cc-si.org
7792516206,Services for the Developmentally Challenged,5475 Fieldston Road,Bronx,NY,10471,Prospect,sdcnyc.org
7791798431,PLUS GROUP HOMES,1228 Wantagh Avenue,Wantagh,NY,11590,Prospect,plusgrouphomes.org
7791703116,MODEST COMMUNITY SERVICES ASSOCIATION,4308 Richmond Avenue,Staten Island,NY,10312,Prospect,modestservices.org
7792499789,PERSON CENTERED CARE SERVICES  INC.,150 Granite Avenue,Staten Island,NY,10303,Prospect,pccsny.org
7792597651,ANOTHER STEP  INC.,706 Executive Boulevard,Valley Cottage,NY,10989,Prospect,anotherstep.org
7792580488,"Life Adjustment Center, Inc.",1430 Broadway,New York,NY,10018,Prospect,lifeadjustmentcenter.com
7792614753,Clear View School,480 Albany Post Road,Briarcliff Manor,NY,10510,Non-Prospect,clearviewschool.org
7792545614,"Crossroads Unlimited, Inc. ",131 Forest Avenue,Staten Island,NY,10301,Prospect,crossroadsunlimitedinc.org
7925403672,GROTON COMMUNITY HEALTH CARE CENTER,120 Sykes Street,Groton,NY,13073,Non-Prospect,grotonhealth.org
7926025883,Hawthorne Foundation,5 Bradhurst Avenue,Hawthorne,NY,10532,Prospect,hawthornecountryday.org
7925836650,GENERAL HUMAN OUTREACH IN THE COMMUNITY,125 10 Queens Boulevard,Kew Gardens,NY,11415,Prospect,ghoinc.org
7792590678,PROGRAM DEVELOPMENT SERVICES,6916 New Utrecht Avenue,Brooklyn,NY,11228,Prospect,4pds.org
7792525072,Esperanza Center,516 West 181st Street,New York,NY,10033,Prospect,esperanzacenter.com
7792573751,ELMY'S SPECIAL SERVICES  INC.,163 Vanburen Street,Brooklyn,NY,11221,Prospect,elmysspecialservices.org
7792525068,Prospect Center An affiliate of CDS,Prospect Child & Family Center,Queensbury,NY,12804,Prospect,prospectcenter.com
7792622435,NEW HORIZONS RESOURCES  INC.,123 West Road,Pleasant Valley,NY,12569,Prospect,nhrny.org
7792573749,ANIBIC  INC.,61 35 220th Street,Bayside,NY,11364,Prospect,anibic.org
7792443688,PAUL J. COOPER CTR FOR HUMAN SVCS,630 Flushing Avenue,Brooklyn,NY,11206,Prospect,pauljcooper.org
7945208693,Creative LifeStyles,67 Bruckner Blvd,Bronx,NY,10454,Prospect,creativelifestyles.org
7792573744,Maranatha Human Services,108 23 Jamaica Avenue,Richmond Hill,NY,11418,Prospect,maranathahs.org
7792516192,Community Resource Center for the Developmentally Disabled,Hutchinson Metro Center Atrium,Bronx,NY,10461,Influencer,crcdd.org
7792443684,Empower,9812 Lockport Road,Niagara Falls,NY,14304,Prospect,empower-wny.org
7791703101,MENORAH PARK GROUP RESIDENCES  INC,4101 East Genesee Street,Syracuse,NY,13214,Prospect,menorahparkofcny.com
7792631422,"Daybreak Independent Services, Inc. ",511 E 233rd Street,Bronx,NY,10470,Prospect,daybreakis.org
7792545596,OPENGATE  INC.,357 Main Street,Armonk,NY,10504,Prospect,opengateinc.org
7925844759,RISE LIFE SERVICES,901 E Main Street,Riverhead,NY,11901,Prospect,riselifeservices.org
17665746499,Helping Celebrate Abilities,18 Broad Street,Johnson City,NY,13790,Prospect,hcaserves.org
7792573741,The Center for Developmental Disabilities,72 South Woods Road,Woodbury,NY,11797,Influencer,centerfordd.org
7792462144,ABLE2 ENHANCING POTENTIAL  INC,1118 Charles Street,Elmira,NY,14904,Pipeline,able-2.org
7951963532,Catholic Charities of Onondaga County,1654 West Onondaga Street,Syracuse,NY,13204,Prospect,ccoc.us
7792553644,LIFESPIRE  INC.,1 Whitehall Street,New York,NY,10004,Pipeline,lifespire.org
7792506546,MERCY HOME FOR CHILDREN,273 Willoughby Avenue,Brooklyn,NY,11205,Prospect,mercyhomeny.org
7925853812,SHELTERING ARMS CHILDREN AND FAMILY SERV,25 Broadway,New York,NY,10004,Prospect,shelteringarmsny.org
7792614738,UCPA OF THE NORTH COUNTRY,4 Commerce Lane,Canton,NY,13617,Prospect,cpnorthcountry.org
7792553638,SPECIAL CITIZENS FUTURES UNLIMITED  INC.,1775 Grand Concourse,Bronx,NY,10453,Prospect,specialcitizens.org
33099433332,The Arc of Wayne,150 Van Buren Street,Newark,NY,14513,Prospect,arcwayne.org
7792597631,JOB PATH  INC.,256 W 38th Street,New York,NY,10018,Prospect,jobpathnyc.org
7792631409,FERNCLIFF MANOR  INC.,1154 Saw Mill River Road,Yonkers,NY,10710,Prospect,ferncliffmanor.org
7791798406,INDEPENDENT GROUP HOME LIVING PRGRM  INC,221 North Sunrise Service Road,Manorville,NY,11949,Prospect,ighl.org
7791703092,UNIQUE PEOPLE SERVICES  INC.,4234 Vireo Avenue,Bronx,NY,10470,Prospect,uniquepeopleservices.org
7925944702,Hamaspik of Rockland County,58 Route 59,Monsey,NY,10952,Prospect,hamaspikrockland.org
7792631407,ON YOUR MARK  INC.,645 Forest Avenue,Staten Island,NY,10310,Prospect,onyourmark.org
7792631406,MOUNTAIN LAKE SERVICES,10 St. Patrick's Place,Port Henry,NY,12974,Prospect,mountainlakeservices.org
7792614735,Rayim,2 Vanburen Drive,Monroe,NY,10950,Prospect,rayim.org
7792443672,Community Mainstreaming Association,1025 Old Country Road,Westbury,NY,11590,Influencer,communitymainstreaming.org
9144796459,Catholic Charities Family and Community Services,1099 Jay Street,Rochester,NY,14611,Prospect,fcscharities.org
7925412109,OLV HUMAN SERVICES (DBA),790 Ridge Road,Lackawanna,NY,14218,Prospect,olvhs.org
7925954692,Tiegerman ,100 Glen Cove Avenue,Glen Cove,NY,11542,Non-Prospect,tiegerman.org
7791798372,Institute of Applied Human Dynamics,32 Warren Ave,Tarrytown,NY,10591,Influencer,iahdny.org
7792471114,HEAD INJURY ASSOCIATION  INC.,300 Kennedy Drive,Hauppauge,NY,11788,Associaton,headinjuryassoc.org
7792606904,ALTERNATIVE LIVING GROUP,500 New Karner Road,Albany,NY,12205,Prospect,alginc.org
7792545460,Vanderheyden,614 Cooper Hill Road,Wynantskill,NY,12198,Prospect,vanderheyden.org
7792561945,SASI,960 West Maple Court,Elma,NY,14059,Prospect,sasinc.org
7792536492,YEDEI CHESED  INC.,48 Scotland Hill Road,Chestnut Ridge,NY,10977,Prospect,yedeichesed.org
7792622351,ABILITIES FIRST  INC,167 Myers Corners Road,Wappingers Falls,NY,12590,Prospect,abilitiesfirstny.org
7792499628,MONROE CO. NYSARC  INC.,2060 BRIGHTON HENRIETTA,ROCHESTER,NY,14623,Prospect,arcmonroe.org
7792553582,UNITED HLPRS BEHVRL HEALTH & LIFE SKILLS,732 Ford Street,Ogdensburg,NY,13669,Prospect,unitedhelpers.org
7925826951,CAMP VENTURE  INC.,25 Smith Street,Nanuet,NY,10954,Prospect,campventure.org
7792573612,Community Services FOR EVERY1 ,180 Oak Street,Buffalo,NY,14203,Influencer,csevery1.com
7925899381,CARDINAL MCCLOSKEY SERVICES,115 East Stevens Ave,Valhalla,NY,10595,Prospect,cmcs.org
7791774133,HASC CENTER  INC.,5601 First Avenue,Brooklyn,NY,11220,Prospect,hasc.net
7925422499,IBERO - AMERICAN ACTION LEAGUE,817 East Main Street,Rochester,NY,14605,Prospect,iaal.org
7792462001,COMMUNITY WORK AND INDEPENDENCE INC,37 Everts Avenue,Glens Falls,NY,12801,Prospect,cwinc.org
7792480515,CATHOLIC CHARITIES OF THE DIOCESE OF ALB,1 Park Place,Albany,NY,12205,Prospect,ccdservices.org
7925403674,PUERTO RICAN FAMILY INSTITUTE  INC.,145 West 15th Street,New York,NY,10011,Prospect,prfi.org
7792499621,HAPPINESS HOUSE,731 Pre Emption Road,Geneva,NY,14456,Prospect,happinesshouse.org
7792580395,CATHOLIC CHARITIES - ROCKVILLE CENTER,90 Cherry Lane,Hicksville,NY,11801,Prospect,catholiccharities.cc
7792622343,Aspire of Western New York,2356 North Forest Road,Getzville,NY,14068,Prospect,aspirewny.org
7792524912,THE ARC (ONEIDA-LEWIS NYSARC CHAPTERS),245 GENESEE STREET,UTICA,NY,13501,Prospect,thearcolc.org
7792580394,Little Flower Children & Family Services,2450 North Wading River Road,Wading River,NY,11792,Prospect,littleflowerny.org
7792590594,CATHOLIC GUARDIAN SERVICES,1011 First Avenue,New York,NY,10022,Prospect,catholicguardian.org
7792573610,Eden II Programs,600 Newbridge Road,East Meadow,NY,11554,Prospect,eden2.org
7792461998,BROOKLYN COMMUNITY SERVICES (DBA),151 Lawrence Street,Brooklyn,NY,11201,Prospect,wearebcs.org
7792461996,OSWEGO COUNTY OPPORTUNITIES  INC.,239 Oneida Street,Fulton,NY,13069,Prospect,oco.org
7792490038,Human Care Services (HCS),1042 38th Street,Brooklyn,NY,11219,Prospect,hcsny.org
7792573609,Westchester Jewish Community Services ,845 North Broadway,White Plains,NY,10603,Prospect,wjcs.com
7792561941,HELEN KELLER SERVICES,1 Helen Keller Way,Hempstead,NY,11550,Non-Prospect,helenkeller.org
7792516118,AIM SERVICES  INC.,4227 Route 50,Saratoga Springs,NY,12866,Prospect,aimservicesinc.org
7792573608,Rising Ground,463 Hawthorne Avenue,Yonkers,NY,10705,Non-Prospect,risingground.org
7925954687,The Arc Westchester,265 Saw Mill River Road,Hawthorne,NY,10532,Prospect,westchesterarc.org
7925924943,Institute for Community Living,125 Broad Street,New York,NY,10004,Prospect,iclinc.net
7792480440,CHINESE-AMERICAN PLANNING COUNCIL  INC.,133 14 41st Avenue,Flushing,NY,11355,Prospect,cpc-nyc.org
7792516116,QSAC  INC.,253 West 35th Street,New York,NY,10001,Prospect,qsac.com
7792506468,Mental Health Association in New Jersey,"673 Morris Ave, Ste 100",Springfield,NJ,07081,Prospect,mhanj.org
7925918217,WELLLIFE NETWORK  INC.,142 02 20th Avenue,Flushing,NY,11351,Pipeline,welllifenetwork.org
7792553564,Ohel Children's Home and Family Services,1268 E 14th Street,Brooklyn,NY,11230,Influencer,ohelfamily.org
7792516115,Upstate Caring Partners formerly Upstate Cerebral Palsy,125 Business Park Drive,Utica,NY,13502,Prospect,upstatecp.org
7792553563,JAMAICA HOSPITAL MEDICAL CENTER,8900 Vanwyck Expressway,Jamaica,NY,11418,Non-Prospect,jamaicahospital.org
7792480439,NEW YORK FOUNDLING HOSPITAL,590 Avenue Of The Americas,New York,NY,10011,Pipeline,nyfoundling.org
7792461993,EAST HARLEM COUNCIL FOR COMMUNITY IMPROV,413 East 120th Street,New York,NY,10035,Prospect,acacianetwork.org
7792516114,HILLSIDE CHILDREN'S CENTER,1183 Monroe Avenue,Rochester,NY,14620,Prospect,hillside.com
7792524905,SCO FAMILY OF SERVICES,1 Alexander Place,Glen Cove,NY,11542,Prospect,sco.org
7792581548,JEWISH BOARD OF FAMILY/CHILDREN SERVICES,135 W 50th Street,New York,NY,10020,Prospect,jbfcs.org
7792631338,People Inc,835 West Main Street,Rochester,NY,14611,Pipeline,people-inc.org
7771515481,NYSHFA,33 Elk Street,Albany,NY,12207,Non-Prospect,nyshfa-nyscal.org
7658051706,Spectrum Business,20 CENTURY HILL DR,New York,NY,12110,Non-Prospect,twcbc.com
7658059605,caringinc.org,1120 North Main Street,Pleasantville,NJ,08232,Pipeline,caringinc.org
7657952441,Bright Side Manor,300 Teaneck Road,Teaneck,NJ,07666,Non-Prospect,brightsidemanor.org
8030699320,Partnerships4People, Vreeland Rd,Florham Park,NJ,07932,Prospect,partnershipsforpeople.org
7658021931,St. Dominic's Family Services,500 Western Highway,Blauvelt,NY,10913,Pipeline,sdfs.org
7657464626,The NJCDD,20 West State Street,Trenton,NJ,08608,Client,njcdd.org
7658051702,"Merrill Lynch & Co., Inc.",2125 Louisiana Blvd N E #200,New York,NY,10080,Prospect,ml.com
7657979034,PEAKS NJ,861 South Avenue,Plainfield,NJ,07062,Non-Prospect,peaksnj.org
7658043527,North Metro Community Services,1001 W 124th Ave,Denver,CO,80234,Prospect,nmetro.org
7658003208,ROCKLAND CO. NYSARC  INC.,25 HEMLOCK DRIVE,CONGERS,NY,10920,Prospect,arcofrockland.org
7658014842,Foothold Technology,36 East 12th Street,New York,NY,10003,Non-Prospect,footholdtechnology.com
7792516121,ACCESS: SUPPORTS FOR LIVING  INC.,15 Fortune Road West,Middletown,NY,10941,Prospect,accesssupports.org
7658051693,WMSH Marketing Communications,100 PO Box,Haddonfield,NJ,08033,Non-Prospect,wmsh.com
7657442141,Community Treatment Solutions,236 New Jersey 38,Mount Laurel,NJ,08054,Pipeline,ctsnj.org
7657463833,Waterfront Rest Home,,,NJ,,Non-Prospect,
7657973068,DELAWARE CO. NYSARC  INC.,34570 STATE HIGHWAY 10,WALTON,NY,13856,Prospect,delarc.org
7657973069,EMPOWERING PEOPLE'S INDEPENDENCE,2 Townline Circle,Rochester,NY,14623,Prospect,epiny.org
7657952433,The Arc of New Jersey,985 Livingston Avenue,North Brunswick Township,NJ,08902,Client,arcnj.org
7657951376,Community Hope,,,NJ,,Non-Prospect,
7658014025,DPD,,,NJ,,Non-Prospect,
7792545450,Anderson Center for Autism,4888 Route 9,Staatsburg,NY,12580,Prospect,andersoncenterforautism.org
7657937170,A.C.L.D.,807 South Oyster Bay Road,Bethpage,NY,11714,Prospect,acld.org
7657375128,Fordham-Lewis,,,NJ,,Non-Prospect,
7658014051,"Peaks Developmental Services, Inc.",835 E. 6th Street,Plainfield,NJ,07062,Non-Prospect,
7657918633,Developmental Disabilities Institute,,Smithtown,NY,,Influencer,
7657944646,Jawonio Inc,260 North Little Tor Road,New City,NY,10956,Non-Prospect,jawonio.org
7657463719,Heart to Heart,,,NJ,,Non-Prospect,
7657507610,The Arc Allegany,240 O'connor Street,Wellsville,NY,14895,Prospect,alleganyarc.org
7658011284,Community Options,16 Farber Rd,Princeton,NJ,08540,Non-Prospect,
9392441994,NIPD  (NJ-N),345 NORTH MAIN STREET,NEW CITY,NY,10956,Client,
7657985826,Richmond Community Services Association,,Mount Kisco,NY,,Influencer,
7658002030,NLDC,,,NJ,,Non-Prospect,
7657918564,Mary Cariola Children's Center,"1000 Elmwood Ave., Suite 100",Rochester,NY,14620,Prospect,marycariola.org
7658002082,The ARC of Rockland,,,NY,,Prospect,
7657426092,THE ARC ERIE COUNTY NEW YORK,30 WILSON ROAD,WILLIAMSVILLE,NY,14221,Prospect,arceriecounty.org
7657928627,Non Profit Development Center of Southern New Jersey,PO Box 100,Haddonfield,NJ,08033,Non-Prospect,
7658002090,NJ Council on Developmental Disabilities,20 West StreetPO Box 7006th floor,Trenton,NJ,,Non-Prospect,
7657951375,Legacy Treatment Services,,,NJ,,Non-Prospect,
7657367461,CP Nassau,380 Washington Avenue,Roosevelt,NY,11575,Pipeline,cpnassau.org
7657367565,Bancroft,311 Walton Avenue,Mount Laurel,NJ,08054,Prospect,
7657383342,ACDS,4 Fern Place,Plainview,NY,11803,Prospect,acds.org
7657497436,LIBERTY RESOURCES  INC.,1045 James St.,Syracuse,NY,13203,Prospect,liberty-resources.org
7658002056,"Greystone Programs, Inc.",700 South Drive,Hopewell Junction,NY,12533,Prospect,greystoneprograms.org
7657951324,Crossroads,609-880-0210,,NJ,,Prospect,
7658043525,New Hope Community,5 New Hope Community Drive,Loch Sheldrake,NY,12759,Pipeline,newhopecommunity.org
7791774251,The Arc Jefferson - St. Lawrence,380 Gaffney Drive,Watertown,NY,13601,Pipeline,thearcjslc.org
7792580460,NYS ARC RENSSELAER COUNTY CHAPTER,79 102ND STREET,TROY,NY,12180,Prospect,renarc.org
7657367478,THE ARC OF CHEMUNG-SCHUYLER,711 SULLIVAN STREET,ELMIRA,NY,14901,Prospect,thearc.org
7657375106,CDS MONARCH  INC.,860 Hard Road,WEBSTER,NY,14580,Prospect,cdsmonarch.org
7657951385,PALs,,,NJ,,Prospect,
7792631440,ARC GLOW,18 Main Street,Mt. Morris,NY,14510,Prospect,lwarc.org
7657441037,Legacy Treatment Center,,,NJ,,Non-Prospect,
7657367562,Access CNY,1603 Court Street,Syracuse,NY,13208,Non-Prospect,accesscny.org
7658042385,Autism-NJ,"500 Horizon Drive, Suite 530",Robbinsville,NJ,08691,Prospect,autismnj.org
7657367602,AHRC NYC,83 Maiden Lane,New York,NY,10038,Client,ahrcnyc.org
7925862289,A VERY SPECIAL PLACE  INC.,49 Cedar Grove Avenue,Staten Island,NY,10306,Prospect,avspny.org
7658002014,"A.R.C., INC.",1145 EAST 55TH STREET,BROOKLYN,NY,11234,Prospect,arcny.org
7658002027,ADAPT of the Hudson Valley,420 Schutt Road Extension,Middletown,NY,10940,Pipeline,adapthv.org
7657393835,Community Options - NJ,,,NJ,,Non-Prospect,
7657952512,PATHWAYS  INC.,33 Denison Parkway West,Corning,NY,14830,Pipeline,pathwaysforyou.org
7658047026,"AABR, INC.",15 08 College Point Boulevard,COLLEGE POINT,NY,11356,Prospect,aabr.org
7657936021,SERV,,,NJ,,Non-Prospect,
7657497440,ONONDAGA CO. NYSARC  INC.,600 SOUTH WILBUR AVENUE,SYRACUSE,NY,13204,Prospect,arcon.org
7657393794,Achieve,125 Cutler Pond Road,Binghamton,NY,13905,Prospect,achieveny.org
7657994290,Angela's House,5052 PO Box,Hauppauge,NY,11788,Prospect,angelashouse.org
32359256687,The Arc Lexington NY,127 East State Street,Gloversville,NY,12078,Prospect,thearclexington.org
7657383307,COARC,630 ROUTE 217,MELLENVILLE,NY,12544,Prospect,coarc.org
7658031518,Crossroads Programs,610 Beverly rancocoas Rd,Willingboro,NJ,08046,Client,crossroadsprograms.org
7657393786,Community Treatment Solutions,,,NJ,,Prospect,
7658012463,OTSEGO CO. NYSARC  INC.,35 ACADEMY STREET,ONEONTA,NY,13820,Prospect,arcotsego.org
7657936000,Benchmark,,,NJ,,Prospect,
7658048116,ABBOTT HOUSE,100 North Broadway,Irvington,NY,10533,Prospect,abbotthouse.net
7657979026,SINERGIA,2082 Lexington Ave,New York,NY,10035,Prospect,sinergiany.org
7658042389,South Park Group Home,,,NJ,,Non-Prospect,
7658014837,Schenectady ARC,214 State Street,Schenectady,NY,12305,Prospect,arcschenectady.org
7657463830,Arc of Seneca Cayuga,1521 Clark Street Rd.,Auburn,NY,13021,Prospect,arcsencay.org
7657944629,ARC HERKIMER,350 SOUTH WASHINGTON STREET,HERKIMER,NY,13350,Prospect,archerkimer.org
8118157350,Arc of Somerset County,141 South Main Street,Manville,NJ,08835,Prospect,thearcofsomerset.org
7658031640,"Goodwill Industries of Greater New York & Northern NJ, Inc (Goodwill Industries of Greater NY & NJ)",193 Veterans Blvd,Carlstadt,NJ,07072,Non-Prospect,goodwillnynj.org
7657918558,"Grace Excellency Care, LLC","2066 Millburn Avenue,Suite 102",Maplewood,NJ,07040,Prospect,graceexcellencycare.com
7658042296,Crystal Healthcare Services,"1000 Maplewood Drive,Suite 209",Maple Shade,NJ,08052,Non-Prospect,crystalhealthcareservices.com
7657393788,"ConsultCare Solutions, LLC","341 E. 33rd Street,2nd floor",Patterson,NJ,07504,Non-Prospect,consultcaresolutions.com
7657383246,Devereux Advanced Behavioral Health - NJ,"286 Mantua Grove Road, Bldg 4",West Deptford,NJ,08066,Non-Prospect,devereux.org
7658042297,"Caring House Projects - CARING House Projects, Inc.",407 W. Delilah Road,Pleasantville,NJ,08232,Prospect,caringinc.net
7657978276,The Arc of Warren County,319 W Washington Ave,Washington,NJ,07882,Pipeline,arcwarren.org
7657978218,Departmen of Human Services - Developmental Centers,Multi-location,Multi-location,NJ,08611,Non-Prospect,nj.gov
7658013992,Innovative Life of New Jersey,1900 Mount Holly Rd,Burlington,NJ,08016,Prospect,innovativelife.org
7657393790,Gold Medal Home Health,"155 Willowbrook Blvd,Suite 500",Wayne,NJ,07470,Prospect,goldmedalhomehealth.com
7657367444,"The Arc of Mercer County (The Arc of Mercer County) - Arc of Mercer, Inc. - Hamilton",180 Ewingville Road,Ewing,NJ,08638,Prospect,arcmercer.org
7657367587,Arc of Essex County Inc. - West Caldwell,1120 Bloomfield Avenue,West Caldwell,NJ,07006,Prospect,arcessex.org
7658047017,Hudson Milestones - Hudson Milestones- Admin,365-381 Clendenny Avenue,Jersey City,NJ,07304,Non-Prospect,hudsonmilestones.org
8118720805,The Arc of Hunterdon,"53 Frontage Road, Suite 150",Hampton,NJ,08827,Prospect,archunterdon.org
7658031508,Developmental Disabilities Support Services,"5 Stamy Drive, Suite 2",Ewing,NJ,08618,Non-Prospect,ddssnj.com
7658001989,Arc of Cumberland County,1680 W Sherman Ave,Vineland,NJ,08360,Non-Prospect,arccumberland.org
7657943418,Arc of Hudson - Arc of Hudson-Union City,405 36th Street,Union City,NJ,07087,Prospect,archudson.org
7657383248,Bestcare Nursing and Residential Services,"105 Evesboro Medford Road, Suite F",Marlton,NJ,08053,Client,bestcareresidential.com
7657943411,A.W. Holdings (Benchmark Human Services) - A.W. Holdings-Branchburg,3322 Route 22 West,Branchburg,NJ,08876,Non-Prospect,benchmarkhs.com
7652764961,The Arc - Jefferson,13949 West Colfax Avenue,Lakewood,CO,80401,Prospect,arcjc.org
7791798329,The Center for Discovery,Benmosche Rd,Harris,NY,12742,Influencer,thecenterfordiscovery.org
7608223143,Epic Health Services,5220 Spring Valley Road,Denver,CO,75254,Non-Prospect,epichealthservices.com
7611239039,Capabilities,1149 Sullivan St,Elmira,NY,14901,Prospect,capabilities.org
7613326760,LIFETIME ASSISTANCE  INC.,425 Paul Road,Rochester,NY,14624,Prospect,lifetimeassistance.org
7611939236,Partners Pharmacy,50 Lawrence Road,Springfield Township,NJ,07081,Competitors,partnerspharmacy.com
7611914120,Camden Coalition,800 Cooper Street,Camden,NJ,08102,Non-Prospect,camdenhealth.org
7613309307,Meeker Sharkey & Hurley Insurance,21 Commerce Drive,Cranford,NJ,07016,Non-Prospect,meekersharkey.com
7613484883,NewBridge Services,7 Industrial Road,Parsippany,NJ,07440,Non-Prospect,newbridge.org
7612081228,Jewish Family Service of MetroWest,256 Columbia Turnpike,Florham Park,NJ,07932,Non-Prospect,jfsmetrowest.org
7611865995,Northern Region Educational Services Commission,82 Totowa Road,Wayne,NJ,07470,Prospect,nresc.org
7613504061,Noor,12 West 37th Street,New York,NY,10018,Non-Prospect,noorinc.com
7611996423,The Arc Madison Cortland,701 Lenox Avenue,Oneida,NY,13421,Prospect,arcofmc.org
7657375152,AHRC Nassau,189 Wheatley Rd. #4,Brookville,NY,11545,Client,ahrc.org
7610773326,Partners Health Plan,655 3rd Avenue,New York,NY,10017,Non-Prospect,phpcares.org
7611958889,CSPNJ,11 Spring Street,Freehold,NJ,07728,Non-Prospect,cspnj.org
7612081224,Abilities of Northwest Jersey,264 New Jersey 31,Washington,NJ,07882,Non-Prospect,abilitiesnw.com
7611958886,Seven Dimensions Health,28 Valley Road,Montclair,NJ,07042,Non-Prospect,sevendimensionshealth.com
7608223133,Family Resource Network,50 Millstone Road,East Windsor,NJ,08512,Non-Prospect,familyresourcenetwork.org
7613504054,trinitas.org,225 Williamson St,Elizabeth,NJ,07202,Non-Prospect,trinitas.org
7613554275,Alternatives,600 1st Avenue,Raritan,NJ,08869,Prospect,alternativesinc.org
7613436691,COMMUNITY ASSISTED LIVING,2415 Mullins Avenue,Alamosa,CO,81101,Prospect,communityassistedliving.com
7612081220,Neighbours,3490 U.S. 1,Princeton,NJ,08540,Prospect,neighbours-inc.com
7613326753,Archway Programs,280 Jackson Rd,Atco,NJ,08004,Prospect,archwayprograms.org
7609353400,Princeton Child Development Institute,300 Cold Soil Road,Princeton,NJ,08540,Non-Prospect,pcdi.org
7613528093,Jewish Service for Developmentally Disabled of MetroWest (JSDD),310 Eisenhower Parkway,West Orange,NJ,07052,Non-Prospect,jsddmetrowest.org
7611958883,Starbridge,1650 South Avenue,Rochester,NY,14620,Prospect,starbridgeinc.org
7610949193,ALFA Development,39 Oak Ridge Road,West Milford,NJ,07435,Prospect,alfadevelopment.org
7609353399,Citizen Advocates,125 Finney Boulevard,Malone,NY,12953,Influencer,citizenadvocates.net
7609744742,New Jersey Community Development Corporation,32 Spruce Street,Paterson,NJ,07501,Non-Prospect,njcdc.org
7613309294,Preferred Home Health Care & Nursing Services,45 Main St,Eatontown,NJ,07724,Prospect,preferredcares.com
7613768362,SERV Behavioral Health System,20 Scotch Road,Ewing Township,NJ,08628,Prospect,servbhs.org
7613409900,Center for Disability Services,314 S MANNING BLVD,Albany,NY,12208,Non-Prospect,cdsil.org
7613554264,Advantage Care Health Centers,189 Wheatley Road,Glen Head,NY,11545,Non-Prospect,advantagecaredtc.org
7613554262,Optimum,12444 POWERSCOURT DR,Bethpage,NY,71665,Non-Prospect,suddenlink.net
7609744740,EPIC Long Island,1500 Hempstead Turnpike,East Meadow,NY,11554,Prospect,epicli.org
7611983133,YCS,25 East Salem Street,Hackensack,NJ,07601,Non-Prospect,ycs.org
7610773313,Arc Of Burlington County,115 East Broad Street,Burlington,NJ,08016,Client,arcofburlington.org
7608717829,Easterseals - New Jersey,,,NJ,60604,Client,
7611239021,Spectrum For Living,210 Rivervale Road,River Vale,NJ,07675,Client,spectrumforliving.org
7609209782,Arc Bergen-Passaic,223 Moore Street,Hackensack,NJ,07601,Client,arcbp.com
7613409895,NYC Media,1 Centre Street,New York,NY,10007,Non-Prospect,nyc.gov
7609353386,jhcare.com,717 Broadway,Newark,NJ,07104,Client,jhcare.com
7613281687,The Arc of Salem County,150 Salem Woodstown Road,Mannington Township,NJ,08079,Client,arcsalem.com
7613768357,J-ADD,190 Moore Street,Hackensack,NJ,07601,Client,j-add.org
7613768356,Bancroft,20 PO Box,Haddonfield,NJ,08033,Prospect,marcroftmedical.org
7612081205,EIHAB HUMAN SERVICES  INC.,168 18 South Conduit Avenue,Springfield Gardens,NY,11434,Prospect,eihab.org
8118133927,The Arc of Gloucester County,1555 Gateway Boulevard,Westville,NJ,08093,Client,thearcgloucester.org
7658014011,Adept Programs,"2 Mill Street, Suite #2",Mount Holly,NJ,08064,Non-Prospect,adeptprograms.com
10425674281,Autism Services,40 Hazelwood Dr Rm 210,Amherst,NY,14228,Prospect,autism-services-inc.org
7613768348,Legacy Treatment Services,1289 Route 38,Hainesport,NJ,08036,Prospect,legacytreatment.org
7612081196,"Catholic Charities, Diocese of Paterson",1 CATHOLIC CHARITIES WAY,Oak Ridge,NJ,07438,Client,dpd.org
7613554255,OPWDD New York State,249 Glenwood Road,Binghamton,NY,13905,Influencer,ny.gov
7611983128,Intandem,1439 Buffalo Street,Olean,NY,14760,Non-Prospect,intandem.org
7611865972,SPRINGBROOK NY  INC.,105 Campus Drive,Oneonta,NY,13820,Prospect,springbrookny.org
7792490041,WILDWOOD PROGRAMS  INC.,1190 Troy Schenectady Road,Latham,NY,12110,Pipeline,wildwood.edu
7609208068,"New Jersey Association of Community Providers, Inc.",140 Scotch Road,Ewing,NJ,08628,Non-Prospect,njacp.org
7612079426,UNITED CEREBRAL PALSY OF QUEENS  INC.,81-15 164th Street,Jamaica,NY,11432,Pipeline,queenscp.org
7611981870,"Cheyenne Village, Inc.",6275 Lehman Drive,Colorado Springs,CO,80918,Prospect,cheyennevillage.org
8311674689,"Block Institute, Inc.",376 Bay 44th Street,Brooklyn,NY,11214,Non-Prospect,blockinstitute.org
7609351854,Richmond Community Services,272 North Bedford Road,Mt. Kisco,NY,10549,Prospect,richmondcommserv.org
7612079412,Imagine!,1400 Dixon Ave,Lafayette,CO,80026,Prospect,imaginecolorado.org
7608715915,"Activity Options, LLC",7401 W. 59th Ave.,Arvada,CO,80003,Prospect,activityoptions.com
7612079416,"Pinnacle Treatment Centers, Inc.","1317 Route 732, Ste 200",Mount Laurel,NJ,08054,Non-Prospect,pinnacletreatment.com
7613307523,Eden Autism,2 Merwick Road,Princeton,NJ,08540,Pipeline,edenautism.org
7611864836,Birch Family Services,104 West 29th Street,New York,NY,10001,Prospect,birchfamilyservices.org
7613381015,"InterAgency Council of Developmental Disabilities Agencies, Inc.",150 West 30th Street,New York,NY,10001,Non-Prospect,iacny.org
7613502745,NYS ARC NEW YORK CITY CHAPTER,83 Maiden Lane,New York,NY,10038,Client,ahrcnyc.org
7610771873,Cerebral Palsy Associations of New York State,40 Rector Street - 15th Floor,New York,NY,10006,Influencer,cpstate.org
7608715890,CP ROCHESTER (DBA),3399 Winton Road South,Rochester,NY,14623,Pipeline,cprochester.org
7613483036,EAST END DISABILITY ASSOCIATES  INC.,107 Roanoke Avenue,Riverhead,NY,11901,Prospect,eed-a.org
7613434629,CEREBRAL PALSY OF WESTCHESTER  INC.,1186 King Street,Purchase,NY,10605,Prospect,cpwestchester.org
7613552387,"Enable, Inc.",13 Roszel Road,Princeton,NJ,08540,Non-Prospect,enablenj.org
7613307489,United Cerebral Palsy of Hudson County,721 Broadway,Bayonne,NJ,07002,Influencer,ucpofhudsoncounty.org
7612079392,"Parker Personal Care Homes, Inc.",1597 Cole Boulevard,Lakewood,CO,80401,Pipeline,parkerpch.com
7613766664,Alliance Colorado,1410 Grant Street,Denver,CO,80203,Associaton,alliancecolorado.org
7613552313,The ARC Mid Hudson,471 Albany Avenue,Kingston,NY,12401,Prospect,arcmh.org
7613408160,Developmental Disabilities Institute,99 Hollywood Drive,Smithtown,NY,11787,Influencer,ddiny.org
7613380993,LIFE'S W.O.R.C.  INC.,1501 Franklin Avenue,Garden City,NY,11530-8165,Prospect,lifesworc.org
33650870360,Overture,11177 W. 8th Ave,Lakewood,CO,80215,Pipeline,overturesvs.com
10926210205,MONTGOMERY CO. NYSARC  INC.,43 LIBERTY DRIVE,AMSTERDAM,NY,12010,Prospect,libertyarc.org
7613766678,Eleos Services,4319 Pearlgate Ct,Fort Collins,CO,80526,Pipeline,eleosservices.com
7613552299,"Lochland, Inc.",1065 Lochland Road,Geneva,NY,14456,Prospect,lochlandinc.org
7611957615,Inspiration Field,612 Adams Avenue,La Junta,CO,81050,Prospect,inspirationfield.org
8311666460,"Family Residences and Essential Enterprises, Inc. (FREE, Inc.)",191 Sweet Hollow Road,Old Bethpage,NY,11804-1342,Prospect,familyres.org
7608221267,Independent Living Association,110 York Street,Brooklyn,NY,11201,Influencer,ilaonline.org
7613483015,ADAPT Community Network,80 Maiden Lane,New York,NY,10038,Pipeline,adaptcommunitynetwork.org
7611994697,Living Resources Corporation ,300 Washington Avenue Extension,Albany,NY,12203,Non-Prospect,livingresources.org
7613280288,Laradon,5100 Lincoln Street,Denver,CO,80216,Pipeline,laradon.org
7608715873,"Southeastern Developmental Services, Inc.",PO Box 328,Lamar,CO,81052,Pipeline,sdsccb.org
8311557033,The Resource Center,200 Dunham Avenue,Jamestown,NY,14701,Influencer,resourcecenter.org
7609743265,"Foothills Gateway, Inc.",301 West Skyway Drive,Fort Collins,CO,80525,Influencer,foothillsgateway.org
7609743254,Services for the Underserved Inc.,463 Seventh Avenue,New York,NY,10018,Prospect,sus.org
7610947256,Racker,3226 Wilkins Road,Ithaca,NY,14850,Non-Prospect,racker.org
7613526150,Angels On Call,"100 Challenger Road, Suite 105",Ridgefield Park,NJ,07660,Non-Prospect,honorhealthnetwork.com
7613482924,United Cerebral Palsy of Long Island,250 Marcus Boulevard,Hauppauge,NY,11788-8845,Pipeline,ucp-li.org
7613307492,Alliance for the Betterment of Citizens with Disabilities,127 US Highway 206,Hamilton,NJ,08610,Associaton,abcdnj.org
7611994681,BKD CPAs & Advisors,1155 Avenue of the Americas,New York,NY,10036,Non-Prospect,bkd.com
7611981853,Blue Peaks Developmental Services,703 4th Street,Alamosa,CO,81101,Prospect,bluepeaks.org
7611937712,"Heritage Christian Services, Inc.",275 Kenneth Drive,Rochester,NY,14623-4277,Pipeline,heritagechristianservices.org
7613380971,New York Alliance for Inclusion and Innovation,240 Washington Avenue Extension,Albany,NY,12203,Non-Prospect,nyalliance.org
7610771831,"Dungarvin New Jersey, LLC",1543 State Route 27,Somerset,NJ,08854,Prospect,www.dungarvin.com
7610771826,"BDO USA, LLP","622 Third Avenue, Suite 3100",New York,NY,10017,Non-Prospect,bdo.com
7608715867,Continuum of Colorado,"14280 E. Jewell Avenue, Suite A",Aurora,CO,80012,Pipeline,continuumcolo.org
