name,address,city,state,zip,county,email,phone
1st  Cerebral Palsy Of NJ,7 Sanford Avenue,Belleville,NJ,7109,Essex,dddinfo@cerebralpalsycenter.org,
21 Plus Inc.,310 Main Street,Toms River,NJ,8753,Ocean,rsantoriello@21plus.org,732.341.0863 x 225
21 Plus Inc.,"1900 Route 70,Suite 13",Manchester,NJ,8759,Ocean,rsantoriello@21plus.org,732.364.0555 x 225
21 Plus Inc.,"1900 Route 70,Suite 12",Manchester,NJ,8759,Ocean,rsantoriello@21plus.org,732.240.3118 x 225
A.W. Holdings,2556 Mart Ave.,Vineland,NJ,8361,Cumberland,info.nj@benchmarkhs.com,
A.W. Holdings,1940 S West Blvd,Vineland,NJ,8360,Cumberland,info.nj@benchmarkhs.com,856.457.8001 x 0
A.W. Holdings,"617 Auburn Road - Sweedsboro,Ste 101",Swedesboro,NJ,8085,Gloucester,info.nj@benchmarkhs.com,
A.W. Holdings,2384 Landis Ave,Vineland,NJ,8361,Cumberland,info.nj@benchmarkhs.com,
A.W. Holdings,2384 Landis Ave,Vineland,NJ,8361,Cumberland,info.nj@benchmarkhs.com,
A.W. Holdings,3322 Route 22 West,Branchburg,NJ,8876,Somerset,info.nj@benchmarkhs.com,908.829.3553 x 0
A.W. Holdings,3455 State Route 66 Ste 3A,Neptune,NJ,4075,Monmouth,info.nj@benchmarkhs.com,260.744.6145 x 0
Ablelight Inc,1069 Ringwood Ave Ste 301-22,Haskell,NJ,3856,Passaic,AbleLight.NewJersey@ablelight.org,973.831.4088 x 0
"ADEPT Programs, Inc.",111 High St,Mount Holly,NJ,8060,Burlington,mainoffice@adeptprograms.com,
Advancing Opportunities,610 Beverly-Rancocas,Willingboro,NJ,8046,Mercer,info@cpofnj.org,609.882.4182 x 0
ALFA Development Inc.,2950 Route 23,Newfoundland,NJ,3869,Passaic,IRECORD@ALFADEVELOPMENT.ORG,973.697.1010 x 0
ALFA Development Inc.,39 Oak Ridge Rd,Newfoundland,NJ,3869,Passaic,IRECORD@ALFADEVELOPMENT.ORG,
Alfa Services,10 Lakeside Avenue,Cherry Hill,NJ,8003,Camden,alfaservices17@gmail.com,856.428.1101 x 0
"Allegro School, Inc.","60 East Hanover Avenue,Bldg A",Morris Plains,NJ,7950,Morris,director@allegroschool.org,973.267.8060 x 0
Allies Inc.,"1 Church Street, Unit 31",Flemington,NJ,8822,Hunterdon,supportsprogram@alliesnj.org,
Allies Inc.,"580 North Main Street,Unit 10",Barnegat,NJ,8005,Ocean,supportsprogram@alliesnj.org,
Allies Inc.,1262 Whitehorse Hamilton Square Rd Ste 101,Hamilton Square,NJ,8690,Mercer,supportsprogram@alliesnj.org,
Allies Inc.,326 Route 22 West,Green Brook,NJ,8812,Middlesex,supportsprogram@alliesnj.org,
Allies Inc.,31 High Street,Mount Holly,NJ,8060,Burlington,supportsprogram@alliesnj.org,
Allies Inc.,"5100 Belmar Blvd,Suite 6",Wall,NJ,4055,Monmouth,supportsprogram@alliesnj.org,609.689.0136 x 0
Allies Inc.,330 Salem -Woodstown Rd,Salem,NJ,8079,Salem,supportsprogram@alliesnj.org,609.689.0136 x 102
Allies Inc.,1072 Old Trenton Road,West Windsor,NJ,8550,Mercer,supportsprogram@alliesnj.org,609.689.0136 x 0
"Alternatives, Inc.",600 First Avenue,Raritan,NJ,8869,Somerset,clientisp@alternativesinc.org,908.685.1444 x 247
"Alternatives, Inc.",22 Hyers St,Toms River,NJ,8753,Ocean,clientisp@alternativesinc.org,908.685.1444 x 263
"APluscare, LLC","223 Route 18 S,Suite 201",East Brunswick,NJ,8816,Middlesex,info@apluscarellc.com,
"APluscare, LLC",24 Brier Hill Ct,East Brunswick,NJ,8816,Middlesex,info@apluscarellc.com,
Arc of Atlantic County Inc.,6550 Delilah Road Suite 101,Egg Harbor Township,NJ,8234,Atlantic,info@arcatlantic.org,609.485.0800 x 0
Arc of Bergen / Passaic Counties,223 Moore Street,Hackensack,NJ,3969,Bergen,irecord@arcbp.com,201.343.0322 x 2248
Arc of Bergen / Passaic Counties,340 Outwater Ln,Garfield,NJ,3606,Bergen,irecord@arcbp.com,
Arc of Bergen / Passaic Counties,17 Wallace Street,Elmwood Park,NJ,3847,Bergen,irecord@arcbp.com,201.343.0322 x 2248
Arc of Bergen / Passaic Counties,17-03 A Broadway Route 4W,Fairlawn,NJ,3848,Bergen,irecord@arcbp.com,201.343.0322 x 2248
Arc of Bergen / Passaic Counties,2 East Passaic Avenue,Rutherford,NJ,3640,Bergen,irecord@arcbp.com,201.343.0322 x 2248
Arc of Burlington County,115 East Broad St.,Burlington,NJ,8016,Burlington,info@arcofburlington.org,
Arc of Burlington County,225 High Street,Burlington,NJ,8016,Burlington,info@arcofburlington.org,609.531.0211 x 0
Arc of Burlington County,1015 Deacon Road,Hainesport,NJ,8036,Burlington,info@arcofburlington.org,609.531.0211 x 0
Arc of Burlington County,695 Main Street,Lumberton,NJ,8048,Burlington,info@arcofburlington.org,609.531.0211 x 0
Arc Of Camden County,223 W. White Horse Pike,Berlin,NJ,8009,Camden,arcotc@arccamden.org,856.797.3650 x 0
Arc Of Camden County,617 North Egg Harbor Road,Hammonton,NJ,8037,Atlantic,arcotc@arccamden.org,
Arc Of Camden County,7888 Browning Road,Pennsauken,NJ,8109,Camden,arcotc@arccamden.org,
Arc Of Camden County,"109 N. Black Horse Pike,Suite 6",Blackwood,NJ,8012,Camden,arcotc@arccamden.org,
Arc Of Camden County,215 W. White Horse Pike,Berlin,NJ,8009,Camden,arcotc@arccamden.org,856.767.3650 x 0
Arc Of Camden County,107 S. White Horse Pike,Berlin,NJ,8009,Camden,arcotc@arccamden.org,
Arc Of Camden County,109 S. White Horse Pike,Berlin,NJ,8009,Camden,arcotc@arccamden.org,856.753.5480 x 0
Arc Of Camden County,8021 Route 130 Suite 4,Pennsauken,NJ,8110,Camden,arcotc@arccamden.org,
Arc of Cape May County,927 Court House South Dennis Rd Fl 2,Cape May Court House,NJ,8210,Cape May,author@arcofcapemay.org,
Arc of Cape May County,927 Court House South Dennis Rd Fl 1,Cape May Court House,NJ,8210,Cape May,author@arcofcapemay.org,609.861.7100 x 0
Arc of Essex County Inc.,50-58 Burnett Street,Maplewood,NJ,3616,Essex,communication@arcessex.org,
Arc of Essex County Inc.,6 Kingsbridge Rd Ste F,Fairfield,NJ,3588,Essex,communication@arcessex.org,
Arc of Essex County Inc.,205 A Rutgers Street,Maplewood,NJ,3616,Essex,communication@arcessex.org,
Arc of Essex County Inc.,83 Franklin Avenue,Nutley,NJ,3656,Essex,communication@arcessex.org,
Arc of Essex County Inc.,46-56 Oakwood Avenue,Orange,NJ,3624,Essex,communication@arcessex.org,
Arc of Essex County Inc.,6-C Provost Square,Caldwell,NJ,3590,Essex,communication@arcessex.org,
Arc of Essex County Inc.,1120 Bloomfield Avenue,West Caldwell,NJ,3590,Essex,communication@arcessex.org,
Arc of Essex County Inc.,127 Cedar Street,East Hanover,NJ,7936,Morris,communication@arcessex.org,
Arc of Gloucester County,1555 Gateway Blvd.,West Deptford,NJ,8096,Gloucester,supportsprogram@thearcgloucester.org,856.848.8648 x 15
Arc of Gloucester County,1036 North Tuckahoe Road,Williamstown,NJ,8094,Gloucester,supportsprogram@thearcgloucester.org,856.629.4502 x 0
Arc of Gloucester County,1691 Tuckahoe Road,Newfield,NJ,8344,Gloucester,supportsprogram@thearcgloucester.org,856.848.8648 x 0
Arc of Gloucester County,"401 Harmony Road,Suite 3",Gibbstown,NJ,8027,Gloucester,supportsprogram@thearcgloucester.org,856.224.0383 x 0
Arc of Gloucester County,1200 N. Delsea Drive,Westville,NJ,8093,Gloucester,supportsprogram@thearcgloucester.org,856.848.0709 x 0
Arc of Gloucester County,704 Tuckahoe Road,Sewell,NJ,8080,Gloucester,supportsprogram@thearcgloucester.org,856.629.1086 x 0
Arc of Gloucester County,1180 North Delsea Drive,Westville,NJ,8093,Gloucester,supportsprogram@thearcgloucester.org,856.848.3909 x 0
Arc of Gloucester County,814 North Broad Street,Woodbury,NJ,8096,Gloucester,supportsprogram@thearcgloucester.org,856.848.1022 x 1211
Arc of Hunterdon County,473 Barbertown-Point Breeze Road,Frenchtown,NJ,8825,Hunterdon,info@archunterdon.org,
Arc of Hunterdon County,"53 Frontage Road,Suite 150",Hampton,NJ,8827,Hunterdon,info@archunterdon.org,908.730.7827 x 0
Arc of Hunterdon County,"53 Frontage Road,Suite 180",Hampton,NJ,8827,Hunterdon,info@archunterdon.org,908.730.7827 x 0
Arc of Mercer County,242 Route 156,Yardville,NJ,8620,Mercer,dddinfo@arcmercer.org,609.406.0181 x 104
Arc of Mercer County,1072 Old Trenton Road,Hamilton,NJ,8690,Mercer,dddinfo@arcmercer.org,609.406.0181 x 104
Arc of Mercer County,"1450 Parkside Avenue,Ste 7",Ewing,NJ,8638,Mercer,dddinfo@arcmercer.org,609.406.0181 x 104
Arc of Mercer County,1070 Old Trenton Road,Hamilton,NJ,8690,Mercer,dddinfo@arcmercer.org,609.406.0181 x 0
Arc of Mercer County,180 Ewingville Road,Ewing,NJ,8638,Mercer,dddinfo@arcmercer.org,
"Arc of Ocean County, Inc.",1542 North Bay Avenue,Toms River,NJ,8753,Ocean,Medicaid@arcocean.org,
"Arc of Ocean County, Inc.",150 Oberlin Ave Ste 1-4,Lakewood,NJ,8701,Ocean,Medicaid@arcocean.org,732.363.3335 x 0
"Arc of Ocean County, Inc.",393 Mantoloking Road,Brick,NJ,8723,Ocean,Medicaid@arcocean.org,
"Arc of Ocean County, Inc.",815 Cedarbridge Avenue,Lakewood,NJ,8701,Ocean,Medicaid@arcocean.org,
"Arc of Ocean County, Inc.",21 Union Avenue,Lakehurst,NJ,8733,Ocean,Medicaid@arcocean.org,732.363.3335 x 0
"Arc of Ocean County, Inc.",392 East Main Street,Tuckerton,NJ,8087,Ocean,Medicaid@arcocean.org,
Arc of Salem County,150 Salem-Woodstown Road,Salem,NJ,8079,Salem,info@arcsalem.com,856.935.3600 x 13
Arc of Somerset County,51 Old Sterling Road,Warren,NJ,7059,Somerset,laurenp@thearcofsomerset.org,908.725.8544 x 604
Arc of Somerset County,141 S. Main Street,Manville,NJ,8835,Somerset,laurenp@thearcofsomerset.org,908.725.8544 x 604
Arc of Somerset County,3 Jill Court Building 15,Hillsborough,NJ,8844,Somerset,laurenp@thearcofsomerset.org,
Arc of Somerset County,2320 Camplain Road,Hillsborough,NJ,8844,Somerset,laurenp@thearcofsomerset.org,908.725.8544 x 604
Arc of Warren County,319 W Washington Avenue,Washington,NJ,7882,Warren,medicaid@arcwarren.org,908.689.7525 x 251
Arc of Warren County,40 E. Washington Avenue,Washington,NJ,7882,Warren,medicaid@arcwarren.org,
Arc of Warren County,44 Koeck Road,Columbia,NJ,7832,Warren,medicaid@arcwarren.org,908.689.7525 x 0
Archway Programs,280 Jackson Road,Atco,NJ,8004,Camden,ArchwayDDD@archwayprograms.org,856.767.5757 x 374
Archway Programs,1 Neptune Drive North,Sewell,NJ,8080,Gloucester,ArchwayDDD@archwayprograms.org,856.767.5757 x 374
Association For The Multiple Impaired Blind,"35 Beaverson Boulevard,Bldg 13",Brick,NJ,8723,Ocean,info@amib.net,
"Attain &amp; Gain Counseling, LLC","263 Hillside Avenue,# 5",Nutley,NJ,3656,Essex,romanr@attainandgain.com,973.241.3088 x 0
"Attentive Care Partners, LLC",49 Charter Oak Court,Doylestown,PA,18901,Out Of State,dshowers@abri.care,609.545.2300 x 0
"Avidd Community Services of New Jersey, Inc.",92 Broadway,Denville,NJ,7834,Morris,iRecords@aviddnj.org,973.664.1770 x 11
Bancroft A New Jersey Nonprofit Corp,201 Kings Highway South,Cherry Hill,NJ,8034,Camden,dddcontract@bancroft.org,856.348.1175 x 0
Bancroft A New Jersey Nonprofit Corp,1255 Caldwell Road,Cherry Hill,NJ,8034,Camden,dddcontract@bancroft.org,
Bancroft A New Jersey Nonprofit Corp,1981 Old Cuthbert Road,Cherry Hill,NJ,8034,Camden,dddcontract@bancroft.org,
Bancroft A New Jersey Nonprofit Corp,"5 Terri Lane,Suite 1-3",Burlington,NJ,8016,Burlington,irecord@bancroft.org,856.348.1175 x 0
Bancroft A New Jersey Nonprofit Corp,3900 Church Road,Mount Laurel,NJ,8054,Burlington,irecord@bancroft.org,
Bancroft A New Jersey Nonprofit Corp,"666 Plainsboro Road,Suite 2000F",Plainsboro,NJ,8536,Middlesex,Sharyn.Washington@Bancroft.org,
Bancroft A New Jersey Nonprofit Corp,104 Richardson Avenue,Swedesboro,NJ,8085,Gloucester,irecord@bancroft.org,
Bancroft A New Jersey Nonprofit Corp,6 Commissioners Road,Woodstown,NJ,8098,Salem,dddcontract@bancroft.org,
Bancroft A New Jersey Nonprofit Corp,1000 White Horse Road,Voorhees,NJ,8043,Camden,dddcontract@bancroft.org,
Bancroft A New Jersey Nonprofit Corp,"1433 Hooper Avenue,Suite 131",Toms River,NJ,8753,Ocean,dddcontract@bancroft.org,856.348.1175 x 0
Bancroft A New Jersey Nonprofit Corp,1001 Van Buren Road,Voorhees,NJ,8043,Camden,dddcontract@bancroft.org,856.348.1175 x 0
Broadstep Academy New Jersey Inc,4 Gail Court,Sparta,NJ,7871,Sussex,info@broadstep.com,973.579.3700 x 0
Broadstep Academy New Jersey Inc,19 Wilson Drive,Sparta,NJ,7871,Sussex,info@broadstep.com,973.579.3700 x 0
Broadstep Academy New Jersey Inc,501 King's Avenue,Cherry Hill,NJ,8002,Camden,info@broadstep.com,
Broadstep Academy New Jersey Inc,8 Wilson Drive,Sparta,NJ,7871,Sussex,info@broadstep.com,
Broadway Group Home LLC,17-17 Broadway,Fair Lawn,NJ,3848,Bergen,IDDservices@bghllc.com,
Broadway Group Home LLC,36-05 Broadway,Fair Lawn,NJ,3848,Bergen,IDDservices@bghllc.com,
Broadway Group Home LLC,1007 Livingston Ave,North Brunswick,NJ,8902,Middlesex,IDDservices@bghllc.com,
Capitol Care Inc.,7 Waterloo Rd,Stanhope,NJ,7874,Sussex,CCHousing@capitol-care.org,
Capitol Care Inc.,2121 Route 22 West,Bound Brook,NJ,8805,Somerset,CCHousing@capitol-care.org,
Career Opportunity Development Center,901 Atlantic Avenue,Egg Harbor City,NJ,8215,Atlantic,kgardner@njcodi.org,
"Caring for Families Social Services NJ, LLC",940 Flora Street,Elizabeth,NJ,3713,Union,vcheco@caringforfamilies.net,908.249.0061 x 0
CARINGHOUSE Projects Inc,14 S California Ave,Atlantic City,NJ,8401,Atlantic,billing@caringinc.org,
"Center for Family Support New Jersey, Inc","1 Harvard Way,Suite 3",Hillsborough,NJ,8844,Somerset,DDDComms@cfsny.org,201.262.4021 x 0
"Center for Family Support New Jersey, Inc","2333 Morris Avenue,Suite D",Union,NJ,7083,Union,DDDComms@cfsny.org,
"Center for Family Support New Jersey, Inc",71 Zabriskie Street,Hackensack,NJ,3969,Bergen,bgreenwald@cfsny.org,
Center For Humanistic Change Of NJ Inc.,12 Us Highway 206,Stanhope,NJ,7874,Sussex,paul@chcnj.org,
Cerebral Palsy of North Jersey,26 North Center Street,Orange,NJ,3624,Essex,PillarCare@pillarnj.org,973.763.9900 x 0
Cerebral Palsy of North Jersey,120 Eagle Rock Ave Ste 290,East Hanover,NJ,7936,Morris,PillarCare@pillarnj.org,
Cerebral Palsy of North Jersey,415 Hamburg Turnpike,Wayne,NJ,3896,Passaic,PillarCare@pillarnj.org,
Cerebral Palsy of North Jersey,1150 Springfield Avenue,Irvington,NJ,3657,Essex,PillarCare@pillarnj.org,
Children's Aid and Family Services,200 Robin Road,Paramus,NJ,4010,Bergen,servicedocs@cafsnj.org,201.740.7151 x 0
Clifton Adult Opportunity Center,900 Clifton Avenue,Clifton,NJ,3595,Passaic,jodi@thecaoc.com,
Community Access Unlimited,519 Chestnut Street,Roselle,NJ,3715,Union,DDDINFO@caunj.org,908.354.3040 x 0
Community Access Unlimited,80 West Grand Street,Elizabeth,NJ,3714,Union,DDDINFO@caunj.org,908.354.3040 x 4316
Community Access Unlimited,70 Myrtle Street,Cranford,NJ,3598,Union,DDDINFO@caunj.org,908.354.3040 x 0
Community Options Enterprises,16 Farber Rd,Princeton,NJ,8540,Mercer,SDR_NJ@comop.org,
Community Options Enterprises,146 Main Street,Bloomingdale,NJ,3843,Passaic,SDR_NJ@comop.org,
Community Options Enterprises,201 Lower Notch Roead,Little Falls,NJ,3860,Passaic,SDR_NJ@comop.org,
Community Options Enterprises,200 E Grove St,Westfield,NJ,7090,Union,SDR_NJ@comop.org,
Community Options Enterprises,95 E Main St,Denville,NJ,7834,Morris,SDR_NJ@comop.org,
Community Options Enterprises,14 Farber Road,Princeton,NJ,8540,Mercer,SDR_NJ@comop.org,
Community Options Enterprises,707 Alexander Road,Princeton,NJ,8540,Mercer,SDR_NJ@comop.org,
Community Options Enterprises,240 Route 206,Flanders,NJ,7836,Morris,SDR_NJ@comop.org,
Community Options Enterprises,506 Hamburg Turnpike,Wayne,NJ,3896,Passaic,SDR_NJ@comop.org,
Community Options Enterprises,390 Main Road,Montville,NJ,3621,Morris,SDR_NJ@comop.org,
Community Options Enterprises,41 William Street,Wayne,NJ,3896,Passaic,SDR_NJ@comop.org,
Community Options Enterprises,502 Salem Ave.,Woodbury,NJ,8096,Gloucester,SDR_NJ@comop.org,
Community Options Enterprises,256 Route 1,Edison,NJ,8817,Middlesex,SDR_NJ@comop.org,
Community Options Enterprises,241 Molnar Drive,Elmwood Park,NJ,3847,Bergen,SDR_NJ@comop.org,
Community Options Enterprises,34 Manchester Ave,Forked River,NJ,8731,Ocean,SDR_NJ@comop.org,
Community Options Enterprises,427 Homestead Rd,Hillsborough,NJ,8844,Somerset,SDR_NJ@comop.org,
Community Options Enterprises,2025 Princeton Pike,Lawrence,NJ,8648,Mercer,SDR_NJ@comop.org,
Community Options Enterprises,234 Main Street,Lincoln Park,NJ,3613,Morris,SDR_NJ@comop.org,
Community Options Enterprises,"343 Route 34,Unit 25",Matawan,NJ,4071,Monmouth,SDR_NJ@comop.org,973.897.1430 x 0
Community Options Enterprises,212 West Route 38,Moorestown,NJ,8057,Burlington,SDR_NJ@comop.org,
Community Options Enterprises,150-152 Speedwell Avenue,Morristown,NJ,7960,Morris,SDR_NJ@comop.org,
Community Options Enterprises,150 Speedwell Avenue,Wayne,NJ,3896,Passaic,SDR_NJ@comop.org,
Community Options Enterprises,305 Witherspoon Street,Princeton,NJ,8540,Mercer,SDR_NJ@comop.org,
Community Options Enterprises,305 Witherspoon Street,Princeton,NJ,8540,Mercer,SDR_NJ@comop.org,
Community Options Enterprises,108 Main St,Oceanport,NJ,4079,Monmouth,SDR_NJ@comop.org,
Community Options Enterprises,24-36 Fornelius Avenue,Clifton,NJ,3595,Passaic,SDR_NJ@comop.org,
Community Options Inc.,16 Farber Road,Princeton,NJ,8540,Mercer,moreinfo@comop.org,609.951.9900 x 155
Community Quest Inc.,6814 Tilton Road,Egg Harbor Township,NJ,8234,Atlantic,supportsprogram@CQInc.org,609.646.0388 x 0
Delta Community Supports Inc.,"1130 Route  202 South,Bldg C-1",Raritan,NJ,8869,Somerset,SupportsProgram@Deltaweb.org,215.654.1000 x 1240
"Department for Persons w/ Disabilities, Diocese of Paterson",1 Catholic Charities Way,Oak Ridge,NJ,7438,Passaic,iRecord@dpd.org,973.406.1100 x 0
"Department for Persons w/ Disabilities, Diocese of Paterson",725 Route 15 South,Lake Hopatcong,NJ,7849,Morris,iRecord@dpd.org,973.406.1100 x 0
Developmental Disabilities Association of NJ Inc,19 Paulison Avenue,Ridgefield Park,NJ,4016,Bergen,ddanj@aol.com,
Developmental Disabilities Association of NJ Inc,40 Woodbridge Avenue,Sewaren,NJ,3647,Middlesex,ddanj@aol.com,
Developmental Disabilities Association of NJ Inc,35 Fadem Road,Springfield,NJ,7081,Union,ddanj@aol.com,
Devereux Foundation,1515 Burnt Mill Road,Cherry Hill,NJ,8003,Camden,njispnotifications@devereux.org,856.599.6047 x 0
Devereux Foundation,"370 Campus Drive,Suite 120",Somerset,NJ,8873,Somerset,njispnotifications@devereux.org,856.599.6047 x 0
Devereux Foundation,666 Route 70 Unit 1 And 2,Lakehurst,NJ,8733,Ocean,njispnotifications@devereux.org,
Devereux Foundation,5270 Oakwood Boulevard,Mays Landing,NJ,8330,Atlantic,njispnotifications@devereux.org,856.599.6047 x 0
Devereux Foundation,"5270 Oakwood Boulevard,Suite 6",Mays Landing,NJ,8330,Atlantic,njispnotifications@devereux.org,856.599.6047 x 0
Devereux Foundation,207 Bogden Boulevard,Millville,NJ,8332,Cumberland,njispnotifications@devereux.org,856.599.6047 x 0
Devereux Foundation,55 Mill Street,Newton,NJ,7860,Sussex,njispnotifications@devereux.org,856.599.6047 x 0
Devereux Foundation,2 South Hook Road,Pennsville,NJ,8070,Salem,njispnotifications@devereux.org,856.599.6047 x 0
Devereux Foundation,399 Helms Avenue,Swedesboro,NJ,8085,Gloucester,njispnotifications@devereux.org,856.599.6047 x 0
Devereux Foundation,1667 E Landis Ave,Vineland,NJ,8361,Cumberland,njispnotifications@devereux.org,
Devereux Foundation,198 Roadstown Road,Bridgeton,NJ,8302,Cumberland,njispnotifications@devereux.org,856.599.6047 x 0
Devereux Foundation,1601-1603 Sicklerville Road,Sicklerville,NJ,8081,Camden,njispnotifications@devereux.org,856.599.6400 x 0
Devereux Foundation,"1460 Grandview Avenue,Suite 5",West Deptford,NJ,8066,Gloucester,njispnotifications@devereux.org,856.599.6047 x 0
Dungarvin,2550 Route 1,North Brunswick,NJ,8902,Middlesex,NJ-irecord@dungarvin.com,732.463.7227 x 0
Dungarvin,"1543 State Route 27,Suite 24",Somerset,NJ,8873,Somerset,NJ-irecord@dungarvin.com,732.463.7227 x 0
Dungarvin,1210 Campus Drive West,Morganville,NJ,4073,Monmouth,NJ-irecord@dungarvin.com,732.463.7227 x 0
Dungarvin,"1543 Route 27,Suite 16",Somerset,NJ,8873,Somerset,NJ-irecord@dungarvin.com,732.463.7227 x 0
Dungarvin,"1000 Salem Road,Suite A",Willingboro,NJ,8046,Burlington,NJ-irecord@dungarvin.com,732.463.7227 x 0
Durand Inc.,111 Fox Chase Drive,Delran,NJ,8075,Burlington,supportsinfo@durandac.org,856.235.3540 x 0
Durand Inc.,"111 Gaither Drive,Suite 101",Mount Laurel,NJ,8054,Burlington,supportsinfo@durandac.org,
Durand Inc.,1224 Berlin Road,Voorhees,NJ,8043,Camden,supportsinfo@durandac.org,
Durand Inc.,549 N. Evergreen Road,Woodbury,NJ,8096,Gloucester,supportsinfo@durandac.org,
Easter Seals NJ,241 Forsgate Dr,Jamesburg,NJ,8831,Middlesex,supportsprogram@nj.easterseals.com,732.257.6662 x 469
Easter Seals NJ,21 O'Brien Road,Hackettstown,NJ,7840,Warren,supportsprogram@nj.easterseals.com,732.257.6662 x 469
Easter Seals NJ,"Oakfield Plaza, 15 Manchester Ave #10",Forked River,NJ,8731,Ocean,supportsprogram@nj.easterseals.com,732.257.6662 x 469
Easter Seals NJ,3635 Quakerbridge Road,Hamilton,NJ,8619,Mercer,supportsprogram@nj.easterseals.com,732.257.6662 x 469
Easter Seals NJ,535 Tilton Road,Northfield,NJ,8225,Atlantic,supportsprogram@nj.easterseals.com,732.257.6662 x 469
Easter Seals NJ,"1610 Route 35 South, Suite 16",Oakhurst,NJ,4077,Monmouth,supportsprogram@nj.easterseals.com,732.257.6662 x 469
Easter Seals NJ,194 Route 17 north,Rochelle Park,NJ,4018,Bergen,supportsprogram@nj.easterseals.com,732.257.6662 x 469
Easter Seals NJ,1841 B Route 35 South,South Amboy,NJ,8879,Middlesex,supportsprogram@nj.easterseals.com,732.257.6662 x 469
Easter Seals NJ,2400 Belmar Boulevard,Wall,NJ,7719,Monmouth,supportsprogram@nj.easterseals.com,732.257.6662 x 469
Easter Seals NJ,120 Bodgen Blvd,Millville,NJ,8332,Cumberland,supportsprogram@njeasterseals,732.257.6662 x 469
Easter Seals NJ,9 Terminal Road,New Brunswick,NJ,8901,Middlesex,supportsprogram@nj.easterseals.com,732.257.6662 x 469
"Eden Autism Services, Inc.",2 Merwick Drive,Princeton,NJ,8540,Mercer,isp.support@edenautism.org,
"Eden Autism Services, Inc.",4 Crossroads Drive,Hamilton,NJ,8691,Mercer,isp.support@edenautism.org,
"Eden Autism Services, Inc.",2031 Old Trenton Road,West Windsor,NJ,8550,Mercer,isp.support@edenautism.org,
"Eden Autism Services, Inc.",10 Schalks Crossing,Plainsboro,NJ,8536,Middlesex,isp.support@edenautism.org,609.987.0099 x 0
EIHAB Human Services,1007 Route 9 N Ste 202,Howell,NJ,4057,Monmouth,infoddd@eihab.org,
Elwyn NJ,150 Delsea Dr Ste C,Sewell,NJ,8080,Gloucester,njdddirecord@elwyn.org,
Elwyn NJ,46 North West  Avenue Building B,Vineland,NJ,8361,Cumberland,njdddirecord@elwyn.org,856.794.5212 x 0
Elwyn NJ,228 W Landis Ave Bldg C,Vineland,NJ,8360,Cumberland,njdddirecord@elwyn.org,
Elwyn NJ,1667 E. Landis Avenue,Vineland,NJ,8361,Cumberland,njdddirecord@elwyn.org,856.794.5212 x 0
Elwyn NJ,76 West  Landis Avenue,Vineland,NJ,8361,Cumberland,njdddirecord@elwyn.org,856.794.5212 x 0
Elwyn NJ,46 North West Avenue Building A,Vineland,NJ,8360,Cumberland,njdddirecord@elwyn.org,856.794.5212 x 0
Everas Community Services,4216 Kennedy Blvd,Union City,NJ,7087,Hudson,services@everas.org,732.805.1912 x 223
Everas Community Services,24F Worlds Fair Dr,Somerset,NJ,8873,Somerset,services@everas.org,732.805.1912 x 223
Everas Community Services,24K  World's Fair Drive,Somerset,NJ,8873,Somerset,services@everas.org,732.805.1912 x 223
Everas Community Services,60 Saddle River Road,S Hackensack,NJ,3974,Bergen,services@everas.org,732.805.1912 x 223
Everas Community Services,922 State Route 33 Bldg 7,Freehold,NJ,7728,Monmouth,services@everas.org,732.805.1912 x 223
Fordham-Lewis Consulting,"613 Hope Road,Suite 5",Eatontown,NJ,4052,Monmouth,angela@fordham-lewisconsulting.org,732.684.3841 x 0
Fordham-Lewis Consulting,"613 Hope Road,Suite 2",Eatontown,NJ,4052,Monmouth,angela@fordham-lewisconsulting.org,732.684.3841 x 0
Friends of Cyrus II Inc.,505 Thornall St Ste 305,Edison,NJ,8837,Middlesex,preauthorizations@lifetimewithcyrus.com,732.239.9162 x 0
Friends of Cyrus II Inc.,175 Tuckerton Road,Medford,NJ,8055,Burlington,preauthorizations@lifetimewithcyrus.com,
Friends of Cyrus II Inc.,36 Trenton Lakewood Rd,Millstone Township,NJ,8510,Monmouth,preauthorizations@lifetimewithcyrus.com,201.909.8787 x 0
Friends of Cyrus II Inc.,180 Carranza Rd,Tabernacle,NJ,8088,Burlington,preauthorizations@lifetimewithcyrus.com,201.909.8787 x 0
"Grace Excellency Care, LLC","2066 Millburn Avenue,Suite 102",Maplewood,NJ,3616,Essex,graceexcellencycare@gmail.com,973.313.1700 x 0
Heart to Heart Home Care,"576 Central Avenue,Suite 301",East Orange,NJ,7018,Essex,njbilling@h2hhc.com,973.678.5500 x 0
Heart to Heart Home Care,433 Woodbury Glassboro Rd,Sewell,NJ,8080,Gloucester,njbilling@h2hhc.com,973.678.5500 x 0
HollyDell Inc.,2384 E. Landis Avenue,Vineland,NJ,8361,Cumberland,SupportsProgram@hollydell.org,856.582.5151 x 0
HollyDell Inc.,51 Charles III Drive,Glassboro,NJ,8028,Gloucester,SupportsProgram@hollydell.org,856.582.5151 x 0
HollyDell Inc.,11 Park Place Boulevard,Sewell,NJ,8080,Gloucester,SupportsProgram@hollydell.org,
HollyDell Inc.,328B North Broadway,Pennsville,NJ,8070,Salem,SupportsProgram@hollydell.org,
HollyDell Inc.,303 Hollydell Dr,Hurffville,NJ,8080,Gloucester,SupportsProgram@hollydell.org,856.307.0323 x 402
HollyDell Inc.,610 Hollydell Drive,Hurffville,NJ,8080,Gloucester,SupportsProgram@hollydell.org,
Hope Christian Services,700 Mountain Avenue,Wyckoff,NJ,7481,Bergen,HCS@hopechristian.org,
Hudson Hill Group,"148 East 5th Street,Bldg 7A",Bayonne,NJ,3586,Hudson,jschwartz@thehudsonhillgroup.com,
Hudson Milestones,355 Clendenny Avenue,Jersey City,NJ,3780,Hudson,hudson.milestones@hudsonmilestones.org,201.434.7783 x 0
Hudson Milestones,365-381 Clendenny Avenue,Jersey City,NJ,3780,Hudson,hudson.milestones@hudsonmilestones.org,201.434.7783 x 0
Innovative Life of New Jersey,1900 Mount Holly Rd Ste 600A,Burlington,NJ,8016,Burlington,info@innovativelifenj.org,301.270.4750 x 0
Jespy House,110 Irvington Avenue,South Orange,NJ,7079,Essex,supportsprogram@jespy.org,973.769.6909 x 343
Jespy House,2168 Millburn Ave,Maplewood,NJ,3616,Essex,supportsprogram@jespy.org,973.762.6909 x 343
Jespy House,102 Prospect Street,South Orange,NJ,7079,Essex,supportsprogram@jespy.org,973.762.6909 x 343
Jespy House,111 Milligan Place,South Orange,NJ,7079,Essex,supportsprogram@jespy.org,973.762.6909 x 343
Jewish Association for Developmental Disabilities,"50 Eisenhower Drive,Suite 202",Paramus,NJ,4010,Bergen,InfoDDD@j-add.org,
Jewish Federation of Southern NJ,1301 Springdale Rd,Cherry Hill,NJ,8003,Camden,Spnjfcs@Jfedsnj.Org,856.424.1333 x 0
Jewish Federation of Southern NJ,1721 Springdale Road,Cherry Hill,NJ,8003,Camden,Spnjfcs@Jfedsnj.Org,856.424.1333 x 0
Jewish Services for the DD,310 Eisenhower Parkway,Livingston,NJ,7039,Essex,info@jsddmetrowest.org,973.325.1494 x 0
Jewish Services for the DD,622 Eagle Rock Avenue,West Orange,NJ,3626,Essex,info@jsddmetrowest.org,973.272.7141 x 0
Kasefa Care LLC,"5 Franklin Avenue,Suite G-5",Belleville,NJ,7109,Essex,cshannon@kasefacarellc.com,
"Kelsch Associates, Inc.",335 Glassboro Rd,Woodbury Heights,NJ,8097,Gloucester,admin@kelschnj.com,
"Kelsch Associates, Inc.",335 Glassboro Rd,Woodbury Heights,NJ,8097,Gloucester,admin@kelschnj.com,
"Kelsch Associates, Inc.",764 Cuthbert Road,Cherry Hill,NJ,8002,Camden,admin@kelschnj.com,856.456.2022 x 0
"Kelsch Associates, Inc.",300 N. Black Horse Pike,Williamstown,NJ,8094,Gloucester,admin@kelschnj.com,856.456.2022 x 0
"Kelsch Associates, Inc.",19 E. Center Street,Woodbury,NJ,8096,Gloucester,admin@kelschnj.com,856.456.2022 x 0
Keystone Community Living Inc.,154 Front Street,South Plainfield,NJ,7080,Middlesex,ffs@keystonecomliving.com,
Keystone Community Resources,628 Genet Street,Scranton,PA,18505,Out Of State,NJ-Auth@keycommres.com,570.702.8000 x 0
Keystone Community Resources,503 Lackawanna Avenue,Scranton,PA,18503,Out Of State,NJ-Auth@keycommres.com,570.702.8000 x 0
Keystone Community Resources,921 Penn Avenue,Scranton,PA,18509,Out Of State,NJ-Auth@keycommres.com,570.702.8000 x 0
Keystone Community Resources,1729 Pittston Avenue,Scranton,PA,18505,Out Of State,NJ-Auth@keycommres.com,570.702.8000 x 0
Keystone Community Resources,2100 Rt. 6 &amp; 11,La Plume,PA,18440,Out Of State,NJ-Auth@keycommres.com,570.702.8000 x 0
Keystone Community Resources,1501 Sanderson Avenue,Scranton,PA,18508,Out Of State,NJ-Auth@keycommres.com,570.702.8000 x 0
Ladacin Network,3500 Sunset Avenue,Wanamassa,NJ,4042,Monmouth,ExecutiveDirector@ladacin.org,
Ladacin Network,1100 Airport Road,Lakewood,NJ,8701,Ocean,ExecutiveDirector@ladacin.org,
Ladacin Network,170 North Oberlin Avenue,Lakewood,NJ,8701,Ocean,ExecutiveDirector@ladacin.org,732.493.5900 x 245
Ladacin Network,1703 Kneely Blvd,Ocean,NJ,4042,Monmouth,ExecutiveDirector@ladacin.org,732.493.5900 x 245
Life Opportunities Unlimited,"75 North Maple Avenue,Suite 104",Ridgewood,NJ,3880,Bergen,gail@lifeopp.org,
Matheny Medical and Educational,"216 US Hwy 206,Valley Park Plaza",Hillsborough,NJ,8844,Somerset,dddserviceinquiries@matheny.org,908.234.0011 x 1281
Matheny Medical and Educational,65 Highland Avenue,Peapack,NJ,7977,Somerset,dddserviceinquiries@matheny.org,908.234.0011 x 1281
Mentor ABI,"8008 Rte. 130 North,Bldg. C",Delran,NJ,8075,Burlington,debbora.bergman@neurorestorative.com,
Merakey,1182 Hedding Road,Columbus,NJ,8022,Burlington,NJauthorizations@merakey.org,
Merakey,105 Evesboro Medford Rd Ste H,Marlton,NJ,8053,Burlington,NJauthorizations@merakey.org,856.797.1250 x 0
Midland Adult Services,580 Old York Road,Branchburg,NJ,8876,Somerset,MASINFO@midlandschool.org,908.722.8222 x 0
Midland Adult Services,94 Readington Rd,Branchburg,NJ,8876,Somerset,MASINFO@midlandschool.org,908.722.8222 x 0
Momcares Grouphome,260 Wildflower Lane,Hillsborough,NJ,8844,Somerset,admin@momcareservices.com,603.233.6924 x 0
National Institute for People with Disabilities of NJ,45 Whitney Rd Second Floor,Mahwah,NJ,3864,Bergen,nipdsupports@yai.org,201.750.0509 x 1122
National Institute for People with Disabilities of NJ,North 1600 Valley Road,Montvale,NJ,4005,Bergen,nipdsupports@yai.org,201.750.0509 x 1122
National Institute for People with Disabilities of NJ,11 Technology Drive North,Warren,NJ,7059,Somerset,nipdsupports@yai.org,201.750.0509 x 1122
National Institute for People with Disabilities of NJ,Knoll Drive,Lake Hiawatha,NJ,3612,Morris,nipdsupports@yai.org,201.750.0509 x 1122
Neighbours Inc,49 Woodbridge Avenue,Highland Park,NJ,8904,Middlesex,cherryoakley@neighbours-inc.com,609.275.0606 x 0
Neighbours Inc,"3490 US Route 1 North,Unit 7A",Princeton,NJ,8540,Mercer,cherryoakley@neighbours-inc.com,609.275.0606 x 0
"New Care Health Partners, LLC","7 Glenwood Avenue,Suite 414D",East Orange,NJ,3599,Essex,newcarehp@gmail.com,201.463.5900 x 0
"New Concepts for Living, Inc",68 A West Passaic Street,Rochelle Park,NJ,4018,Bergen,service@ncfl.net,201.843.3427 x 0
New Horizons In Autism,906 Route 33 East,Freehold,NJ,7728,Monmouth,billing@nhautism.org,
New Horizons In Autism,1808 Route 37,Toms River,NJ,8753,Ocean,billing@nhautism.org,
New Horizons In Autism,22 Hyers Street&nbsp;&nbsp;&nbsp;,Toms River,NJ,8753,Ocean,billing@nhautism.org,
New Horizons In Autism,285 Ridge Road,Dayton,NJ,8810,Middlesex,billing@nhautism.org,
New Horizons In Autism,29 Church Street,Ramsey,NJ,3878,Bergen,billing@nhautism.org,
New Jersey Institute for Disabilities Inc.,61 Suttons Lane,Piscataway,NJ,8854,Middlesex,SupportsProgramCohort@njid.org,
New Jersey Institute for Disabilities Inc.,311 South Main Street,Barnegat,NJ,8005,Ocean,SupportsProgramCohort@njid.org,
New Jersey Institute for Disabilities Inc.,101 Austin Avenue,Iselin,NJ,8830,Middlesex,SupportsProgramCohort@njid.org,
New Jersey Institute for Disabilities Inc.,40 Markley Street,Port Reading,NJ,3636,Middlesex,SupportsProgramCohort@njid.org,
New Jersey Institute for Disabilities Inc.,951 Old Freehold Road,Toms River,NJ,8753,Ocean,SupportsProgramCohort@njid.org,
Nima Care Supported Living LLP,781 Hamilton Street,Somerset,NJ,8873,Somerset,nimacareservices@gmail.com,732.325.7714 x 0
NJ Community Development Corp,32 Spruce Street,Paterson,NJ,7509,Passaic,housing@njcdc.org,
Oaks Integrated Care,19 E. Ormond Avenue,Cherry Hill,NJ,8034,Camden,DDD_FFS@oaksintcare.org,x 0
Oaks Integrated Care,79A Chestnut Street,Lumberton,NJ,8048,Burlington,deborah.wolff@oaksintcare.org,609.267.5928 x 99850
Occupational Training Center Of Burlington County,2 Manhattan Street,Burlington,NJ,8016,Burlington,OTCBCintake@otcbc.org,609.267.6677 x 0
Occupational Training Center Of Burlington County,"1003 Lincoln Drive West, Suite C",Marlton,NJ,8053,Burlington,OTCBCintake@otcbc.org,
Occupational Training Center Of Burlington County,1880 Route 38,Southampton,NJ,8088,Burlington,OTCBCintake@otcbc.org,
Occupational Training Center Of Burlington County,15 Roland Ave,Mount Laurel,NJ,8054,Burlington,OTCBCintake@otcbc.org,
Occupational Training Center Of Burlington County,"2 Manhattan Street, Suite B",Burlington,NJ,8016,Burlington,OTCBCintake@otcbc.org,
Our House Inc.,76 Floral Ave,Murray Hill,NJ,7974,Union,supports@ourhousenj.org,908.464.8008 x 0
Our House Inc.,260 Broadway,Newark,NJ,3652,Essex,njispnotifications@devereux.org,908.464.8008 x 0
Our House Inc.,120 Finderne Avenue,Bridgewater,NJ,8807,Somerset,supports@ourhousenj.org,908.464.8008 x 0
Our House Inc.,881 West Ave,Port Reading,NJ,3636,Middlesex,supports@ourhousenj.org,908.464.8008 x 0
Our House Inc.,120 Finderne Ave,Bridgewater,NJ,8807,Somerset,supports@ourhousenj.org,
Our House Inc.,271 W. Northfield Road,Livingston,NJ,7039,Essex,supports@ourhousenj.org,
Our House Inc.,330 Central Avenue,New Providence,NJ,7974,Union,supports@ourhousenj.org,908.464.8008 x 0
Our House Inc.,40 Whitenack Road,Basking Ridge,NJ,7920,Somerset,supports@ourhousenj.org,908.464.8008 x 0
PAFACOM Inc.,1301 W Forest Grove Rd Bldg. 3C,Vineland,NJ,8360,Cumberland,mvernamonti@pafacom.org,
PAFACOM Inc.,"3722 East Landis Avenue, Suite A",Vineland,NJ,8361,Cumberland,mvernamonti@pafacom.org,
Partnerships For People,60 Walnut Ave Ste 300,Clark,NJ,3638,Union,cpegeron@khs.org,973.467.9808 x 114
PennReach,18 South Main Street,Allentown,NJ,8501,Monmouth,supports@pennreach.org,732.963.4523 x 0
Personalized Independent Living Opportunities and Training Services,283 Jackson Road,Berlin,NJ,8009,Camden,ffs@thepilotservices.org,856.809.0600 x 0
Personalized Independent Living Opportunities and Training Services,289 Jackson Road,Berlin,NJ,8009,Camden,ffs@thepilotservices.org,856.809.0600 x 0
Personalized Independent Living Opportunities and Training Services,943 Little Gloucester Road,Clementon,NJ,8021,Camden,ffs@thepilotservices.org,856.809.0600 x 0
Personalized Independent Living Opportunities and Training Services,6638 Delilah Road,Egg Harbor Township,NJ,8234,Atlantic,ffs@thepilotservices.org,856.809.0600 x 0
Platinum Hearts,808 Prospect Ave.,Milltown,NJ,8850,Middlesex,contact@platinumhearts.org,862.772.1805 x 0
"Premier Supports, LLC",100 Randolph Road,Somerset,NJ,8873,Somerset,premiersupports@sevitahealth.com,512.628.1553 x 0
"Premier Supports, LLC",155 Pierce Street,Somerset,NJ,8873,Somerset,premiersupports@sevitahealth.com,732.627.9890 x 0
Princeton Child Development Institute,300 Cold Soil Road,Princeton,NJ,8540,Mercer,FFS@pcdi.org,
"QMANJ, Inc.",700 Cinnaminson Avenue Building B,Palmyra,NJ,8065,Burlington,plans@qmainc.com,
"QMANJ, Inc.","9 East Stow Road,Suite A",Marlton,NJ,8053,Burlington,plans@qmainc.com,
"Quality Management Associates, Inc.","700 Cinnaminson Avenue,Building A",Palmyra,NJ,8065,Burlington,plans@qmainc.com,856.727.5003 x 0
"Quality Management Associates, Inc.","9 East Stow Rd.,Suite A",Marlton,NJ,8053,Burlington,plans@qmainc.com,
"Reed Next, Inc",808 Franklin Lake Raod,Franklin Lakes,NJ,3855,Bergen,info@reednext.com,
"Reed Next, Inc",25 Potash Rd,Oakland,NJ,3870,Bergen,info@reednext.com,201.904.2553 x 0
"Reed Next, Inc",505 Ramapo Valley Road,Mahwah,NJ,3864,Bergen,info@reednext.com,201.644.0760 x 163
"Reed Next, Inc",1 Dekorte Plaza,Lyndhurst,NJ,3641,Bergen,info@reednext.com,201.644.0760 x 163
REM-NJ Inc.,43 Newburgh Road,Hackettstown,NJ,7840,Warren,REMNewJersey@sevitahealth.com,732.627.9889 x 0
REM-NJ Inc.,175 Sparta-Stanhope Road,Andover,NJ,7821,Sussex,REMNewJersey@sevitahealth.com,732.627.9890 x 0
REM-NJ Inc.,"6 Terri Lane,Suite 900",Burlington,NJ,8016,Burlington,REMNewJersey@sevitahealth.com,732.627.9890 x 0
REM-NJ Inc.,1200 South West Boulevard,Vineland,NJ,8360,Cumberland,REMNewJersey@sevitahealth.com,732.627.9890 x 0
REM-NJ Inc.,"43 Newburgh Rd,Suite 5",Hackettstown,NJ,7840,Warren,REMNewJersey@sevitahealth.com,
REM-NJ Inc.,80 Cottontail Lane Suite 330,Somerset,NJ,8873,Somerset,REMNewJersey@sevitahealth.com,732.627.9890 x 0
RESCARE,1001 Briggs Rd Ste 200,Mount Laurel,NJ,8054,Burlington,authorizations@rescare.com,
RESCARE,425 Route 50,Corbin City,NJ,8270,Cape May,tlawson@rescare.com,
RESCARE,248 S. New York Road,Galloway,NJ,8205,Atlantic,authorizations@rescare.com,
"SCARC, Inc.",100 Quarry Road,Hamburg,NJ,7419,Sussex,isp@scarc.org,973.383.7442 x 0
"SCARC, Inc.","15 US Route 206,Suite B",Augusta,NJ,7822,Sussex,isp@scarc.org,973.383.7442 x 222
"SCARC, Inc.","26 Gail Court,Suite 3&amp;4",Sparta,NJ,7871,Sussex,isp@scarc.org,
"SCARC, Inc.","4 Camre Dr.,Suite B",Newton,NJ,7860,Sussex,isp@scarc.org,973.383.7442 x 0
"SCARC, Inc.","11 US Route 206,Suite C",Augusta,NJ,7822,Sussex,isp@scarc.org,973.383.7442 x 0
"SCARC, Inc.","4 Camre Drive,Suite A",Newton,NJ,7860,Sussex,isp@scarc.org,973.383.7442 x 0
"SCARC, Inc.","26 Gail Court,Suite 2",Sparta,NJ,7871,Sussex,isp@scarc.org,973.383.7442 x 0
"SCARC, Inc.","11 US Route 206,Suite 100",Augusta,NJ,7822,Sussex,isp@scarc.org,973.383.7442 x 222
"SCARC, Inc.","4 Camre Drive Suite U,Suite U",Newton,NJ,7860,Sussex,isp@scarc.org,973.383.7442 x 0
"SCARC, Inc.","4 Camre Drive,Suite C",Newton,NJ,7860,Sussex,isp@scarc.org,973.383.7442 x 0
"SCARC, Inc.",11 US Route 206 Suite 100-D,Augusta,NJ,7822,Sussex,isp@scarc.org,973.383.7442 x 0
"SCARC, Inc.","15 Route 206,Suite A",Augusta,NJ,7822,Sussex,isp@scarc.org,973.383.7442 x 0
"SCHI Disability Services, Inc.",345 Oak Street,Lakewood,NJ,8701,Ocean,sds@schischool.org,732.886.0900 x 1626
"SCHI Disability Services, Inc.",1875 Swarthmore Ave,Lakewood,NJ,8701,Ocean,sds@schischool.org,732.886.0900 x 1626
Search Day Program Inc.,144 Robertsville Road,Freehold,NJ,7728,Monmouth,ccentellas@searchdayprogram.com,
Search Day Program Inc.,73 Wickapecko Drive,Ocean,NJ,4042,Monmouth,dddinfo@searchdayprogram.com,732.531.0454 x 0
"SERV Achievement Centers, Inc.",111 North Ave West,Cranford,NJ,3598,Union,authorizations@servbhs.org,
"SERV Achievement Centers, Inc.",20 Scotch Road,West Trenton,NJ,8628,Mercer,authorizations@servbhs.org,609.406.0100 x 0
"SERV Achievement Centers, Inc.",3175 Princeton Pike,Lawrenceville,NJ,8648,Mercer,authorizations@servbhs.org,
Skylands Center Offering Autism Programs,"Doctor's Park Building,3 Seber Road",Hackettstown,NJ,7840,Warren,executivedirector18@hotmail.com,908.850.6440 x 0
"Special Needs Residence, LLC",130 Mt. Bethel Road,Warren,NJ,7059,Somerset,mtbetheled@cslal.com,908.757.7000 x 201
Spectrum for Living Development Inc.,"210 Rivervale Road,Suite 3",Rivervale,NJ,4029,Bergen,info@spectrumforliving.org,201.358.8000 x 0
Spectrum for Living Development Inc.,91 Carver Avenue,Westwood,NJ,4029,Bergen,info@spectrumforliving.org,
Spectrum for Living Development Inc.,200 Spectrum Drive,Edison,NJ,8817,Middlesex,info@spectrumforliving.org,
Spectrum for Living Development Inc.,30 Morris Road,Ringwood,NJ,3886,Passaic,info@spectrumforliving.org,201.358.8000 x 0
Spectrum for Living Development Inc.,1200 River Road,Teaneck,NJ,4022,Bergen,info@spectrumforliving.org,
Tender Care LLC,2740 Route 10 Ste 103B,Morris Plains,NJ,7950,Morris,info@tender-care-llc.com,973.407.9296 x 0
The Arc Middlesex County,1660 Stelton Road,Piscataway,NJ,8854,Middlesex,irecord@arc-middlesex.org,732.821.1199 x 0
The Arc Middlesex County,1100 Cornwall Rd Ste 100,Monmouth Junction,NJ,8852,Middlesex,irecord@arc-middlesex.org,
The Arc Middlesex County,581 Roosevelt Avenue,Carteret,NJ,7008,Middlesex,irecord@arc-middlesex.org,
The Arc Middlesex County,"31-32 Wills Way,Building 9",Piscataway,NJ,8854,Middlesex,irecord@arc-middlesex.org,732.821.1199 x 0
The Arc Middlesex County,"114 Main Street,Suite C",Woodbridge,NJ,7095,Middlesex,irecord@arc-middlesex.org,
The Arc Middlesex County,450-470 Hidden Lake Towne Center Drive,North Brunswick,NJ,8902,Not answered,irecord@arc-middlesex.org,732.821.1199 x 122
The Arc of Monmouth,20 Meridian Road,Eatontown,NJ,4052,Monmouth,supportsprogram@arcofmonmouth.org,
The Arc of Monmouth,3710 Route 9,Freehold,NJ,7728,Monmouth,supportsprogram@arcofmonmouth.org,
The Arc of Monmouth,395 Warburton Place,Long Branch,NJ,4064,Monmouth,supportsprogram@arcofmonmouth.org,732.493.1919 x 150
The Arc of Monmouth,200 F Campus Drive,Morganville,NJ,4073,Monmouth,supportsprogram@arcofmonmouth.org,
The Arc of Monmouth,135 Monmouth Street,Red Bank,NJ,4033,Monmouth,supportsprogram@arcofmonmouth.org,
The Arc of Monmouth,1345 Campus Pkwy Ste A9,Wall Township,NJ,4075,Monmouth,supportsprogram@arcofmonmouth.org,732.938.2525 x 0
The Arc of Monmouth,1158 Wayside Road,Tinton Falls,NJ,4042,Monmouth,supportsprogram@arcofmonmouth.org,732.493.1919 x 150
The Arc of Union County,54 Fadem Road,Springfield,NJ,7081,Union,Arc_Supports_Waiver_Info@arcunion.org,
The Arc of Union County,1181 Route 22,Mountainside,NJ,7092,Union,arc_supports_waiver_Info@arcunion.org,973.315.0000 x 0
The Arc of Union County,70 Diamond Road,Springfield,NJ,7081,Union,Arc_Supports_Waiver_Info@arcunion.org,
The Arc of Union County,720 Lexington Avenue,Kenilworth,NJ,3611,Union,arc_supports_waiver_Info@arcunion.org,
The Arc/Morris Chapter,1 Executive Drive,Morris Plains,NJ,7950,Morris,info@arcmorrris.org,973.326.9750 x 213
The Arc/Morris Chapter,26 Main Street,Flanders,NJ,7836,Morris,info@arcmorrris.org,973.970.9326 x 326
The Arc/Morris Chapter,150 Algonquin Parkway,Whippany,NJ,7981,Morris,info@arcmorrris.org,973.970.9326 x 213
"The Open Door, LLC",1808 Route 37 East,Toms River,NJ,8753,Ocean,irecord@theopendoornj.com,
"The Open Door, LLC","1658 Lakewood Road,Suite 12",Toms River,NJ,8755,Ocean,irecord@theopendoornj.com,732.408.5681 x 0
"The Open Door, LLC",2110 Route 70,Manchester,NJ,8759,Ocean,irecord@theopendoornj.om,
"The Open Door, LLC","1658 Lakewood Road,Suite 1-9",Toms River,NJ,8755,Ocean,irecord@theopendoornj.com,732.408.5681 x 0
The Rose House,51 Gibraltar Dr Ste 2C,Morris Plains,NJ,7950,Morris,tom@therosehouse.org,973.984.0006 x 0
"The Special Children's Center, Inc.",1400 Prospect Street,Lakewood,NJ,8701,Ocean,grouphome@thecenternj.org,
"The Special Children's Center, Inc.",1 Havenwood Ct,Lakewood,NJ,8701,Ocean,grouphome@thecenternj.org,
Universal Institute Inc.,"15-17 Microlab Road, Suite 101",Livingston,NJ,7039,Essex,dddsupportsprogram@uirehab.com,973.992.8181 x 34
Universal Institute Inc.,1 Cooper Avenue,Long Branch,NJ,4064,Monmouth,dddsupportsprogram@uirehab.com,973.992.8181 x 34
"Volunteers of America Greater New York, Inc",205 West Milton Avenue,Rahway,NJ,3637,Union,kashley1@voa-gny.org,732.827.2453 x 0
WAR Ministry Corp.,"211 Warren Street,Suite 313",Newark,NJ,3651,Essex,supportsprogram@war-ministry.org,862.955.4600 x 0
"Windmill Alliance, Inc.",141 Broadway,Bayonne,NJ,3586,Hudson,info@windmillalliance.org,
Woods Manor,409 Steeplechase Ct,Woodbury,NJ,8096,Gloucester,twoods@woodsmanor.org,856.244.8072 x 0
"Youth Consultation Service, Inc.",60 Evergreen Place,East Orange,NJ,7018,Essex,DDAdultServices@ycs.org,973.482.8411 x 0
