Name,Address,City,State ,Zip
"Pharmerica Phoenix, AZ",8826 N 23rd Ave,Pheonix,AZ,85021
"Pharmerica Tucson, AZ",3700 E Columbis St ,Tucson,AZ,85714
"Pharmerica Broomfield, CO",557 Burbank St,Broomfield,CO,80020
"Pharmerica Colorado Springs, CO",1041 Elkton Dr,Colorado Springs,CO,80907
"Pharmerica Orlando, FL",337 Northlake Blvd,Altamonte Springs,FL,32701
"Pharmerica Ft. Lauderdale, FL",3690 NW 53rd St,Fort Lauderdale,FL,33309
"Pharmerica Largo, FL",2200 Tall Pines Dr,Largo,FL,33771
"Pharmerica Tallahassee, FL",1950 Commonwealth Ln ,Tallahassee,FL,32303
"Pharmerica Macon, GA",3378 Brookdale Ave,Macon,GA,31204
"Pharmerica Smyrna, GA",1100 Wilson Way ,Smyrna,GA,30082
"Pharmacy Alternatives Valdosta, GA",1705 River St ,Valdosta,GA,31601
"Pharmerica Bensenville, IL",818 S Thorndale Ave,Bensenville,IL,60106
"Pharmacy Alternatives Elmhurst, IL",501 W Lake St ,Elmhurst,IL,60126
"Pharmerica Indianapolis, IN",6330 E 75th St ,Indianapolis,IN,46250
"Pharmacy Alternatives Lenexa, KS",7953 Bond St,Lenexa,KS,66214
"Pharmerica Lenexa, KS",8030 Reeder St,Lenexa,KS,66214
"Pharmerica Glasgow, KY",301 Industrial Dr ,Glasgow,KY,42141
"Pharmacy Alternatives Louisville, KY",11401 Blugrass Pkwy,Lousiville ,KY,40299
"Pharmerica Louisville, KY",12100 Plantside Dr,Jeffersontown,KY,40299
"Pharmerica New Orleans, LA",190 James Dr E ,St Rose,LA,70087
"Pharmerica Cambridge, MD",3 Washington St ,Cambridge ,MD,21613
"Pharmerica Columbia, MD",7100 Columbia Dr ,Columbia,MD,21046
"Pharmerica Grand Rapids, MI",4575 44th St ,Grand Rapids,MI,49512
"Pharmerica Fridley, MN",5255 River Rd,Fridley,MN,55421
"Pharmerica St Louis, MO",105 Arc Dr ,St Louis,MO,63146
"Pharmerica Raleigh, NC",8431 Garvey Dr,Raleigh,NC,27616
"Pharmerica Westlake, OH",24165 Detroit Rd,Westlake,OH,44145
"Pharmerica Worthington, OH",720 Lakeview Plaza Blvd,Columbus,OH,43085
"Pharmerica Omaha, NE",6528 S 118th St  ,Omaha,NE,68137
"Pharmerica Las Vegas, NV",3825 W Cheyenne Ave ,North Las Vegas,NV,89032
"Pharmerica Reno, NV",4750 Longley Ln ,Reno,NV,89502
"Pharmerica Vineland, NJ",1667 E Landis Ave ,Vineland,NJ,8361
"Pharmerica Oklahoma City, OK",4425 SW 21st St,Oklahoma City,OK,73108
"Pharmacy Alternatives Austin, TX",5810 Trade Center Dr ,Austin,TX,78744
"Pharmerica Austin, TX",1340 Airport Commerce Dr ,Austin,TX,78741
"Pharmerica El Paso, TX",4171 N Mesa St,El Paso,TX,79902
"Pharmerica Grand Prairie, TX",2214 Paddock Way Dr ,Grand Prairie,TX,75050
"Pharmerica Houstin, TX",1289 N Post Oak Rd   ,Houston,TX,77055
"Pharmerica Lubbock, TX",6113 43rd St ,Lubbock,TX,79407
"Pharmerica San Antonio, TX",3019 Interstate Dr ,San Antonio,TX,78219
"Pharmerica Tyler, TX",2236 Broussard Street ,Tyler,TX,75701
"Pharmerica Weslaco, TX",2202 Sugar Sweet Ave,Weslaco ,TX,78599
"Pharmerica Huntington, WV",78 Perrywinkle Lane,Huntington ,WV,25702
"Pharmerica Milwaukee, WI",11739 W Bradley Rd ,Milwaukee,WI,53224
