Email,Provider Name,Address,City,State,Zip,County,Phone,Services,Location Type
dddinfo@cerebralpalsycenter.org,1st  Cerebral Palsy Of NJ,7 Sanford Avenue,Belleville,NJ,"	07109",Essex,,"Community Based Supports,Community Inclusion Services,Individual Supports,Transportation",Admin/Service Delivery
rsantoriello@21plus.org,21 Plus Inc.,310 Main Street,Toms River,NJ,"	08753",Ocean,732.341.0863 x 225,Day Habilitation,Service Delivery
rsantoriello@21plus.org,21 Plus Inc.,"1900 Route 70,Suite 13",Manchester,NJ,"	08759",Ocean,732.364.0555 x 225,Day Habilitation,Service Delivery
rsantoriello@21plus.org,21 Plus Inc.,"1900 Route 70,Suite 12",Manchester,NJ,"	08759",Ocean,732.240.3118 x 225,"Behavioral Supports,Community Based Supports,Community Inclusion Services,Prevocational Training,Respite,Supported Employment - Individual,Supported Employment - Small Group,Transportation",Admin/Service Delivery
info.nj@benchmarkhs.com,A.W. Holdings,2556 Mart Ave.,Vineland,NJ,"	08361",Cumberland,,Individual Supports,Service Delivery
info.nj@benchmarkhs.com,A.W. Holdings,1940 S West Blvd,Vineland,NJ,"	08360",Cumberland,856.457.8001 x 0,"Behavioral Supports,Career Planning,Community Based Supports,Community Inclusion Services,Day Habilitation,Occupational Therapy,Prevocational Training,Respite,Supported Employment - Individual,Transportation",Service Delivery
info.nj@benchmarkhs.com,A.W. Holdings,"617 Auburn Road - Sweedsboro,Ste 101",Swedesboro,NJ,"	08085",Gloucester,,Day Habilitation,Service Delivery
info.nj@benchmarkhs.com,A.W. Holdings,2384 Landis Ave,Vineland,NJ,"	08361",Cumberland,,"Behavioral Supports,Occupational Therapy,Physical Therapy,Transportation",Service Delivery
info.nj@benchmarkhs.com,A.W. Holdings,2384 Landis Ave,Vineland,NJ,"	08361",Cumberland,,"Behavioral Supports,Career Planning,Community Inclusion Services,Day Habilitation,Individual Supports,Occupational Therapy,Physical Therapy,Prevocational Training,Supported Employment - Individual,Transportation",Service Delivery
info.nj@benchmarkhs.com,A.W. Holdings,3322 Route 22 West,Branchburg,NJ,"	08876",Somerset,908.829.3553 x 0,"Behavioral Supports,Career Planning,Community Based Supports,Community Inclusion Services,Day Habilitation,Individual Supports,Occupational Therapy,Prevocational Training,Respite,Supported Employment - Individual,Transportation",Admin/Service Delivery
info.nj@benchmarkhs.com,A.W. Holdings,3455 State Route 66 Ste 3A,Neptune,NJ,"	07753",Monmouth,260.744.6145 x 0,Day Habilitation,Service Delivery
AbleLight.NewJersey@ablelight.org,Ablelight Inc,1069 Ringwood Ave Ste 301-22,Haskell,NJ,"	07420",Passaic,973.831.4088 x 0,"Behavioral Supports,Individual Supports",Admin/Service Delivery
mainoffice@adeptprograms.com,"ADEPT Programs, Inc.",111 High St,Mount Holly,NJ,"	08060",Burlington,,"Behavioral Supports,Community Based Supports,Community Inclusion Services,Individual Supports,Interpreter Services,Natural Supports Training,Speech, Language & Hearing Therapy",Admin/Service Delivery
info@cpofnj.org,Advancing Opportunities,610 Beverly-Rancocas,Willingboro,NJ,"	08046",Mercer,609.882.4182 x 0,"Assistive Technology,Behavioral Supports,Career Planning,Cognitive Rehabilitation,Community Based Supports,Community Inclusion Services,Individual Supports,Natural Supports Training,Occupational Therapy,PERS,Prevocational Training,Respite,Speech, Language & Hearing Therapy,Supported Employment - Individual,Supported Employment - Small Group,Transportation",Admin/Service Delivery
IRECORD@ALFADEVELOPMENT.ORG,ALFA Development Inc.,2950 Route 23,Newfoundland,NJ,"	07435",Passaic,973.697.1010 x 0,Day Habilitation,Service Delivery
IRECORD@ALFADEVELOPMENT.ORG,ALFA Development Inc.,39 Oak Ridge Rd,Newfoundland,NJ,"	07435",Passaic,,"Behavioral Supports,Cognitive Rehabilitation,Community Based Supports,Community Inclusion Services,Day Habilitation,Individual Supports,Natural Supports Training,Speech, Language & Hearing Therapy,Transportation",Admin/Service Delivery
alfaservices17@gmail.com,Alfa Services,10 Lakeside Avenue,Cherry Hill,NJ,"	08003",Camden,856.428.1101 x 0,Individual Supports,Admin/Service Delivery
director@allegroschool.org,"Allegro School, Inc.","60 East Hanover Avenue,Bldg A",Morris Plains,NJ,"	07950",Morris,973.267.8060 x 0,"Behavioral Supports,Community Based Supports,Community Inclusion Services,Day Habilitation,Individual Supports,Prevocational Training,Respite,Supported Employment - Individual,Supported Employment - Small Group,Transportation",Admin/Service Delivery
supportsprogram@alliesnj.org,Allies Inc.,"1 Church Street, Unit 31",Flemington,NJ,"	08822",Hunterdon,,Day Habilitation,Service Delivery
supportsprogram@alliesnj.org,Allies Inc.,"580 North Main Street,Unit 10",Barnegat,NJ,"	08005",Ocean,,Day Habilitation,Service Delivery
supportsprogram@alliesnj.org,Allies Inc.,1262 Whitehorse Hamilton Square Rd Ste 101,Hamilton Square,NJ,"	08690",Mercer,,"Behavioral Supports,Career Planning,Community Based Supports,Community Inclusion Services,Individual Supports,Interpreter Services,Natural Supports Training,Prevocational Training,Supported Employment - Individual,Supported Employment - Small Group,Transportation",Admin/Service Delivery
supportsprogram@alliesnj.org,Allies Inc.,326 Route 22 West,Green Brook,NJ,"	08812",Middlesex,,Day Habilitation,Service Delivery
supportsprogram@alliesnj.org,Allies Inc.,31 High Street,Mount Holly,NJ,"	08060",Burlington,,Day Habilitation,Service Delivery
supportsprogram@alliesnj.org,Allies Inc.,"5100 Belmar Blvd,Suite 6",Wall,NJ,"	07727",Monmouth,609.689.0136 x 0,Day Habilitation,Service Delivery
supportsprogram@alliesnj.org,Allies Inc.,330 Salem -Woodstown Rd,Salem,NJ,"	08079",Salem,609.689.0136 x 102,Day Habilitation,Service Delivery
supportsprogram@alliesnj.org,Allies Inc.,1072 Old Trenton Road,West Windsor,NJ,"	08550",Mercer,609.689.0136 x 0,Day Habilitation,Service Delivery
clientisp@alternativesinc.org,"Alternatives, Inc.",600 First Avenue,Raritan,NJ,"	08869",Somerset,908.685.1444 x 247,"Behavioral Supports,Community Based Supports,Community Inclusion Services,Day Habilitation,Individual Supports,Occupational Therapy,Physical Therapy,Support Coordination,Transportation",Admin/Service Delivery
clientisp@alternativesinc.org,"Alternatives, Inc.",22 Hyers St,Toms River,NJ,"	08753",Ocean,908.685.1444 x 263,Day Habilitation,Service Delivery
info@apluscarellc.com,"APluscare, LLC","223 Route 18 S,Suite 201",East Brunswick,NJ,"	08816",Middlesex,,"Behavioral Supports,Career Planning,Community Based Supports,Community Inclusion Services,Individual Supports,Natural Supports Training,Prevocational Training,Respite,Supported Employment - Individual,Supported Employment - Small Group,Transportation",Admin/Service Delivery
info@apluscarellc.com,"APluscare, LLC",24 Brier Hill Ct,East Brunswick,NJ,"	08816",Middlesex,,Day Habilitation,Service Delivery
info@arcatlantic.org,Arc of Atlantic County Inc.,6550 Delilah Road Suite 101,Egg Harbor Township,NJ,"	08234",Atlantic,609.485.0800 x 0,"Behavioral Supports,Career Planning,Community Based Supports,Community Inclusion Services,Day Habilitation,Individual Supports,Prevocational Training,Respite,Support Coordination,Supported Employment - Individual,Supported Employment - Small Group,Transportation",Admin/Service Delivery
irecord@arcbp.com,Arc of Bergen / Passaic Counties,223 Moore Street,Hackensack,NJ,"	07601",Bergen,201.343.0322 x 2248,"Behavioral Supports,Career Planning,Community Based Supports,Community Inclusion Services,Individual Supports,Natural Supports Training,Occupational Therapy,Physical Therapy,Prevocational Training,Respite,Speech, Language & Hearing Therapy,Supported Employment - Individual,Supported Employment - Small Group,Transportation",Admin/Service Delivery
irecord@arcbp.com,Arc of Bergen / Passaic Counties,340 Outwater Ln,Garfield,NJ,"	07026",Bergen,,Respite,Service Delivery
irecord@arcbp.com,Arc of Bergen / Passaic Counties,17 Wallace Street,Elmwood Park,NJ,"	07407",Bergen,201.343.0322 x 2248,"Day Habilitation,Physical Therapy,Prevocational Training,Speech, Language & Hearing Therapy,Supported Employment - Individual,Supported Employment - Small Group,Transportation",Service Delivery
irecord@arcbp.com,Arc of Bergen / Passaic Counties,17-03 A Broadway Route 4W,Fairlawn,NJ,"	07410",Bergen,201.343.0322 x 2248,"Behavioral Supports,Day Habilitation,Physical Therapy,Prevocational Training,Speech, Language & Hearing Therapy,Supported Employment - Individual,Supported Employment - Small Group,Transportation",Service Delivery
irecord@arcbp.com,Arc of Bergen / Passaic Counties,2 East Passaic Avenue,Rutherford,NJ,"	07070",Bergen,201.343.0322 x 2248,"Behavioral Supports,Day Habilitation,Physical Therapy,Prevocational Training,Speech, Language & Hearing Therapy,Supported Employment - Individual,Supported Employment - Small Group,Transportation",Service Delivery
info@arcofburlington.org,Arc of Burlington County,115 East Broad St.,Burlington,NJ,"	08016",Burlington,,"Behavioral Supports,Career Planning,Community Based Supports,Community Inclusion Services,Individual Supports,Natural Supports Training,Prevocational Training,Respite,Supported Employment - Individual,Supported Employment - Small Group,Transportation",Admin/Service Delivery
info@arcofburlington.org,Arc of Burlington County,225 High Street,Burlington,NJ,"	08016",Burlington,609.531.0211 x 0,"Day Habilitation,Prevocational Training",Service Delivery
info@arcofburlington.org,Arc of Burlington County,1015 Deacon Road,Hainesport,NJ,"	08036",Burlington,609.531.0211 x 0,"Day Habilitation,Respite",Service Delivery
info@arcofburlington.org,Arc of Burlington County,695 Main Street,Lumberton,NJ,"	08048",Burlington,609.531.0211 x 0,"Day Habilitation,Prevocational Training",Service Delivery
arcotc@arccamden.org,Arc Of Camden County,223 W. White Horse Pike,Berlin,NJ,"	08009",Camden,856.797.3650 x 0,Day Habilitation,Service Delivery
arcotc@arccamden.org,Arc Of Camden County,617 North Egg Harbor Road,Hammonton,NJ,"	08037",Atlantic,,Day Habilitation,Service Delivery
arcotc@arccamden.org,Arc Of Camden County,7888 Browning Road,Pennsauken,NJ,"	08109",Camden,,Day Habilitation,Service Delivery
arcotc@arccamden.org,Arc Of Camden County,"109 N. Black Horse Pike,Suite 6",Blackwood,NJ,"	08012",Camden,,"Community Inclusion Services,Day Habilitation,Prevocational Training",Service Delivery
arcotc@arccamden.org,Arc Of Camden County,215 W. White Horse Pike,Berlin,NJ,"	08009",Camden,856.767.3650 x 0,"Career Planning,Community Based Supports,Community Inclusion Services,Individual Supports,Prevocational Training,Respite,Supported Employment - Individual,Supported Employment - Small Group,Transportation",Admin/Service Delivery
arcotc@arccamden.org,Arc Of Camden County,107 S. White Horse Pike,Berlin,NJ,"	08009",Camden,,Day Habilitation,Service Delivery
arcotc@arccamden.org,Arc Of Camden County,109 S. White Horse Pike,Berlin,NJ,"	08009",Camden,856.753.5480 x 0,"Community Inclusion Services,Day Habilitation,Prevocational Training",Service Delivery
arcotc@arccamden.org,Arc Of Camden County,8021 Route 130 Suite 4,Pennsauken,NJ,"	08110",Camden,,Day Habilitation,Service Delivery
author@arcofcapemay.org,Arc of Cape May County,927 Court House South Dennis Rd Fl 2,Cape May Court House,NJ,"	08210",Cape May,,"Behavioral Supports,Career Planning,Community Based Supports,Community Inclusion Services,Day Habilitation,Individual Supports,Natural Supports Training,Prevocational Training,Respite,Supported Employment - Individual,Supported Employment - Small Group,Transportation",Admin/Service Delivery
author@arcofcapemay.org,Arc of Cape May County,927 Court House South Dennis Rd Fl 1,Cape May Court House,NJ,"	08210",Cape May,609.861.7100 x 0,Day Habilitation,Service Delivery
communication@arcessex.org,Arc of Essex County Inc.,50-58 Burnett Street,Maplewood,NJ,"	07040",Essex,,"Behavioral Supports,Career Planning,Community Based Supports,Community Inclusion Services,Day Habilitation,Natural Supports Training,Occupational Therapy,Physical Therapy,Prevocational Training,Respite,Speech, Language & Hearing Therapy,Supported Employment - Individual,Supported Employment - Small Group,Transportation",Service Delivery
communication@arcessex.org,Arc of Essex County Inc.,6 Kingsbridge Rd Ste F,Fairfield,NJ,"	07004",Essex,,"Assistive Technology,Behavioral Supports,Career Planning,Community Based Supports,Community Inclusion Services,Day Habilitation,Natural Supports Training,Occupational Therapy,Physical Therapy,Prevocational Training,Respite,Speech, Language & Hearing Therapy,Supported Employment - Individual,Supported Employment - Small Group,Transportation",Service Delivery
communication@arcessex.org,Arc of Essex County Inc.,205 A Rutgers Street,Maplewood,NJ,"	07040",Essex,,"Behavioral Supports,Career Planning,Community Based Supports,Community Inclusion Services,Day Habilitation,Natural Supports Training,Occupational Therapy,Physical Therapy,Prevocational Training,Respite,Speech, Language & Hearing Therapy,Supported Employment - Individual,Supported Employment - Small Group,Transportation",Service Delivery
communication@arcessex.org,Arc of Essex County Inc.,83 Franklin Avenue,Nutley,NJ,"	07110",Essex,,"Behavioral Supports,Career Planning,Community Based Supports,Community Inclusion Services,Day Habilitation,Natural Supports Training,Occupational Therapy,Physical Therapy,Prevocational Training,Respite,Speech, Language & Hearing Therapy,Supported Employment - Individual,Supported Employment - Small Group,Transportation",Service Delivery
communication@arcessex.org,Arc of Essex County Inc.,46-56 Oakwood Avenue,Orange,NJ,"	07050",Essex,,"Behavioral Supports,Career Planning,Community Based Supports,Community Inclusion Services,Day Habilitation,Natural Supports Training,Occupational Therapy,Physical Therapy,Prevocational Training,Respite,Speech, Language & Hearing Therapy,Supported Employment - Individual,Supported Employment - Small Group,Transportation",Service Delivery
communication@arcessex.org,Arc of Essex County Inc.,6-C Provost Square,Caldwell,NJ,"	07006",Essex,,"Behavioral Supports,Career Planning,Community Based Supports,Community Inclusion Services,Day Habilitation,Natural Supports Training,Occupational Therapy,Physical Therapy,Prevocational Training,Respite,Speech, Language & Hearing Therapy,Supported Employment - Individual,Supported Employment - Small Group,Transportation",Service Delivery
communication@arcessex.org,Arc of Essex County Inc.,1120 Bloomfield Avenue,West Caldwell,NJ,"	07006",Essex,,"Behavioral Supports,Career Planning,Community Based Supports,Community Inclusion Services,Day Habilitation,Natural Supports Training,Occupational Therapy,Physical Therapy,Prevocational Training,Respite,Speech, Language & Hearing Therapy,Supported Employment - Individual,Supported Employment - Small Group,Transportation",Service Delivery
communication@arcessex.org,Arc of Essex County Inc.,127 Cedar Street,East Hanover,NJ,"	07936",Morris,,Respite,Service Delivery
supportsprogram@thearcgloucester.org,Arc of Gloucester County,1555 Gateway Blvd.,West Deptford,NJ,"	08096",Gloucester,856.848.8648 x 15,"Career Planning,Community Based Supports,Community Inclusion Services,Individual Supports,Natural Supports Training,Prevocational Training,Respite,Supported Employment - Individual,Supported Employment - Small Group,Transportation",Admin/Service Delivery
supportsprogram@thearcgloucester.org,Arc of Gloucester County,1036 North Tuckahoe Road,Williamstown,NJ,"	08094",Gloucester,856.629.4502 x 0,Respite,Service Delivery
supportsprogram@thearcgloucester.org,Arc of Gloucester County,1691 Tuckahoe Road,Newfield,NJ,"	08344",Gloucester,856.848.8648 x 0,"Career Planning,Day Habilitation,Prevocational Training,Transportation",Service Delivery
supportsprogram@thearcgloucester.org,Arc of Gloucester County,"401 Harmony Road,Suite 3",Gibbstown,NJ,"	08027",Gloucester,856.224.0383 x 0,"Career Planning,Day Habilitation,Prevocational Training,Supported Employment - Individual,Supported Employment - Small Group,Transportation",Service Delivery
supportsprogram@thearcgloucester.org,Arc of Gloucester County,1200 N. Delsea Drive,Westville,NJ,"	08093",Gloucester,856.848.0709 x 0,"Career Planning,Day Habilitation,Prevocational Training,Supported Employment - Individual,Supported Employment - Small Group,Transportation",Service Delivery
supportsprogram@thearcgloucester.org,Arc of Gloucester County,704 Tuckahoe Road,Sewell,NJ,"	08080",Gloucester,856.629.1086 x 0,"Career Planning,Day Habilitation,Prevocational Training,Supported Employment - Individual,Supported Employment - Small Group,Transportation",Service Delivery
supportsprogram@thearcgloucester.org,Arc of Gloucester County,1180 North Delsea Drive,Westville,NJ,"	08093",Gloucester,856.848.3909 x 0,"Career Planning,Day Habilitation,Prevocational Training,Transportation",Service Delivery
supportsprogram@thearcgloucester.org,Arc of Gloucester County,814 North Broad Street,Woodbury,NJ,"	08096",Gloucester,856.848.1022 x 1211,"Career Planning,Day Habilitation,Prevocational Training,Respite,Transportation",Service Delivery
info@archunterdon.org,Arc of Hunterdon County,473 Barbertown-Point Breeze Road,Frenchtown,NJ,"	08825",Hunterdon,,Day Habilitation,Service Delivery
info@archunterdon.org,Arc of Hunterdon County,"53 Frontage Road,Suite 150",Hampton,NJ,"	08827",Hunterdon,908.730.7827 x 0,"Behavioral Supports,Career Planning,Community Based Supports,Community Inclusion Services,Individual Supports,Natural Supports Training,Prevocational Training,Respite,Supported Employment - Individual,Supported Employment - Small Group,Transportation",Admin/Service Delivery
info@archunterdon.org,Arc of Hunterdon County,"53 Frontage Road,Suite 180",Hampton,NJ,"	08827",Hunterdon,908.730.7827 x 0,"Day Habilitation,Supported Employment - Individual,Supported Employment - Small Group",Service Delivery
dddinfo@arcmercer.org,Arc of Mercer County,242 Route 156,Yardville,NJ,"	08620",Mercer,609.406.0181 x 104,Day Habilitation,Service Delivery
dddinfo@arcmercer.org,Arc of Mercer County,1072 Old Trenton Road,Hamilton,NJ,"	08690",Mercer,609.406.0181 x 104,Individual Supports,Service Delivery
dddinfo@arcmercer.org,Arc of Mercer County,"1450 Parkside Avenue,Ste 7",Ewing,NJ,"	08638",Mercer,609.406.0181 x 104,Day Habilitation,Service Delivery
dddinfo@arcmercer.org,Arc of Mercer County,1070 Old Trenton Road,Hamilton,NJ,"	08690",Mercer,609.406.0181 x 0,"Behavioral Supports,Community Inclusion Services,Day Habilitation,Individual Supports,Interpreter Services,Natural Supports Training,Prevocational Training,Respite,Transportation",Service Delivery
dddinfo@arcmercer.org,Arc of Mercer County,180 Ewingville Road,Ewing,NJ,"	08638",Mercer,,"Behavioral Supports,Career Planning,Community Based Supports,Community Inclusion Services,Day Habilitation,Individual Supports,Interpreter Services,Natural Supports Training,PERS,Physical Therapy,Prevocational Training,Respite,Supported Employment - Individual,Supported Employment - Small Group,Transportation",Admin/Service Delivery
Medicaid@arcocean.org,"Arc of Ocean County, Inc.",1542 North Bay Avenue,Toms River,NJ,"	08753",Ocean,,"Career Planning,Day Habilitation,Prevocational Training,Supported Employment - Individual,Supported Employment - Small Group,Transportation",Service Delivery
Medicaid@arcocean.org,"Arc of Ocean County, Inc.",150 Oberlin Ave Ste 1-4,Lakewood,NJ,"	08701",Ocean,732.363.3335 x 0,"Behavioral Supports,Career Planning,Community Based Supports,Community Inclusion Services,Day Habilitation,Prevocational Training,Respite,Transportation",Service Delivery
Medicaid@arcocean.org,"Arc of Ocean County, Inc.",393 Mantoloking Road,Brick,NJ,"	08723",Ocean,,"Behavioral Supports,Career Planning,Community Based Supports,Community Inclusion Services,Day Habilitation,Natural Supports Training,PERS,Prevocational Training,Respite,Supported Employment - Individual,Supported Employment - Small Group,Transportation",Service Delivery
Medicaid@arcocean.org,"Arc of Ocean County, Inc.",815 Cedarbridge Avenue,Lakewood,NJ,"	08701",Ocean,,"Behavioral Supports,Career Planning,Community Based Supports,Community Inclusion Services,Day Habilitation,Individual Supports,Natural Supports Training,Prevocational Training,Respite,Support Coordination,Supported Employment - Individual,Supported Employment - Small Group,Transportation",Admin/Service Delivery
Medicaid@arcocean.org,"Arc of Ocean County, Inc.",21 Union Avenue,Lakehurst,NJ,"	08733",Ocean,732.363.3335 x 0,"Career Planning,Day Habilitation,Prevocational Training,Supported Employment - Individual,Supported Employment - Small Group,Transportation",Service Delivery
Medicaid@arcocean.org,"Arc of Ocean County, Inc.",392 East Main Street,Tuckerton,NJ,"	08087",Ocean,,"Career Planning,Day Habilitation,Prevocational Training,Supported Employment - Individual,Supported Employment - Small Group,Transportation",Service Delivery
info@arcsalem.com,Arc of Salem County,150 Salem-Woodstown Road,Salem,NJ,"	08079",Salem,856.935.3600 x 13,"Community Based Supports,Community Inclusion Services,Day Habilitation,Prevocational Training,Respite,Transportation",Admin/Service Delivery
laurenp@thearcofsomerset.org,Arc of Somerset County,51 Old Sterling Road,Warren,NJ,"	07059",Somerset,908.725.8544 x 604,Respite,Service Delivery
laurenp@thearcofsomerset.org,Arc of Somerset County,141 S. Main Street,Manville,NJ,"	08835",Somerset,908.725.8544 x 604,"Behavioral Supports,Career Planning,Community Based Supports,Community Inclusion Services,Day Habilitation,Individual Supports,Occupational Therapy,Physical Therapy,Prevocational Training,Respite,Speech, Language & Hearing Therapy,Supported Employment - Individual,Supported Employment - Small Group,Transportation",Admin/Service Delivery
laurenp@thearcofsomerset.org,Arc of Somerset County,3 Jill Court Building 15,Hillsborough,NJ,"	08844",Somerset,,Day Habilitation,Service Delivery
laurenp@thearcofsomerset.org,Arc of Somerset County,2320 Camplain Road,Hillsborough,NJ,"	08844",Somerset,908.725.8544 x 604,Day Habilitation,Service Delivery
medicaid@arcwarren.org,Arc of Warren County,319 W Washington Avenue,Washington,NJ,"	07882",Warren,908.689.7525 x 251,"Behavioral Supports,Community Based Supports,Community Inclusion Services,Day Habilitation,Individual Supports,Respite,Supported Employment - Individual,Supported Employment - Small Group,Transportation",Admin/Service Delivery
medicaid@arcwarren.org,Arc of Warren County,40 E. Washington Avenue,Washington,NJ,"	07882",Warren,,Day Habilitation,Service Delivery
medicaid@arcwarren.org,Arc of Warren County,44 Koeck Road,Columbia,NJ,"	07832",Warren,908.689.7525 x 0,Respite,Service Delivery
ArchwayDDD@archwayprograms.org,Archway Programs,280 Jackson Road,Atco,NJ,"	08004",Camden,856.767.5757 x 374,"Behavioral Supports,Career Planning,Community Based Supports,Community Inclusion Services,Respite,Supported Employment - Individual,Supported Employment - Small Group,Transportation",Admin
ArchwayDDD@archwayprograms.org,Archway Programs,1 Neptune Drive North,Sewell,NJ,"	08080",Gloucester,856.767.5757 x 374,Day Habilitation,Service Delivery
info@amib.net,Association For The Multiple Impaired Blind,"35 Beaverson Boulevard,Bldg 13",Brick,NJ,"	08723",Ocean,,"Behavioral Supports,Career Planning,Community Based Supports,Community Inclusion Services,Individual Supports,Natural Supports Training,Respite,Transportation",Admin/Service Delivery
romanr@attainandgain.com,"Attain &amp; Gain Counseling, LLC","263 Hillside Avenue,# 5",Nutley,NJ,"	07110",Essex,973.241.3088 x 0,"Behavioral Supports,Community Based Supports,Community Inclusion Services,Individual Supports,Occupational Therapy,Physical Therapy,Supported Employment - Individual,Transportation",Admin/Service Delivery
dshowers@abri.care,"Attentive Care Partners, LLC",49 Charter Oak Court,Doylestown,PA,"	18901",Out Of State,609.545.2300 x 0,"Behavioral Supports,Community Based Supports,Community Inclusion Services,Individual Supports,Natural Supports Training,Respite,Supported Employment - Individual,Supported Employment - Small Group,Transportation",Admin/Service Delivery
iRecords@aviddnj.org,"Avidd Community Services of New Jersey, Inc.",92 Broadway,Denville,NJ,"	07834",Morris,973.664.1770 x 11,"Career Planning,Community Based Supports,Community Inclusion Services,Individual Supports,Natural Supports Training,Prevocational Training,Respite,Supported Employment - Individual,Transportation",Admin/Service Delivery
dddcontract@bancroft.org,Bancroft A New Jersey Nonprofit Corp,201 Kings Highway South,Cherry Hill,NJ,"	08034",Camden,856.348.1175 x 0,"Assistive Technology,Behavioral Supports,Career Planning,Community Based Supports,Community Inclusion Services,Day Habilitation,Individual Supports,Natural Supports Training,Occupational Therapy,Physical Therapy,Prevocational Training,Respite,Speech, Language & Hearing Therapy,Supported Employment - Individual,Supported Employment - Small Group,Transportation",Service Delivery
dddcontract@bancroft.org,Bancroft A New Jersey Nonprofit Corp,1255 Caldwell Road,Cherry Hill,NJ,"	08034",Camden,,"Assistive Technology,Behavioral Supports,Career Planning,Cognitive Rehabilitation,Community Based Supports,Community Inclusion Services,Individual Supports,Natural Supports Training,Occupational Therapy,Physical Therapy,Prevocational Training,Respite,Speech, Language & Hearing Therapy,Supported Employment - Individual,Supported Employment - Small Group,Transportation",Admin
dddcontract@bancroft.org,Bancroft A New Jersey Nonprofit Corp,1981 Old Cuthbert Road,Cherry Hill,NJ,"	08034",Camden,,"Assistive Technology,Behavioral Supports,Career Planning,Community Based Supports,Community Inclusion Services,Day Habilitation,Individual Supports,Natural Supports Training,Occupational Therapy,Physical Therapy,Prevocational Training,Respite,Speech, Language & Hearing Therapy,Supported Employment - Individual,Supported Employment - Small Group,Transportation",Service Delivery
irecord@bancroft.org,Bancroft A New Jersey Nonprofit Corp,"5 Terri Lane,Suite 1-3",Burlington,NJ,"	08016",Burlington,856.348.1175 x 0,"Assistive Technology,Behavioral Supports,Career Planning,Community Based Supports,Community Inclusion Services,Day Habilitation,Individual Supports,Natural Supports Training,Occupational Therapy,Physical Therapy,Prevocational Training,Respite,Speech, Language & Hearing Therapy,Supported Employment - Individual,Supported Employment - Small Group,Transportation",Service Delivery
irecord@bancroft.org,Bancroft A New Jersey Nonprofit Corp,3900 Church Road,Mount Laurel,NJ,"	08054",Burlington,,"Assistive Technology,Behavioral Supports,Career Planning,Community Based Supports,Community Inclusion Services,Day Habilitation,Individual Supports,Natural Supports Training,Occupational Therapy,Physical Therapy,Respite,Speech, Language & Hearing Therapy,Supported Employment - Individual,Supported Employment - Small Group,Transportation",Service Delivery
Sharyn.Washington@Bancroft.org,Bancroft A New Jersey Nonprofit Corp,"666 Plainsboro Road,Suite 2000F",Plainsboro,NJ,"	08536",Middlesex,,"Behavioral Supports,Community Based Supports,Community Inclusion Services,Day Habilitation,Individual Supports,Occupational Therapy,Physical Therapy,Prevocational Training,Speech, Language & Hearing Therapy,Supported Employment - Individual,Supported Employment - Small Group,Transportation",Service Delivery
irecord@bancroft.org,Bancroft A New Jersey Nonprofit Corp,104 Richardson Avenue,Swedesboro,NJ,"	08085",Gloucester,,"Assistive Technology,Behavioral Supports,Career Planning,Community Based Supports,Community Inclusion Services,Day Habilitation,Natural Supports Training,Occupational Therapy,Physical Therapy,Prevocational Training,Respite,Speech, Language & Hearing Therapy,Transportation",Service Delivery
dddcontract@bancroft.org,Bancroft A New Jersey Nonprofit Corp,6 Commissioners Road,Woodstown,NJ,"	08098",Salem,,"Assistive Technology,Behavioral Supports,Career Planning,Community Based Supports,Community Inclusion Services,Day Habilitation,Individual Supports,Natural Supports Training,Occupational Therapy,Physical Therapy,Prevocational Training,Respite,Speech, Language & Hearing Therapy,Supported Employment - Individual,Supported Employment - Small Group,Transportation",Service Delivery
dddcontract@bancroft.org,Bancroft A New Jersey Nonprofit Corp,1000 White Horse Road,Voorhees,NJ,"	08043",Camden,,"Assistive Technology,Behavioral Supports,Career Planning,Community Based Supports,Community Inclusion Services,Day Habilitation,Individual Supports,Natural Supports Training,Occupational Therapy,Physical Therapy,Prevocational Training,Respite,Speech, Language & Hearing Therapy,Supported Employment - Individual,Supported Employment - Small Group,Transportation",Service Delivery
dddcontract@bancroft.org,Bancroft A New Jersey Nonprofit Corp,"1433 Hooper Avenue,Suite 131",Toms River,NJ,"	08753",Ocean,856.348.1175 x 0,"Assistive Technology,Behavioral Supports,Career Planning,Community Based Supports,Community Inclusion Services,Day Habilitation,Individual Supports,Natural Supports Training,Occupational Therapy,Physical Therapy,Prevocational Training,Respite,Speech, Language & Hearing Therapy,Supported Employment - Individual,Supported Employment - Small Group,Transportation",Service Delivery
dddcontract@bancroft.org,Bancroft A New Jersey Nonprofit Corp,1001 Van Buren Road,Voorhees,NJ,"	08043",Camden,856.348.1175 x 0,"Assistive Technology,Behavioral Supports,Career Planning,Community Based Supports,Community Inclusion Services,Day Habilitation,Individual Supports,Natural Supports Training,Occupational Therapy,Physical Therapy,Prevocational Training,Respite,Speech, Language & Hearing Therapy,Supported Employment - Individual,Supported Employment - Small Group,Transportation",Service Delivery
info@broadstep.com,Broadstep Academy New Jersey Inc,4 Gail Court,Sparta,NJ,"	07871",Sussex,973.579.3700 x 0,Day Habilitation,Service Delivery
info@broadstep.com,Broadstep Academy New Jersey Inc,19 Wilson Drive,Sparta,NJ,"	07871",Sussex,973.579.3700 x 0,"Behavioral Supports,Career Planning,Cognitive Rehabilitation,Community Inclusion Services,Day Habilitation,Occupational Therapy,Prevocational Training,Speech, Language & Hearing Therapy,Supported Employment - Individual,Supported Employment - Small Group,Transportation",Service Delivery
info@broadstep.com,Broadstep Academy New Jersey Inc,501 King's Avenue,Cherry Hill,NJ,"	08002",Camden,,Day Habilitation,Service Delivery
info@broadstep.com,Broadstep Academy New Jersey Inc,8 Wilson Drive,Sparta,NJ,"	07871",Sussex,,"Assistive Technology,Behavioral Supports,Career Planning,Community Based Supports,Community Inclusion Services,Day Habilitation,Individual Supports,Occupational Therapy,Prevocational Training,Respite,Speech, Language & Hearing Therapy,Supported Employment - Individual,Supported Employment - Small Group,Transportation",Admin/Service Delivery
IDDservices@bghllc.com,Broadway Group Home Llc,17-17 Broadway,Fair Lawn,NJ,"	07410",Bergen,,"Behavioral Supports,Community Based Supports,Community Inclusion Services,Day Habilitation,Individual Supports,Respite,Transportation",Admin
IDDservices@bghllc.com,Broadway Group Home LLC,36-05 Broadway,Fair Lawn,NJ,"	07410",Bergen,,Day Habilitation,Service Delivery
IDDservices@bghllc.com,Broadway Group Home LLC,1007 Livingston Ave,North Brunswick,NJ,"	08902",Middlesex,,Day Habilitation,Service Delivery
CCHousing@capitol-care.org,Capitol Care Inc.,7 Waterloo Rd,Stanhope,NJ,"	07874",Sussex,,"Behavioral Supports,Career Planning,Cognitive Rehabilitation,Community Based Supports,Community Inclusion Services,Day Habilitation,Individual Supports,Natural Supports Training,Prevocational Training,Supported Employment - Individual,Supported Employment - Small Group,Transportation",Admin/Service Delivery
CCHousing@capitol-care.org,Capitol Care Inc.,2121 Route 22 West,Bound Brook,NJ,"	08805",Somerset,,"Behavioral Supports,Career Planning,Cognitive Rehabilitation,Community Based Supports,Community Inclusion Services,Day Habilitation,Individual Supports,Natural Supports Training,Prevocational Training,Supported Employment - Individual,Supported Employment - Small Group,Transportation",Service Delivery
kgardner@njcodi.org,Career Opportunity Development Center,901 Atlantic Avenue,Egg Harbor City,NJ,"	08215",Atlantic,,"Community Based Supports,Community Inclusion Services,Day Habilitation,Supported Employment - Individual,Supported Employment - Small Group",Admin/Service Delivery
vcheco@caringforfamilies.net,"Caring for Families Social Services NJ, LLC",940 Flora Street,Elizabeth,NJ,"	07201",Union,908.249.0061 x 0,"Community Based Supports,Community Inclusion Services,Individual Supports,Interpreter Services,Respite,Support Coordination,Supported Employment - Individual,Supported Employment - Small Group,Transportation",Admin/Service Delivery
billing@caringinc.org,CARINGHOUSE Projects Inc,14 S California Ave,Atlantic City,NJ,"	08401",Atlantic,,"Assistive Technology,Behavioral Supports,Career Planning,Cognitive Rehabilitation,Community Based Supports,Community Inclusion Services,Day Habilitation,Individual Supports,Interpreter Services,Natural Supports Training,Occupational Therapy,PERS,Physical Therapy,Prevocational Training,Respite,Speech, Language & Hearing Therapy,Supported Employment - Individual,Supported Employment - Small Group,Transportation",Admin/Service Delivery
DDDComms@cfsny.org,"Center for Family Support New Jersey, Inc","1 Harvard Way,Suite 3",Hillsborough,NJ,"	08844",Somerset,201.262.4021 x 0,"Behavioral Supports,Career Planning,Community Based Supports,Community Inclusion Services,Day Habilitation,Individual Supports,Prevocational Training,Respite,Supported Employment - Individual,Supported Employment - Small Group,Supports Brokerage,Transportation",Service Delivery
DDDComms@cfsny.org,"Center for Family Support New Jersey, Inc","2333 Morris Avenue,Suite D",Union,NJ,"	07083",Union,,"Behavioral Supports,Career Planning,Community Based Supports,Community Inclusion Services,Day Habilitation,Individual Supports,Prevocational Training,Respite,Supported Employment - Individual,Supported Employment - Small Group,Supports Brokerage,Transportation",Service Delivery
bgreenwald@cfsny.org,"Center for Family Support New Jersey, Inc",71 Zabriskie Street,Hackensack,NJ,"	07601",Bergen,,"Behavioral Supports,Career Planning,Community Based Supports,Community Inclusion Services,Day Habilitation,Individual Supports,Prevocational Training,Respite,Supported Employment - Individual,Supported Employment - Small Group,Supports Brokerage,Transportation",Admin/Service Delivery
paul@chcnj.org,Center For Humanistic Change Of NJ Inc.,12 Us Highway 206,Stanhope,NJ,"	07874",Sussex,,"Career Planning,Community Based Supports,Community Inclusion Services,Day Habilitation,Prevocational Training,Supported Employment - Individual,Supported Employment - Small Group,Transportation",Admin/Service Delivery
PillarCare@pillarnj.org,Cerebral Palsy of North Jersey,26 North Center Street,Orange,NJ,"	07050",Essex,973.763.9900 x 0,"Day Habilitation,Prevocational Training,Supported Employment - Individual,Supported Employment - Small Group",Service Delivery
PillarCare@pillarnj.org,Cerebral Palsy of North Jersey,120 Eagle Rock Ave Ste 290,East Hanover,NJ,"	07936",Morris,,"Assistive Technology,Behavioral Supports,Career Planning,Community Based Supports,Community Inclusion Services,Individual Supports,Interpreter Services,Natural Supports Training,Occupational Therapy,Physical Therapy,Prevocational Training,Respite,Speech, Language & Hearing Therapy,Supported Employment - Individual,Supported Employment - Small Group,Transportation",Admin/Service Delivery
PillarCare@pillarnj.org,Cerebral Palsy of North Jersey,415 Hamburg Turnpike,Wayne,NJ,"	07470",Passaic,,"Day Habilitation,Prevocational Training,Supported Employment - Individual,Supported Employment - Small Group",Service Delivery
PillarCare@pillarnj.org,Cerebral Palsy of North Jersey,1150 Springfield Avenue,Irvington,NJ,"	07111",Essex,,"Day Habilitation,Prevocational Training,Supported Employment - Individual,Supported Employment - Small Group",Service Delivery
servicedocs@cafsnj.org,Children's Aid and Family Services,200 Robin Road,Paramus,NJ,"	07652",Bergen,201.740.7151 x 0,"Behavioral Supports,Career Planning,Community Based Supports,Community Inclusion Services,Day Habilitation,Individual Supports,Prevocational Training,Respite,Supported Employment - Individual,Supported Employment - Small Group,Transportation",Admin/Service Delivery
jodi@thecaoc.com,Clifton Adult Opportunity Center,900 Clifton Avenue,Clifton,NJ,"	07013",Passaic,,"Community Based Supports,Community Inclusion Services,Day Habilitation,Individual Supports,Prevocational Training,Respite,Transportation",Admin/Service Delivery
DDDINFO@caunj.org,Community Access Unlimited,519 Chestnut Street,Roselle,NJ,"	07203",Union,908.354.3040 x 0,Day Habilitation,Service Delivery
DDDINFO@caunj.org,Community Access Unlimited,80 West Grand Street,Elizabeth,NJ,"	07202",Union,908.354.3040 x 4316,"Assistive Technology,Behavioral Supports,Career Planning,Community Based Supports,Community Inclusion Services,Individual Supports,Interpreter Services,Natural Supports Training,Occupational Therapy,Physical Therapy,Prevocational Training,Respite,Speech, Language & Hearing Therapy,Support Coordination,Supported Employment - Individual,Supported Employment - Small Group,Transportation",Admin/Service Delivery
DDDINFO@caunj.org,Community Access Unlimited,70 Myrtle Street,Cranford,NJ,"	07016",Union,908.354.3040 x 0,Day Habilitation,Service Delivery
SDR_NJ@comop.org,Community Options Enterprises,16 Farber Rd,Princeton,NJ,"	08540",Mercer,,"Behavioral Supports,Career Planning,Community Based Supports,Community Inclusion Services,Day Habilitation,Natural Supports Training,Physical Therapy,Prevocational Training,Respite,Supported Employment - Individual,Supported Employment - Small Group,Transportation",Admin/Service Delivery
SDR_NJ@comop.org,Community Options Enterprises,146 Main Street,Bloomingdale,NJ,"	07403",Passaic,,"Behavioral Supports,Career Planning,Community Based Supports,Community Inclusion Services,Day Habilitation,Natural Supports Training,Occupational Therapy,Physical Therapy,Prevocational Training,Respite,Supported Employment - Individual,Supported Employment - Small Group,Transportation",Service Delivery
SDR_NJ@comop.org,Community Options Enterprises,201 Lower Notch Roead,Little Falls,NJ,"	07424",Passaic,,Day Habilitation,Service Delivery
SDR_NJ@comop.org,Community Options Enterprises,200 E Grove St,Westfield,NJ,"	07090",Union,,"Community Inclusion Services,Day Habilitation,Supported Employment - Individual,Supported Employment - Small Group,Transportation",Service Delivery
SDR_NJ@comop.org,Community Options Enterprises,95 E Main St,Denville,NJ,"	07834",Morris,,"Community Inclusion Services,Day Habilitation,Prevocational Training,Supported Employment - Individual,Supported Employment - Small Group,Transportation",Service Delivery
SDR_NJ@comop.org,Community Options Enterprises,14 Farber Road,Princeton,NJ,"	08540",Mercer,,"Behavioral Supports,Career Planning,Community Based Supports,Community Inclusion Services,Day Habilitation,Natural Supports Training,Occupational Therapy,Physical Therapy,Prevocational Training,Respite,Supported Employment - Individual,Supported Employment - Small Group,Transportation",Service Delivery
SDR_NJ@comop.org,Community Options Enterprises,707 Alexander Road,Princeton,NJ,"	08540",Mercer,,"Behavioral Supports,Career Planning,Community Based Supports,Community Inclusion Services,Day Habilitation,Natural Supports Training,Occupational Therapy,Physical Therapy,Prevocational Training,Respite,Supported Employment - Individual,Supported Employment - Small Group,Transportation",Service Delivery
SDR_NJ@comop.org,Community Options Enterprises,240 Route 206,Flanders,NJ,"	07836",Morris,,"Behavioral Supports,Career Planning,Community Based Supports,Community Inclusion Services,Day Habilitation,Natural Supports Training,Occupational Therapy,Physical Therapy,Prevocational Training,Respite,Supported Employment - Individual,Supported Employment - Small Group,Transportation",Service Delivery
SDR_NJ@comop.org,Community Options Enterprises,506 Hamburg Turnpike,Wayne,NJ,"	07470",Passaic,,"Behavioral Supports,Career Planning,Community Based Supports,Community Inclusion Services,Day Habilitation,Natural Supports Training,Occupational Therapy,Physical Therapy,Prevocational Training,Respite,Supported Employment - Individual,Supported Employment - Small Group,Transportation",Service Delivery
SDR_NJ@comop.org,Community Options Enterprises,390 Main Road,Montville,NJ,"	07045",Morris,,"Behavioral Supports,Career Planning,Community Based Supports,Community Inclusion Services,Day Habilitation,Natural Supports Training,Occupational Therapy,Physical Therapy,Prevocational Training,Respite,Supported Employment - Individual,Supported Employment - Small Group,Transportation",Service Delivery
SDR_NJ@comop.org,Community Options Enterprises,41 William Street,Wayne,NJ,"	07470",Passaic,,"Behavioral Supports,Career Planning,Community Based Supports,Community Inclusion Services,Day Habilitation,Natural Supports Training,Occupational Therapy,Physical Therapy,Prevocational Training,Respite,Supported Employment - Individual,Supported Employment - Small Group,Transportation",Service Delivery
SDR_NJ@comop.org,Community Options Enterprises,502 Salem Ave.,Woodbury,NJ,"	08096",Gloucester,,Day Habilitation,Service Delivery
SDR_NJ@comop.org,Community Options Enterprises,256 Route 1,Edison,NJ,"	08817",Middlesex,,"Behavioral Supports,Career Planning,Community Based Supports,Community Inclusion Services,Day Habilitation,Natural Supports Training,Occupational Therapy,Physical Therapy,Prevocational Training,Respite,Supported Employment - Individual,Supported Employment - Small Group,Transportation",Service Delivery
SDR_NJ@comop.org,Community Options Enterprises,241 Molnar Drive,Elmwood Park,NJ,"	07407",Bergen,,"Behavioral Supports,Career Planning,Community Based Supports,Community Inclusion Services,Day Habilitation,Natural Supports Training,Occupational Therapy,Physical Therapy,Prevocational Training,Respite,Supported Employment - Individual,Supported Employment - Small Group,Transportation",Service Delivery
SDR_NJ@comop.org,Community Options Enterprises,34 Manchester Ave,Forked River,NJ,"	08731",Ocean,,"Behavioral Supports,Career Planning,Community Based Supports,Community Inclusion Services,Day Habilitation,Natural Supports Training,Occupational Therapy,Physical Therapy,Prevocational Training,Respite,Supported Employment - Individual,Supported Employment - Small Group,Transportation",Service Delivery
SDR_NJ@comop.org,Community Options Enterprises,427 Homestead Rd,Hillsborough,NJ,"	08844",Somerset,,"Behavioral Supports,Career Planning,Community Based Supports,Community Inclusion Services,Day Habilitation,Natural Supports Training,Occupational Therapy,Physical Therapy,Prevocational Training,Respite,Supported Employment - Individual,Supported Employment - Small Group,Transportation",Service Delivery
SDR_NJ@comop.org,Community Options Enterprises,2025 Princeton Pike,Lawrence,NJ,"	08648",Mercer,,"Behavioral Supports,Career Planning,Community Based Supports,Community Inclusion Services,Day Habilitation,Natural Supports Training,Occupational Therapy,Physical Therapy,Prevocational Training,Supported Employment - Individual,Supported Employment - Small Group,Transportation",Service Delivery
SDR_NJ@comop.org,Community Options Enterprises,234 Main Street,Lincoln Park,NJ,"	07035",Morris,,"Behavioral Supports,Career Planning,Community Based Supports,Community Inclusion Services,Day Habilitation,Natural Supports Training,Occupational Therapy,Physical Therapy,Prevocational Training,Respite,Supported Employment - Individual,Supported Employment - Small Group,Transportation",Service Delivery
SDR_NJ@comop.org,Community Options Enterprises,"343 Route 34,Unit 25",Matawan,NJ,"	07747",Monmouth,973.897.1430 x 0,Day Habilitation,Service Delivery
SDR_NJ@comop.org,Community Options Enterprises,212 West Route 38,Moorestown,NJ,"	08057",Burlington,,"Behavioral Supports,Career Planning,Community Based Supports,Community Inclusion Services,Day Habilitation,Natural Supports Training,Occupational Therapy,Physical Therapy,Prevocational Training,Respite,Supported Employment - Individual,Supported Employment - Small Group,Transportation",Service Delivery
SDR_NJ@comop.org,Community Options Enterprises,150-152 Speedwell Avenue,Morristown,NJ,"	07960",Morris,,"Behavioral Supports,Career Planning,Community Based Supports,Community Inclusion Services,Day Habilitation,Natural Supports Training,Occupational Therapy,Physical Therapy,Prevocational Training,Respite,Supported Employment - Individual,Supported Employment - Small Group,Transportation",Service Delivery
SDR_NJ@comop.org,Community Options Enterprises,150 Speedwell Avenue,Wayne,NJ,"	07470",Passaic,,"Behavioral Supports,Career Planning,Community Based Supports,Community Inclusion Services,Day Habilitation,Natural Supports Training,Occupational Therapy,Physical Therapy,Prevocational Training,Respite,Supported Employment - Individual,Supported Employment - Small Group,Transportation",Service Delivery
SDR_NJ@comop.org,Community Options Enterprises,305 Witherspoon Street,Princeton,NJ,"	08540",Mercer,,"Behavioral Supports,Career Planning,Community Based Supports,Community Inclusion Services,Natural Supports Training,Occupational Therapy,Physical Therapy,Prevocational Training,Respite,Supported Employment - Individual,Supported Employment - Small Group,Transportation",Service Delivery
SDR_NJ@comop.org,Community Options Enterprises,305 Witherspoon Street,Princeton,NJ,"	08540",Mercer,,"Prevocational Training,Supported Employment - Individual,Supported Employment - Small Group",Service Delivery
SDR_NJ@comop.org,Community Options Enterprises,108 Main St,Oceanport,NJ,"	07757",Monmouth,,Day Habilitation,Service Delivery
SDR_NJ@comop.org,Community Options Enterprises,24-36 Fornelius Avenue,Clifton,NJ,"	07013",Passaic,,"Behavioral Supports,Career Planning,Community Based Supports,Community Inclusion Services,Day Habilitation,Natural Supports Training,Occupational Therapy,Physical Therapy,Prevocational Training,Respite,Supported Employment - Individual,Supported Employment - Small Group,Transportation",Service Delivery
moreinfo@comop.org,Community Options Inc.,16 Farber Road,Princeton,NJ,"	08540",Mercer,609.951.9900 x 155,"Behavioral Supports,Community Based Supports,Community Inclusion Services,Individual Supports,Respite,Transportation",Admin/Service Delivery
supportsprogram@CQInc.org,Community Quest Inc.,6814 Tilton Road,Egg Harbor Township,NJ,"	08234",Atlantic,609.646.0388 x 0,"Career Planning,Cognitive Rehabilitation,Community Based Supports,Community Inclusion Services,Individual Supports,Interpreter Services,Natural Supports Training,Physical Therapy,Prevocational Training,Respite,Speech, Language & Hearing Therapy,Supported Employment - Individual,Transportation",Admin/Service Delivery
SupportsProgram@Deltaweb.org,Delta Community Supports Inc.,"1130 Route  202 South,Bldg C-1",Raritan,NJ,"	08869",Somerset,215.654.1000 x 1240,"Behavioral Supports,Career Planning,Community Based Supports,Community Inclusion Services,Individual Supports,Prevocational Training,Respite,Supported Employment - Individual,Transportation",Admin/Service Delivery
iRecord@dpd.org,"Department for Persons w/ Disabilities, Diocese of Paterson",1 Catholic Charities Way,Oak Ridge,NJ,"	07438",Passaic,973.406.1100 x 0,"Behavioral Supports,Career Planning,Community Based Supports,Community Inclusion Services,Individual Supports,Prevocational Training,Support Coordination,Supported Employment - Individual,Supported Employment - Small Group,Transportation",Admin/Service Delivery
iRecord@dpd.org,"Department for Persons w/ Disabilities, Diocese of Paterson",725 Route 15 South,Lake Hopatcong,NJ,"	07849",Morris,973.406.1100 x 0,Day Habilitation,Service Delivery
ddanj@aol.com,Developmental Disabilities Association of NJ Inc,19 Paulison Avenue,Ridgefield Park,NJ,"	07660",Bergen,,Day Habilitation,Service Delivery
ddanj@aol.com,Developmental Disabilities Association of NJ Inc,40 Woodbridge Avenue,Sewaren,NJ,"	07077",Middlesex,,"Behavioral Supports,Career Planning,Community Based Supports,Community Inclusion Services,Individual Supports,Natural Supports Training,Prevocational Training,Respite,Supported Employment - Individual,Supported Employment - Small Group,Transportation",Admin/Service Delivery
ddanj@aol.com,Developmental Disabilities Association of NJ Inc,35 Fadem Road,Springfield,NJ,"	07081",Union,,Day Habilitation,Service Delivery
njispnotifications@devereux.org,Devereux Foundation,1515 Burnt Mill Road,Cherry Hill,NJ,"	08003",Camden,856.599.6047 x 0,"Behavioral Supports,Career Planning,Community Based Supports,Community Inclusion Services,Individual Supports,Natural Supports Training,Prevocational Training,Respite,Supported Employment - Individual,Supported Employment - Small Group,Transportation",Admin
njispnotifications@devereux.org,Devereux Foundation,"370 Campus Drive,Suite 120",Somerset,NJ,"	08873",Somerset,856.599.6047 x 0,"Day Habilitation,Prevocational Training,Supported Employment - Individual,Supported Employment - Small Group,Transportation",Service Delivery
njispnotifications@devereux.org,Devereux Foundation,666 Route 70 Unit 1 And 2,Lakehurst,NJ,"	08733",Ocean,,Day Habilitation,Service Delivery
njispnotifications@devereux.org,Devereux Foundation,5270 Oakwood Boulevard,Mays Landing,NJ,"	08330",Atlantic,856.599.6047 x 0,"Day Habilitation,Prevocational Training,Supported Employment - Individual,Supported Employment - Small Group,Transportation",Service Delivery
njispnotifications@devereux.org,Devereux Foundation,"5270 Oakwood Boulevard,Suite 6",Mays Landing,NJ,"	08330",Atlantic,856.599.6047 x 0,Day Habilitation,Service Delivery
njispnotifications@devereux.org,Devereux Foundation,207 Bogden Boulevard,Millville,NJ,"	08332",Cumberland,856.599.6047 x 0,"Day Habilitation,Prevocational Training,Supported Employment - Individual,Supported Employment - Small Group,Transportation",Service Delivery
njispnotifications@devereux.org,Devereux Foundation,55 Mill Street,Newton,NJ,"	07860",Sussex,856.599.6047 x 0,"Day Habilitation,Prevocational Training,Supported Employment - Individual,Supported Employment - Small Group,Transportation",Service Delivery
njispnotifications@devereux.org,Devereux Foundation,2 South Hook Road,Pennsville,NJ,"	08070",Salem,856.599.6047 x 0,Day Habilitation,Service Delivery
njispnotifications@devereux.org,Devereux Foundation,399 Helms Avenue,Swedesboro,NJ,"	08085",Gloucester,856.599.6047 x 0,Day Habilitation,Service Delivery
njispnotifications@devereux.org,Devereux Foundation,1667 E Landis Ave,Vineland,NJ,"	08361",Cumberland,,Day Habilitation,Service Delivery
njispnotifications@devereux.org,Devereux Foundation,198 Roadstown Road,Bridgeton,NJ,"	08302",Cumberland,856.599.6047 x 0,"Day Habilitation,Prevocational Training,Supported Employment - Individual,Supported Employment - Small Group,Transportation",Service Delivery
njispnotifications@devereux.org,Devereux Foundation,1601-1603 Sicklerville Road,Sicklerville,NJ,"	08081",Camden,856.599.6400 x 0,"Behavioral Supports,Community Based Supports,Day Habilitation,Prevocational Training,Supported Employment - Individual,Supported Employment - Small Group,Transportation",Service Delivery
njispnotifications@devereux.org,Devereux Foundation,"1460 Grandview Avenue,Suite 5",West Deptford,NJ,"	08066",Gloucester,856.599.6047 x 0,"Assistive Technology,Career Planning,Community Inclusion Services,Day Habilitation,Natural Supports Training,Occupational Therapy,Physical Therapy,Prevocational Training,Speech, Language & Hearing Therapy,Supported Employment - Individual,Supported Employment - Small Group,Supports Brokerage,Transportation",Service Delivery
NJ-irecord@dungarvin.com,Dungarvin,2550 Route 1,North Brunswick,NJ,"	08902",Middlesex,732.463.7227 x 0,Day Habilitation,Service Delivery
NJ-irecord@dungarvin.com,Dungarvin,"1543 State Route 27,Suite 24",Somerset,NJ,"	08873",Somerset,732.463.7227 x 0,"Behavioral Supports,Career Planning,Cognitive Rehabilitation,Community Based Supports,Community Inclusion Services,Individual Supports,Natural Supports Training,Prevocational Training,Respite,Supported Employment - Individual,Transportation",Admin/Service Delivery
NJ-irecord@dungarvin.com,Dungarvin,1210 Campus Drive West,Morganville,NJ,"	07751",Monmouth,732.463.7227 x 0,Day Habilitation,Service Delivery
NJ-irecord@dungarvin.com,Dungarvin,"1543 Route 27,Suite 16",Somerset,NJ,"	08873",Somerset,732.463.7227 x 0,Day Habilitation,Service Delivery
NJ-irecord@dungarvin.com,Dungarvin,"1000 Salem Road,Suite A",Willingboro,NJ,"	08046",Burlington,732.463.7227 x 0,Day Habilitation,Service Delivery
supportsinfo@durandac.org,Durand Inc.,111 Fox Chase Drive,Delran,NJ,"	08075",Burlington,856.235.3540 x 0,Individual Supports,Service Delivery
supportsinfo@durandac.org,Durand Inc.,"111 Gaither Drive,Suite 101",Mount Laurel,NJ,"	08054",Burlington,,"Community Based Supports,Community Inclusion Services,Day Habilitation,Individual Supports,Prevocational Training,Supported Employment - Individual,Supported Employment - Small Group,Transportation",Admin/Service Delivery
supportsinfo@durandac.org,Durand Inc.,1224 Berlin Road,Voorhees,NJ,"	08043",Camden,,"Day Habilitation,Prevocational Training,Supported Employment - Individual,Supported Employment - Small Group,Transportation",Service Delivery
supportsinfo@durandac.org,Durand Inc.,549 N. Evergreen Road,Woodbury,NJ,"	08096",Gloucester,,"Day Habilitation,Prevocational Training,Supported Employment - Individual,Supported Employment - Small Group,Transportation",Service Delivery
supportsprogram@nj.easterseals.com,Easter Seals NJ,241 Forsgate Dr,Jamesburg,NJ,"	08831",Middlesex,732.257.6662 x 469,"Behavioral Supports,Career Planning,Community Based Supports,Community Inclusion Services,Day Habilitation,Individual Supports,Prevocational Training,Respite,Supported Employment - Individual,Supported Employment - Small Group,Transportation",Admin/Service Delivery
supportsprogram@nj.easterseals.com,Easter Seals NJ,21 O'Brien Road,Hackettstown,NJ,"	07840",Warren,732.257.6662 x 469,Respite,Service Delivery
supportsprogram@nj.easterseals.com,Easter Seals NJ,"Oakfield Plaza, 15 Manchester Ave #10",Forked River,NJ,"	08731",Ocean,732.257.6662 x 469,Day Habilitation,Service Delivery
supportsprogram@nj.easterseals.com,Easter Seals NJ,3635 Quakerbridge Road,Hamilton,NJ,"	08619",Mercer,732.257.6662 x 469,Day Habilitation,Service Delivery
supportsprogram@nj.easterseals.com,Easter Seals NJ,535 Tilton Road,Northfield,NJ,"	08225",Atlantic,732.257.6662 x 469,Day Habilitation,Service Delivery
supportsprogram@nj.easterseals.com,Easter Seals NJ,"1610 Route 35 South, Suite 16",Oakhurst,NJ,"	07755",Monmouth,732.257.6662 x 469,Day Habilitation,Service Delivery
supportsprogram@nj.easterseals.com,Easter Seals NJ,194 Route 17 north,Rochelle Park,NJ,"	07662",Bergen,732.257.6662 x 469,Day Habilitation,Service Delivery
supportsprogram@nj.easterseals.com,Easter Seals NJ,1841 B Route 35 South,South Amboy,NJ,"	08879",Middlesex,732.257.6662 x 469,Day Habilitation,Service Delivery
supportsprogram@nj.easterseals.com,Easter Seals NJ,2400 Belmar Boulevard,Wall,NJ,"	07719",Monmouth,732.257.6662 x 469,Day Habilitation,Service Delivery
supportsprogram@njeasterseals,Easter Seals NJ,120 Bodgen Blvd,Millville,NJ,"	08332",Cumberland,732.257.6662 x 469,"Career Planning,Supported Employment - Individual,Supported Employment - Small Group",Service Delivery
supportsprogram@nj.easterseals.com,Easter Seals NJ,9 Terminal Road,New Brunswick,NJ,"	08901",Middlesex,732.257.6662 x 469,"Career Planning,Supported Employment - Individual,Supported Employment - Small Group",Service Delivery
isp.support@edenautism.org,"Eden Autism Services, Inc.",2 Merwick Drive,Princeton,NJ,"	08540",Mercer,,"Behavioral Supports,Career Planning,Community Based Supports,Community Inclusion Services,Day Habilitation,Individual Supports,Prevocational Training,Respite,Speech, Language & Hearing Therapy,Supported Employment - Individual,Supported Employment - Small Group",Admin/Service Delivery
isp.support@edenautism.org,"Eden Autism Services, Inc.",4 Crossroads Drive,Hamilton,NJ,"	08691",Mercer,,"Behavioral Supports,Community Based Supports,Community Inclusion Services,Day Habilitation,Prevocational Training,Speech, Language & Hearing Therapy,Supported Employment - Individual,Supported Employment - Small Group,Transportation",Service Delivery
isp.support@edenautism.org,"Eden Autism Services, Inc.",2031 Old Trenton Road,West Windsor,NJ,"	08550",Mercer,,"Day Habilitation,Speech, Language & Hearing Therapy,Supported Employment - Individual,Supported Employment - Small Group",Service Delivery
isp.support@edenautism.org,"Eden Autism Services, Inc.",10 Schalks Crossing,Plainsboro,NJ,"	08536",Middlesex,609.987.0099 x 0,"Behavioral Supports,Career Planning,Community Inclusion Services,Day Habilitation,Individual Supports,Prevocational Training,Speech, Language & Hearing Therapy,Supported Employment - Individual,Supported Employment - Small Group",Service Delivery
infoddd@eihab.org,EIHAB Human Services,1007 Route 9 N Ste 202,Howell,NJ,"	07731",Monmouth,,"Behavioral Supports,Career Planning,Cognitive Rehabilitation,Community Based Supports,Community Inclusion Services,Day Habilitation,Individual Supports,Interpreter Services,Natural Supports Training,Occupational Therapy,PERS,Physical Therapy,Prevocational Training,Respite,Speech, Language & Hearing Therapy,Supported Employment - Individual,Supported Employment - Small Group,Transportation",Admin
njdddirecord@elwyn.org,Elwyn NJ,150 Delsea Dr Ste C,Sewell,NJ,"	08080",Gloucester,,Day Habilitation,Service Delivery
njdddirecord@elwyn.org,Elwyn NJ,46 North West  Avenue Building B,Vineland,NJ,"	08361",Cumberland,856.794.5212 x 0,Day Habilitation,Service Delivery
njdddirecord@elwyn.org,Elwyn NJ,228 W Landis Ave Bldg C,Vineland,NJ,"	08360",Cumberland,,"Assistive Technology,Behavioral Supports,Community Based Supports,Community Inclusion Services,Individual Supports,Physical Therapy,Prevocational Training,Supported Employment - Individual,Supported Employment - Small Group,Transportation",Admin/Service Delivery
njdddirecord@elwyn.org,Elwyn NJ,1667 E. Landis Avenue,Vineland,NJ,"	08361",Cumberland,856.794.5212 x 0,Day Habilitation,Service Delivery
njdddirecord@elwyn.org,Elwyn NJ,76 West  Landis Avenue,Vineland,NJ,"	08361",Cumberland,856.794.5212 x 0,Day Habilitation,Service Delivery
njdddirecord@elwyn.org,Elwyn NJ,46 North West Avenue Building A,Vineland,NJ,"	08360",Cumberland,856.794.5212 x 0,Day Habilitation,Service Delivery
services@everas.org,Everas Community Services,4216 Kennedy Blvd,Union City,NJ,"	07087",Hudson,732.805.1912 x 223,Day Habilitation,Service Delivery
services@everas.org,Everas Community Services,24F Worlds Fair Dr,Somerset,NJ,"	08873",Somerset,732.805.1912 x 223,Day Habilitation,Service Delivery
services@everas.org,Everas Community Services,24K  World's Fair Drive,Somerset,NJ,"	08873",Somerset,732.805.1912 x 223,"Behavioral Supports,Career Planning,Community Based Supports,Community Inclusion Services,Individual Supports,Natural Supports Training,Prevocational Training,Supported Employment - Individual,Supported Employment - Small Group,Transportation",Admin/Service Delivery
services@everas.org,Everas Community Services,60 Saddle River Road,S Hackensack,NJ,"	07606",Bergen,732.805.1912 x 223,Day Habilitation,Service Delivery
services@everas.org,Everas Community Services,922 State Route 33 Bldg 7,Freehold,NJ,"	07728",Monmouth,732.805.1912 x 223,Day Habilitation,Service Delivery
angela@fordham-lewisconsulting.org,Fordham-Lewis Consulting,"613 Hope Road,Suite 5",Eatontown,NJ,"	07724",Monmouth,732.684.3841 x 0,"Community Based Supports,Community Inclusion Services,Individual Supports,Occupational Therapy,Physical Therapy,Prevocational Training,Respite,Speech, Language & Hearing Therapy,Transportation",Admin/Service Delivery
angela@fordham-lewisconsulting.org,Fordham-Lewis Consulting,"613 Hope Road,Suite 2",Eatontown,NJ,"	07724",Monmouth,732.684.3841 x 0,Day Habilitation,Service Delivery
preauthorizations@lifetimewithcyrus.com,Friends of Cyrus II Inc.,505 Thornall St Ste 305,Edison,NJ,"	08837",Middlesex,732.239.9162 x 0,"Assistive Technology,Behavioral Supports,Career Planning,Cognitive Rehabilitation,Community Based Supports,Community Inclusion Services,Individual Supports,Interpreter Services,Natural Supports Training,Occupational Therapy,Physical Therapy,Prevocational Training,Respite,Speech, Language & Hearing Therapy,Supported Employment - Individual,Supported Employment - Small Group,Transportation",Admin
preauthorizations@lifetimewithcyrus.com,Friends of Cyrus II Inc.,175 Tuckerton Road,Medford,NJ,"	08055",Burlington,,"Day Habilitation,Transportation",Service Delivery
preauthorizations@lifetimewithcyrus.com,Friends of Cyrus II Inc.,36 Trenton Lakewood Rd,Millstone Township,NJ,"	08510",Monmouth,201.909.8787 x 0,"Day Habilitation,Transportation",Service Delivery
preauthorizations@lifetimewithcyrus.com,Friends of Cyrus II Inc.,180 Carranza Rd,Tabernacle,NJ,"	08088",Burlington,201.909.8787 x 0,"Day Habilitation,Transportation",Service Delivery
graceexcellencycare@gmail.com,"Grace Excellency Care, LLC","2066 Millburn Avenue,Suite 102",Maplewood,NJ,"	07040",Essex,973.313.1700 x 0,"Assistive Technology,Career Planning,Cognitive Rehabilitation,Community Based Supports,Community Inclusion Services,Individual Supports,Interpreter Services,Natural Supports Training,PERS,Prevocational Training,Respite,Supported Employment - Individual,Supported Employment - Small Group,Transportation",Admin/Service Delivery
njbilling@h2hhc.com,Heart to Heart Home Care,"576 Central Avenue,Suite 301",East Orange,NJ,"	07018",Essex,973.678.5500 x 0,"Behavioral Supports,Career Planning,Cognitive Rehabilitation,Community Based Supports,Community Inclusion Services,Individual Supports,Natural Supports Training,Occupational Therapy,Physical Therapy,Prevocational Training,Respite,Speech, Language & Hearing Therapy,Supported Employment - Individual,Supported Employment - Small Group,Transportation",Admin/Service Delivery
njbilling@h2hhc.com,Heart to Heart Home Care,433 Woodbury Glassboro Rd,Sewell,NJ,"	08080",Gloucester,973.678.5500 x 0,Day Habilitation,Service Delivery
SupportsProgram@hollydell.org,HollyDell Inc.,2384 E. Landis Avenue,Vineland,NJ,"	08361",Cumberland,856.582.5151 x 0,"Day Habilitation,Prevocational Training",Service Delivery
SupportsProgram@hollydell.org,HollyDell Inc.,51 Charles III Drive,Glassboro,NJ,"	08028",Gloucester,856.582.5151 x 0,"Day Habilitation,Prevocational Training,Transportation",Service Delivery
SupportsProgram@hollydell.org,HollyDell Inc.,11 Park Place Boulevard,Sewell,NJ,"	08080",Gloucester,,"Assistive Technology,Career Planning,Community Based Supports,Community Inclusion Services,Day Habilitation,Occupational Therapy,Physical Therapy,Prevocational Training,Respite,Speech, Language & Hearing Therapy,Transportation",Service Delivery
SupportsProgram@hollydell.org,HollyDell Inc.,328B North Broadway,Pennsville,NJ,"	08070",Salem,,"Assistive Technology,Career Planning,Community Based Supports,Community Inclusion Services,Day Habilitation,Occupational Therapy,Physical Therapy,Prevocational Training,Respite,Speech, Language & Hearing Therapy,Transportation",Service Delivery
SupportsProgram@hollydell.org,HollyDell Inc.,303 Hollydell Dr,Hurffville,NJ,"	08080",Gloucester,856.307.0323 x 402,"Assistive Technology,Career Planning,Community Based Supports,Community Inclusion Services,Day Habilitation,Occupational Therapy,Physical Therapy,Prevocational Training,Respite,Speech, Language & Hearing Therapy,Transportation",Service Delivery
SupportsProgram@hollydell.org,HollyDell Inc.,610 Hollydell Drive,Hurffville,NJ,"	08080",Gloucester,,"Assistive Technology,Career Planning,Cognitive Rehabilitation,Community Based Supports,Community Inclusion Services,Day Habilitation,Occupational Therapy,Physical Therapy,Prevocational Training,Respite,Speech, Language & Hearing Therapy,Supported Employment - Individual,Supported Employment - Small Group,Transportation",Admin/Service Delivery
HCS@hopechristian.org,Hope Christian Services,700 Mountain Avenue,Wyckoff,NJ,"	07481",Bergen,,"Day Habilitation,Individual Supports,Occupational Therapy,Physical Therapy,Prevocational Training,Speech, Language & Hearing Therapy",Admin/Service Delivery
jschwartz@thehudsonhillgroup.com,Hudson Hill Group,"148 East 5th Street,Bldg 7A",Bayonne,NJ,"	07002",Hudson,,"Behavioral Supports,Community Based Supports,Community Inclusion Services,Individual Supports,Occupational Therapy,Respite,Speech, Language & Hearing Therapy,Transportation",Admin/Service Delivery
hudson.milestones@hudsonmilestones.org,Hudson Milestones,355 Clendenny Avenue,Jersey City,NJ,"	07304",Hudson,201.434.7783 x 0,Day Habilitation,Service Delivery
hudson.milestones@hudsonmilestones.org,Hudson Milestones,365-381 Clendenny Avenue,Jersey City,NJ,"	07304",Hudson,201.434.7783 x 0,"Behavioral Supports,Community Based Supports,Community Inclusion Services,Day Habilitation,Respite,Transportation",Admin/Service Delivery
info@innovativelifenj.org,Innovative Life of New Jersey,1900 Mount Holly Rd Ste 600A,Burlington,NJ,"	08016",Burlington,301.270.4750 x 0,"Career Planning,Community Based Supports,Community Inclusion Services,Day Habilitation,Individual Supports,Prevocational Training,Respite,Supported Employment - Individual,Supported Employment - Small Group,Transportation",Admin/Service Delivery
supportsprogram@jespy.org,Jespy House,110 Irvington Avenue,South Orange,NJ,"	07079",Essex,973.769.6909 x 343,"Community Based Supports,Day Habilitation,Prevocational Training",Service Delivery
supportsprogram@jespy.org,Jespy House,2168 Millburn Ave,Maplewood,NJ,"	07040",Essex,973.762.6909 x 343,Day Habilitation,Service Delivery
supportsprogram@jespy.org,Jespy House,102 Prospect Street,South Orange,NJ,"	07079",Essex,973.762.6909 x 343,"Behavioral Supports,Career Planning,Community Based Supports,Community Inclusion Services,Individual Supports,Occupational Therapy,Physical Therapy,Prevocational Training,Respite,Supported Employment - Individual,Transportation",Admin/Service Delivery
supportsprogram@jespy.org,Jespy House,111 Milligan Place,South Orange,NJ,"	07079",Essex,973.762.6909 x 343,"Behavioral Supports,Community Based Supports",Service Delivery
InfoDDD@j-add.org,Jewish Association for Developmental Disabilities,"50 Eisenhower Drive,Suite 202",Paramus,NJ,"	07652",Bergen,,"Behavioral Supports,Career Planning,Cognitive Rehabilitation,Community Based Supports,Community Inclusion Services,Individual Supports,Natural Supports Training,PERS,Prevocational Training,Respite,Supported Employment - Individual,Supported Employment - Small Group,Transportation",Admin/Service Delivery
Spnjfcs@Jfedsnj.Org,Jewish Federation of Southern NJ,1301 Springdale Rd,Cherry Hill,NJ,"	08003",Camden,856.424.1333 x 0,"Career Planning,Community Based Supports,Community Inclusion Services,Individual Supports,Prevocational Training,Supported Employment - Individual,Supported Employment - Small Group,Transportation",Admin/Service Delivery
Spnjfcs@Jfedsnj.Org,Jewish Federation of Southern NJ,1721 Springdale Road,Cherry Hill,NJ,"	08003",Camden,856.424.1333 x 0,Day Habilitation,Service Delivery
info@jsddmetrowest.org,Jewish Services for the DD,310 Eisenhower Parkway,Livingston,NJ,"	07039",Essex,973.325.1494 x 0,"Behavioral Supports,Career Planning,Community Based Supports,Community Inclusion Services,Day Habilitation,Individual Supports,Interpreter Services,Natural Supports Training,Occupational Therapy,Physical Therapy,Prevocational Training,Respite,Speech, Language & Hearing Therapy,Transportation",Admin/Service Delivery
info@jsddmetrowest.org,Jewish Services for the DD,622 Eagle Rock Avenue,West Orange,NJ,"	07052",Essex,973.272.7141 x 0,"Career Planning,Community Based Supports,Community Inclusion Services,Interpreter Services,Natural Supports Training,Occupational Therapy,Physical Therapy,Prevocational Training,Respite,Speech, Language & Hearing Therapy",Service Delivery
cshannon@kasefacarellc.com,Kasefa Care LLC,"5 Franklin Avenue,Suite G-5",Belleville,NJ,"	07109",Essex,,"Assistive Technology,Behavioral Supports,Career Planning,Cognitive Rehabilitation,Community Based Supports,Community Inclusion Services,Day Habilitation,Individual Supports,Interpreter Services,Natural Supports Training,Occupational Therapy,PERS,Physical Therapy,Prevocational Training,Respite,Speech, Language & Hearing Therapy,Supported Employment - Individual,Supported Employment - Small Group,Supports Brokerage,Transportation",Admin/Service Delivery
admin@kelschnj.com,"Kelsch Associates, Inc.",335 Glassboro Rd,Woodbury Heights,NJ,"	08097",Gloucester,,"Behavioral Supports,Career Planning,Community Based Supports,Community Inclusion Services,Day Habilitation,Individual Supports,Prevocational Training,Respite,Supported Employment - Individual,Supported Employment - Small Group,Transportation",Service Delivery
admin@kelschnj.com,"Kelsch Associates, Inc.",335 Glassboro Rd,Woodbury Heights,NJ,"	08097",Gloucester,,"Behavioral Supports,Career Planning,Community Based Supports,Community Inclusion Services,Individual Supports,Prevocational Training,Respite,Supported Employment - Individual,Supported Employment - Small Group,Transportation",Admin/Service Delivery
admin@kelschnj.com,"Kelsch Associates, Inc.",764 Cuthbert Road,Cherry Hill,NJ,"	08002",Camden,856.456.2022 x 0,Day Habilitation,Service Delivery
admin@kelschnj.com,"Kelsch Associates, Inc.",300 N. Black Horse Pike,Williamstown,NJ,"	08094",Gloucester,856.456.2022 x 0,Day Habilitation,Service Delivery
admin@kelschnj.com,"Kelsch Associates, Inc.",19 E. Center Street,Woodbury,NJ,"	08096",Gloucester,856.456.2022 x 0,"Day Habilitation,Transportation",Service Delivery
ffs@keystonecomliving.com,Keystone Community Living Inc.,154 Front Street,South Plainfield,NJ,"	07080",Middlesex,,"Community Based Supports,Community Inclusion Services,Day Habilitation,Prevocational Training,Transportation",Admin/Service Delivery
NJ-Auth@keycommres.com,Keystone Community Resources,628 Genet Street,Scranton,PA,"	18505",Out Of State,570.702.8000 x 0,"Day Habilitation,Prevocational Training",Service Delivery
NJ-Auth@keycommres.com,Keystone Community Resources,503 Lackawanna Avenue,Scranton,PA,"	18503",Out Of State,570.702.8000 x 0,"Day Habilitation,Prevocational Training",Service Delivery
NJ-Auth@keycommres.com,Keystone Community Resources,921 Penn Avenue,Scranton,PA,"	18509",Out Of State,570.702.8000 x 0,"Day Habilitation,Prevocational Training",Service Delivery
NJ-Auth@keycommres.com,Keystone Community Resources,1729 Pittston Avenue,Scranton,PA,"	18505",Out Of State,570.702.8000 x 0,"Day Habilitation,Prevocational Training",Service Delivery
NJ-Auth@keycommres.com,Keystone Community Resources,2100 Rt. 6 &amp; 11,La Plume,PA,"	18440",Out Of State,570.702.8000 x 0,"Day Habilitation,Prevocational Training",Service Delivery
NJ-Auth@keycommres.com,Keystone Community Resources,1501 Sanderson Avenue,Scranton,PA,"	18508",Out Of State,570.702.8000 x 0,"Day Habilitation,Prevocational Training",Service Delivery
ExecutiveDirector@ladacin.org,Ladacin Network,3500 Sunset Avenue,Wanamassa,NJ,"	07712",Monmouth,,Day Habilitation,Service Delivery
ExecutiveDirector@ladacin.org,Ladacin Network,1100 Airport Road,Lakewood,NJ,"	08701",Ocean,,"Day Habilitation,Respite",Service Delivery
ExecutiveDirector@ladacin.org,Ladacin Network,170 North Oberlin Avenue,Lakewood,NJ,"	08701",Ocean,732.493.5900 x 245,Day Habilitation,Service Delivery
ExecutiveDirector@ladacin.org,Ladacin Network,1703 Kneely Blvd,Ocean,NJ,"	07712",Monmouth,732.493.5900 x 245,"Assistive Technology,Community Based Supports,Community Inclusion Services,Individual Supports,Occupational Therapy,Physical Therapy,Respite,Speech, Language & Hearing Therapy,Supported Employment - Individual,Supported Employment - Small Group,Transportation",Admin/Service Delivery
gail@lifeopp.org,Life Opportunities Unlimited,"75 North Maple Avenue,Suite 104",Ridgewood,NJ,"	07450",Bergen,,"Community Inclusion Services,Day Habilitation,Prevocational Training,Transportation",Admin/Service Delivery
dddserviceinquiries@matheny.org,Matheny Medical and Educational,"216 US Hwy 206,Valley Park Plaza",Hillsborough,NJ,"	08844",Somerset,908.234.0011 x 1281,"Day Habilitation,Occupational Therapy,Physical Therapy,Speech, Language & Hearing Therapy",Service Delivery
dddserviceinquiries@matheny.org,Matheny Medical and Educational,65 Highland Avenue,Peapack,NJ,"	07977",Somerset,908.234.0011 x 1281,"Assistive Technology,Individual Supports,Occupational Therapy,Physical Therapy,Prevocational Training,Speech, Language & Hearing Therapy",Admin/Service Delivery
debbora.bergman@neurorestorative.com,Mentor ABI,"8008 Rte. 130 North,Bldg. C",Delran,NJ,"	08075",Burlington,,"Cognitive Rehabilitation,Day Habilitation,Individual Supports,Occupational Therapy,Physical Therapy,Speech, Language & Hearing Therapy",Admin/Service Delivery
NJauthorizations@merakey.org,Merakey,1182 Hedding Road,Columbus,NJ,"	08022",Burlington,,Individual Supports,Service Delivery
NJauthorizations@merakey.org,Merakey,105 Evesboro Medford Rd Ste H,Marlton,NJ,"	08053",Burlington,856.797.1250 x 0,"Behavioral Supports,Career Planning,Community Based Supports,Community Inclusion Services,Day Habilitation,Prevocational Training,Supported Employment - Individual,Supported Employment - Small Group",Admin/Service Delivery
MASINFO@midlandschool.org,Midland Adult Services,580 Old York Road,Branchburg,NJ,"	08876",Somerset,908.722.8222 x 0,"Career Planning,Day Habilitation,Prevocational Training",Service Delivery
MASINFO@midlandschool.org,Midland Adult Services,94 Readington Rd,Branchburg,NJ,"	08876",Somerset,908.722.8222 x 0,"Behavioral Supports,Career Planning,Community Based Supports,Community Inclusion Services,Day Habilitation,Natural Supports Training,PERS,Prevocational Training,Respite,Supported Employment - Individual,Supported Employment - Small Group,Transportation",Admin/Service Delivery
admin@momcareservices.com,Momcares Grouphome,260 Wildflower Lane,Hillsborough,NJ,"	08844",Somerset,603.233.6924 x 0,"Behavioral Supports,Community Based Supports,Individual Supports",Admin/Service Delivery
nipdsupports@yai.org,National Institute for People with Disabilities of NJ,45 Whitney Rd Second Floor,Mahwah,NJ,"	07430",Bergen,201.750.0509 x 1122,"Behavioral Supports,Career Planning,Cognitive Rehabilitation,Community Based Supports,Community Inclusion Services,Interpreter Services,Natural Supports Training,Occupational Therapy,PERS,Physical Therapy,Prevocational Training,Respite,Speech, Language & Hearing Therapy,Support Coordination,Supported Employment - Individual,Supported Employment - Small Group,Transportation",Admin/Service Delivery
nipdsupports@yai.org,National Institute for People with Disabilities of NJ,North 1600 Valley Road,Montvale,NJ,"	07645",Bergen,201.750.0509 x 1122,Prevocational Training,Service Delivery
nipdsupports@yai.org,National Institute for People with Disabilities of NJ,11 Technology Drive North,Warren,NJ,"	07059",Somerset,201.750.0509 x 1122,Prevocational Training,Service Delivery
nipdsupports@yai.org,National Institute for People with Disabilities of NJ,Knoll Drive,Lake Hiawatha,NJ,"	07034",Morris,201.750.0509 x 1122,Prevocational Training,Service Delivery
cherryoakley@neighbours-inc.com,Neighbours Inc,49 Woodbridge Avenue,Highland Park,NJ,"	08904",Middlesex,609.275.0606 x 0,"Career Planning,Community Based Supports,Community Inclusion Services,Individual Supports,Interpreter Services,Natural Supports Training,Prevocational Training,Supported Employment - Individual,Supports Brokerage,Transportation",Service Delivery
cherryoakley@neighbours-inc.com,Neighbours Inc,"3490 US Route 1 North,Unit 7A",Princeton,NJ,"	08540",Mercer,609.275.0606 x 0,Support Coordination,Admin
newcarehp@gmail.com,"New Care Health Partners, LLC","7 Glenwood Avenue,Suite 414D",East Orange,NJ,"	07017",Essex,201.463.5900 x 0,"Behavioral Supports,Community Based Supports,Individual Supports,Occupational Therapy,Physical Therapy,Respite,Speech, Language & Hearing Therapy",Admin
service@ncfl.net,"New Concepts for Living, Inc",68 A West Passaic Street,Rochelle Park,NJ,"	07662",Bergen,201.843.3427 x 0,"Behavioral Supports,Community Based Supports,Community Inclusion Services,Day Habilitation,Supported Employment - Individual,Transportation",Admin/Service Delivery
billing@nhautism.org,New Horizons In Autism,906 Route 33 East,Freehold,NJ,"	07728",Monmouth,,"Assistive Technology,Behavioral Supports,Community Based Supports,Community Inclusion Services,Day Habilitation,Individual Supports,Prevocational Training,Respite,Supported Employment - Individual,Supported Employment - Small Group,Transportation",Admin/Service Delivery
billing@nhautism.org,New Horizons In Autism,1808 Route 37,Toms River,NJ,"	08753",Ocean,,"Day Habilitation,Prevocational Training",Service Delivery
billing@nhautism.org,New Horizons In Autism,22 Hyers Street&nbsp;&nbsp;&nbsp;,Toms River,NJ,"	08753",Ocean,,"Behavioral Supports,Day Habilitation,Prevocational Training,Supported Employment - Individual,Supported Employment - Small Group,Transportation",Service Delivery
billing@nhautism.org,New Horizons In Autism,285 Ridge Road,Dayton,NJ,"	08810",Middlesex,,"Behavioral Supports,Day Habilitation,Prevocational Training,Supported Employment - Individual,Supported Employment - Small Group,Transportation",Service Delivery
billing@nhautism.org,New Horizons In Autism,29 Church Street,Ramsey,NJ,"	07446",Bergen,,"Behavioral Supports,Day Habilitation,Prevocational Training,Supported Employment - Individual,Supported Employment - Small Group,Transportation",Service Delivery
SupportsProgramCohort@njid.org,New Jersey Institute for Disabilities Inc.,61 Suttons Lane,Piscataway,NJ,"	08854",Middlesex,,"Assistive Technology,Behavioral Supports,Day Habilitation,Occupational Therapy,Physical Therapy,Prevocational Training,Speech, Language & Hearing Therapy,Transportation",Service Delivery
SupportsProgramCohort@njid.org,New Jersey Institute for Disabilities Inc.,311 South Main Street,Barnegat,NJ,"	08005",Ocean,,"Assistive Technology,Behavioral Supports,Day Habilitation,Occupational Therapy,Physical Therapy,Prevocational Training,Speech, Language & Hearing Therapy,Transportation",Service Delivery
SupportsProgramCohort@njid.org,New Jersey Institute for Disabilities Inc.,101 Austin Avenue,Iselin,NJ,"	08830",Middlesex,,"Assistive Technology,Behavioral Supports,Day Habilitation,Occupational Therapy,Physical Therapy,Prevocational Training,Speech, Language & Hearing Therapy,Transportation",Service Delivery
SupportsProgramCohort@njid.org,New Jersey Institute for Disabilities Inc.,40 Markley Street,Port Reading,NJ,"	07064",Middlesex,,"Assistive Technology,Behavioral Supports,Day Habilitation,Occupational Therapy,Physical Therapy,Prevocational Training,Speech, Language & Hearing Therapy,Transportation",Service Delivery
SupportsProgramCohort@njid.org,New Jersey Institute for Disabilities Inc.,951 Old Freehold Road,Toms River,NJ,"	08753",Ocean,,"Assistive Technology,Behavioral Supports,Community Based Supports,Day Habilitation,Occupational Therapy,Physical Therapy,Prevocational Training,Speech, Language & Hearing Therapy,Transportation",Service Delivery
nimacareservices@gmail.com,Nima Care Supported Living LLP,781 Hamilton Street,Somerset,NJ,"	08873",Somerset,732.325.7714 x 0,"Behavioral Supports,Community Based Supports,Community Inclusion Services,Individual Supports,Respite",Admin/Service Delivery
housing@njcdc.org,NJ Community Development Corp,32 Spruce Street,Paterson,NJ,"	07509",Passaic,,"Career Planning,Community Based Supports,Community Inclusion Services,Individual Supports,Prevocational Training,Respite,Supported Employment - Individual,Supported Employment - Small Group,Transportation",Admin/Service Delivery
DDD_FFS@oaksintcare.org,Oaks Integrated Care,19 E. Ormond Avenue,Cherry Hill,NJ,"	08034",Camden,x 0,"Behavioral Supports,Community Based Supports,Community Inclusion Services,Natural Supports Training,Respite,Transportation",Service Delivery
deborah.wolff@oaksintcare.org,Oaks Integrated Care,79A Chestnut Street,Lumberton,NJ,"	08048",Burlington,609.267.5928 x 99850,"Behavioral Supports,Career Planning,Community Based Supports,Community Inclusion Services,Day Habilitation,Individual Supports,Prevocational Training,Supported Employment - Individual,Supported Employment - Small Group,Transportation",Admin/Service Delivery
OTCBCintake@otcbc.org,Occupational Training Center Of Burlington County,2 Manhattan Street,Burlington,NJ,"	08016",Burlington,609.267.6677 x 0,"Career Planning,Community Based Supports,Community Inclusion Services,Day Habilitation,Individual Supports,Prevocational Training,Supported Employment - Individual,Supported Employment - Small Group,Transportation",Admin/Service Delivery
OTCBCintake@otcbc.org,Occupational Training Center Of Burlington County,"1003 Lincoln Drive West, Suite C",Marlton,NJ,"	08053",Burlington,,Day Habilitation,Service Delivery
OTCBCintake@otcbc.org,Occupational Training Center Of Burlington County,1880 Route 38,Southampton,NJ,"	08088",Burlington,,Day Habilitation,Service Delivery
OTCBCintake@otcbc.org,Occupational Training Center Of Burlington County,15 Roland Ave,Mount Laurel,NJ,"	08054",Burlington,,Day Habilitation,Service Delivery
OTCBCintake@otcbc.org,Occupational Training Center Of Burlington County,"2 Manhattan Street, Suite B",Burlington,NJ,"	08016",Burlington,,Day Habilitation,Service Delivery
supports@ourhousenj.org,Our House Inc.,76 Floral Ave,Murray Hill,NJ,"	07974",Union,908.464.8008 x 0,"Assistive Technology,Behavioral Supports,Career Planning,Community Based Supports,Community Inclusion Services,Day Habilitation,Individual Supports,Natural Supports Training,Prevocational Training,Respite,Speech, Language & Hearing Therapy,Supported Employment - Individual,Supported Employment - Small Group,Transportation",Admin/Service Delivery
njispnotifications@devereux.org,Our House Inc.,260 Broadway,Newark,NJ,"	07104",Essex,908.464.8008 x 0,Day Habilitation,Service Delivery
supports@ourhousenj.org,Our House Inc.,120 Finderne Avenue,Bridgewater,NJ,"	08807",Somerset,908.464.8008 x 0,Day Habilitation,Service Delivery
supports@ourhousenj.org,Our House Inc.,881 West Ave,Port Reading,NJ,"	07064",Middlesex,908.464.8008 x 0,Day Habilitation,Service Delivery
supports@ourhousenj.org,Our House Inc.,120 Finderne Ave,Bridgewater,NJ,"	08807",Somerset,,Day Habilitation,Service Delivery
supports@ourhousenj.org,Our House Inc.,271 W. Northfield Road,Livingston,NJ,"	07039",Essex,,Day Habilitation,Service Delivery
supports@ourhousenj.org,Our House Inc.,330 Central Avenue,New Providence,NJ,"	07974",Union,908.464.8008 x 0,Day Habilitation,Service Delivery
supports@ourhousenj.org,Our House Inc.,40 Whitenack Road,Basking Ridge,NJ,"	07920",Somerset,908.464.8008 x 0,Day Habilitation,Service Delivery
mvernamonti@pafacom.org,PAFACOM Inc.,1301 W Forest Grove Rd Bldg. 3C,Vineland,NJ,"	08360",Cumberland,,"Career Planning,Day Habilitation,Prevocational Training,Supported Employment - Individual,Transportation",Admin/Service Delivery
mvernamonti@pafacom.org,PAFACOM Inc.,"3722 East Landis Avenue, Suite A",Vineland,NJ,"	08361",Cumberland,,"Day Habilitation,Transportation",Service Delivery
cpegeron@khs.org,Partnerships For People,60 Walnut Ave Ste 300,Clark,NJ,"	07066",Union,973.467.9808 x 114,"Behavioral Supports,Career Planning,Community Based Supports,Community Inclusion Services,Individual Supports,Natural Supports Training,Prevocational Training,Supported Employment - Individual,Supported Employment - Small Group,Transportation",Admin/Service Delivery
supports@pennreach.org,PennReach,18 South Main Street,Allentown,NJ,"	08501",Monmouth,732.963.4523 x 0,"Behavioral Supports,Community Based Supports,Community Inclusion Services,Individual Supports,Transportation",Admin/Service Delivery
ffs@thepilotservices.org,Personalized Independent Living Opportunities and Training Services,283 Jackson Road,Berlin,NJ,"	08009",Camden,856.809.0600 x 0,Individual Supports,Service Delivery
ffs@thepilotservices.org,Personalized Independent Living Opportunities and Training Services,289 Jackson Road,Berlin,NJ,"	08009",Camden,856.809.0600 x 0,"Community Inclusion Services,Prevocational Training,Supported Employment - Small Group,Transportation",Admin/Service Delivery
ffs@thepilotservices.org,Personalized Independent Living Opportunities and Training Services,943 Little Gloucester Road,Clementon,NJ,"	08021",Camden,856.809.0600 x 0,"Community Inclusion Services,Day Habilitation,Prevocational Training,Supported Employment - Small Group,Transportation",Service Delivery
ffs@thepilotservices.org,Personalized Independent Living Opportunities and Training Services,6638 Delilah Road,Egg Harbor Township,NJ,"	08234",Atlantic,856.809.0600 x 0,"Community Inclusion Services,Day Habilitation,Prevocational Training,Supported Employment - Small Group,Transportation",Service Delivery
contact@platinumhearts.org,Platinum Hearts,808 Prospect Ave.,Milltown,NJ,"	08850",Middlesex,862.772.1805 x 0,"Community Based Supports,Community Inclusion Services,Individual Supports,Respite,Supported Employment - Individual,Supported Employment - Small Group,Transportation",Admin/Service Delivery
premiersupports@sevitahealth.com,"Premier Supports, LLC",100 Randolph Road,Somerset,NJ,"	08873",Somerset,512.628.1553 x 0,Day Habilitation,Service Delivery
premiersupports@sevitahealth.com,"Premier Supports, LLC",155 Pierce Street,Somerset,NJ,"	08873",Somerset,732.627.9890 x 0,"Behavioral Supports,Career Planning,Community Based Supports,Community Inclusion Services,Individual Supports,Natural Supports Training,Prevocational Training,Respite,Supported Employment - Individual,Supported Employment - Small Group,Transportation",Admin
FFS@pcdi.org,Princeton Child Development Institute,300 Cold Soil Road,Princeton,NJ,"	08540",Mercer,,"Behavioral Supports,Career Planning,Community Based Supports,Community Inclusion Services,Day Habilitation,Individual Supports,Prevocational Training,Supported Employment - Individual,Supported Employment - Small Group,Transportation",Admin/Service Delivery
plans@qmainc.com,"QMANJ, Inc.",700 Cinnaminson Avenue Building B,Palmyra,NJ,"	08065",Burlington,,"Behavioral Supports,Career Planning,Community Based Supports,Community Inclusion Services,Day Habilitation,Prevocational Training,Supported Employment - Individual,Transportation",Service Delivery
plans@qmainc.com,"QMANJ, Inc.","9 East Stow Road,Suite A",Marlton,NJ,"	08053",Burlington,,Day Habilitation,Service Delivery
plans@qmainc.com,"Quality Management Associates, Inc.","700 Cinnaminson Avenue,Building A",Palmyra,NJ,"	08065",Burlington,856.727.5003 x 0,Individual Supports,Admin/Service Delivery
plans@qmainc.com,"Quality Management Associates, Inc.","9 East Stow Rd.,Suite A",Marlton,NJ,"	08053",Burlington,,Day Habilitation,Service Delivery
info@reednext.com,"Reed Next, Inc",808 Franklin Lake Raod,Franklin Lakes,NJ,"	07417",Bergen,,Day Habilitation,Not Found
info@reednext.com,"Reed Next, Inc",25 Potash Rd,Oakland,NJ,"	07436",Bergen,201.904.2553 x 0,"Assistive Technology,Behavioral Supports,Career Planning,Community Based Supports,Community Inclusion Services,Day Habilitation,Individual Supports,Prevocational Training,Supported Employment - Individual,Supported Employment - Small Group,Transportation",Admin/Service Delivery
info@reednext.com,"Reed Next, Inc",505 Ramapo Valley Road,Mahwah,NJ,"	07430",Bergen,201.644.0760 x 163,"Assistive Technology,Behavioral Supports,Career Planning,Community Based Supports,Community Inclusion Services,Day Habilitation,Prevocational Training,Supported Employment - Individual,Supported Employment - Small Group,Transportation",Service Delivery
info@reednext.com,"Reed Next, Inc",1 Dekorte Plaza,Lyndhurst,NJ,"	07071",Bergen,201.644.0760 x 163,Day Habilitation,Service Delivery
REMNewJersey@sevitahealth.com,REM-NJ Inc.,43 Newburgh Road,Hackettstown,NJ,"	07840",Warren,732.627.9889 x 0,Day Habilitation,Service Delivery
REMNewJersey@sevitahealth.com,REM-NJ Inc.,175 Sparta-Stanhope Road,Andover,NJ,"	07821",Sussex,732.627.9890 x 0,Day Habilitation,Service Delivery
REMNewJersey@sevitahealth.com,REM-NJ Inc.,"6 Terri Lane,Suite 900",Burlington,NJ,"	08016",Burlington,732.627.9890 x 0,Day Habilitation,Service Delivery
REMNewJersey@sevitahealth.com,REM-NJ Inc.,1200 South West Boulevard,Vineland,NJ,"	08360",Cumberland,732.627.9890 x 0,Day Habilitation,Service Delivery
REMNewJersey@sevitahealth.com,REM-NJ Inc.,"43 Newburgh Rd,Suite 5",Hackettstown,NJ,"	07840",Warren,,Day Habilitation,Service Delivery
REMNewJersey@sevitahealth.com,REM-NJ Inc.,80 Cottontail Lane Suite 330,Somerset,NJ,"	08873",Somerset,732.627.9890 x 0,"Behavioral Supports,Career Planning,Community Based Supports,Individual Supports,Prevocational Training,Respite,Supported Employment - Individual,Supported Employment - Small Group,Transportation",Admin/Service Delivery
authorizations@rescare.com,RESCARE,1001 Briggs Rd Ste 200,Mount Laurel,NJ,"	08054",Burlington,,"Assistive Technology,Behavioral Supports,Community Based Supports,Community Inclusion Services,Day Habilitation,Individual Supports,Prevocational Training,Respite,Supported Employment - Individual,Transportation",Admin/Service Delivery
tlawson@rescare.com,RESCARE,425 Route 50,Corbin City,NJ,"	08270",Cape May,,Day Habilitation,Service Delivery
authorizations@rescare.com,RESCARE,248 S. New York Road,Galloway,NJ,"	08205",Atlantic,,Day Habilitation,Service Delivery
isp@scarc.org,"SCARC, Inc.",100 Quarry Road,Hamburg,NJ,"	07419",Sussex,973.383.7442 x 0,Day Habilitation,Service Delivery
isp@scarc.org,"SCARC, Inc.","15 US Route 206,Suite B",Augusta,NJ,"	07822",Sussex,973.383.7442 x 222,Day Habilitation,Service Delivery
isp@scarc.org,"SCARC, Inc.","26 Gail Court,Suite 3&amp;4",Sparta,NJ,"	07871",Sussex,,Day Habilitation,Service Delivery
isp@scarc.org,"SCARC, Inc.","4 Camre Dr.,Suite B",Newton,NJ,"	07860",Sussex,973.383.7442 x 0,Day Habilitation,Service Delivery
isp@scarc.org,"SCARC, Inc.","11 US Route 206,Suite C",Augusta,NJ,"	07822",Sussex,973.383.7442 x 0,Respite,Service Delivery
isp@scarc.org,"SCARC, Inc.","4 Camre Drive,Suite A",Newton,NJ,"	07860",Sussex,973.383.7442 x 0,"Career Planning,Day Habilitation,Prevocational Training,Supported Employment - Individual,Supported Employment - Small Group,Transportation",Service Delivery
isp@scarc.org,"SCARC, Inc.","26 Gail Court,Suite 2",Sparta,NJ,"	07871",Sussex,973.383.7442 x 0,Day Habilitation,Service Delivery
isp@scarc.org,"SCARC, Inc.","11 US Route 206,Suite 100",Augusta,NJ,"	07822",Sussex,973.383.7442 x 222,"Behavioral Supports,Career Planning,Community Based Supports,Community Inclusion Services,Individual Supports,Natural Supports Training,Occupational Therapy,Physical Therapy,Prevocational Training,Respite,Speech, Language & Hearing Therapy,Supported Employment - Individual,Supported Employment - Small Group,Transportation",Admin/Service Delivery
isp@scarc.org,"SCARC, Inc.","4 Camre Drive Suite U,Suite U",Newton,NJ,"	07860",Sussex,973.383.7442 x 0,"Day Habilitation,Supported Employment - Individual,Supported Employment - Small Group",Service Delivery
isp@scarc.org,"SCARC, Inc.","4 Camre Drive,Suite C",Newton,NJ,"	07860",Sussex,973.383.7442 x 0,Day Habilitation,Service Delivery
isp@scarc.org,"SCARC, Inc.",11 US Route 206 Suite 100-D,Augusta,NJ,"	07822",Sussex,973.383.7442 x 0,Respite,Service Delivery
isp@scarc.org,"SCARC, Inc.","15 Route 206,Suite A",Augusta,NJ,"	07822",Sussex,973.383.7442 x 0,Day Habilitation,Service Delivery
sds@schischool.org,"SCHI Disability Services, Inc.",345 Oak Street,Lakewood,NJ,"	08701",Ocean,732.886.0900 x 1626,"Behavioral Supports,Career Planning,Community Based Supports,Community Inclusion Services,Individual Supports,Occupational Therapy,Physical Therapy,Prevocational Training,Respite,Speech, Language & Hearing Therapy,Supported Employment - Individual,Supported Employment - Small Group,Transportation",Admin/Service Delivery
sds@schischool.org,"SCHI Disability Services, Inc.",1875 Swarthmore Ave,Lakewood,NJ,"	08701",Ocean,732.886.0900 x 1626,"Day Habilitation,Prevocational Training,Speech, Language & Hearing Therapy",Service Delivery
ccentellas@searchdayprogram.com,Search Day Program Inc.,144 Robertsville Road,Freehold,NJ,"	07728",Monmouth,,Individual Supports,Service Delivery
dddinfo@searchdayprogram.com,Search Day Program Inc.,73 Wickapecko Drive,Ocean,NJ,"	07712",Monmouth,732.531.0454 x 0,"Behavioral Supports,Career Planning,Community Based Supports,Community Inclusion Services,Day Habilitation,Prevocational Training,Respite,Supported Employment - Individual,Supported Employment - Small Group,Transportation",Admin/Service Delivery
authorizations@servbhs.org,"SERV Achievement Centers, Inc.",111 North Ave West,Cranford,NJ,"	07016",Union,,"Day Habilitation,Prevocational Training,Transportation",Service Delivery
authorizations@servbhs.org,"SERV Achievement Centers, Inc.",20 Scotch Road,West Trenton,NJ,"	08628",Mercer,609.406.0100 x 0,"Behavioral Supports,Community Based Supports,Individual Supports,Prevocational Training,Respite,Transportation",Admin/Service Delivery
authorizations@servbhs.org,"SERV Achievement Centers, Inc.",3175 Princeton Pike,Lawrenceville,NJ,"	08648",Mercer,,"Behavioral Supports,Community Based Supports,Community Inclusion Services,Day Habilitation,Prevocational Training,Respite,Transportation",Service Delivery
executivedirector18@hotmail.com,Skylands Center Offering Autism Programs,"Doctor's Park Building,3 Seber Road",Hackettstown,NJ,"	07840",Warren,908.850.6440 x 0,"Day Habilitation,Transportation",Admin/Service Delivery
mtbetheled@cslal.com,"Special Needs Residence, LLC",130 Mt. Bethel Road,Warren,NJ,"	07059",Somerset,908.757.7000 x 201,"Community Based Supports,Community Inclusion Services,Transportation",Admin/Service Delivery
info@spectrumforliving.org,Spectrum for Living Development Inc.,"210 Rivervale Road,Suite 3",Rivervale,NJ,"	07675",Bergen,201.358.8000 x 0,"Behavioral Supports,Career Planning,Cognitive Rehabilitation,Community Based Supports,Community Inclusion Services,Individual Supports,Occupational Therapy,Physical Therapy,Prevocational Training,Respite,Speech, Language & Hearing Therapy,Supported Employment - Individual,Supported Employment - Small Group,Transportation",Admin/Service Delivery
info@spectrumforliving.org,Spectrum for Living Development Inc.,91 Carver Avenue,Westwood,NJ,"	07675",Bergen,,Day Habilitation,Service Delivery
info@spectrumforliving.org,Spectrum for Living Development Inc.,200 Spectrum Drive,Edison,NJ,"	08817",Middlesex,,Day Habilitation,Service Delivery
info@spectrumforliving.org,Spectrum for Living Development Inc.,30 Morris Road,Ringwood,NJ,"	07456",Passaic,201.358.8000 x 0,Day Habilitation,Service Delivery
info@spectrumforliving.org,Spectrum for Living Development Inc.,1200 River Road,Teaneck,NJ,"	07666",Bergen,,Day Habilitation,Service Delivery
info@tender-care-llc.com,Tender Care LLC,2740 Route 10 Ste 103B,Morris Plains,NJ,"	07950",Morris,973.407.9296 x 0,"Behavioral Supports,Community Based Supports,Community Inclusion Services,Individual Supports,Occupational Therapy,Physical Therapy,Respite,Speech, Language & Hearing Therapy,Supported Employment - Individual,Transportation",Admin/Service Delivery
irecord@arc-middlesex.org,The Arc Middlesex County,1660 Stelton Road,Piscataway,NJ,"	08854",Middlesex,732.821.1199 x 0,Day Habilitation,Service Delivery
irecord@arc-middlesex.org,The Arc Middlesex County,1100 Cornwall Rd Ste 100,Monmouth Junction,NJ,"	08852",Middlesex,,"Behavioral Supports,Career Planning,Community Based Supports,Community Inclusion Services,Day Habilitation,Individual Supports,Prevocational Training,Respite,Support Coordination,Supported Employment - Individual,Supported Employment - Small Group,Transportation",Admin
irecord@arc-middlesex.org,The Arc Middlesex County,581 Roosevelt Avenue,Carteret,NJ,"	07008",Middlesex,,"Behavioral Supports,Career Planning,Community Based Supports,Community Inclusion Services,Day Habilitation,Prevocational Training,Respite,Supported Employment - Individual,Supported Employment - Small Group,Transportation",Service Delivery
irecord@arc-middlesex.org,The Arc Middlesex County,"31-32 Wills Way,Building 9",Piscataway,NJ,"	08854",Middlesex,732.821.1199 x 0,"Behavioral Supports,Career Planning,Community Based Supports,Community Inclusion Services,Day Habilitation,Prevocational Training,Respite,Supported Employment - Individual,Supported Employment - Small Group,Transportation",Service Delivery
irecord@arc-middlesex.org,The Arc Middlesex County,"114 Main Street,Suite C",Woodbridge,NJ,"	07095",Middlesex,,"Behavioral Supports,Career Planning,Community Based Supports,Community Inclusion Services,Day Habilitation,Prevocational Training,Respite,Supported Employment - Individual,Supported Employment - Small Group,Transportation",Service Delivery
irecord@arc-middlesex.org,The Arc Middlesex County,450-470 Hidden Lake Towne Center Drive,North Brunswick,NJ,"	08902",Not answered,732.821.1199 x 122,Day Habilitation,Service Delivery
supportsprogram@arcofmonmouth.org,The Arc of Monmouth,20 Meridian Road,Eatontown,NJ,"	07724",Monmouth,,"Behavioral Supports,Career Planning,Day Habilitation,Prevocational Training,Respite",Service Delivery
supportsprogram@arcofmonmouth.org,The Arc of Monmouth,3710 Route 9,Freehold,NJ,"	07728",Monmouth,,"Behavioral Supports,Career Planning,Community Inclusion Services,Prevocational Training,Respite,Supported Employment - Individual,Supported Employment - Small Group,Transportation",Service Delivery
supportsprogram@arcofmonmouth.org,The Arc of Monmouth,395 Warburton Place,Long Branch,NJ,"	07740",Monmouth,732.493.1919 x 150,"Behavioral Supports,Career Planning,Day Habilitation,Prevocational Training",Service Delivery
supportsprogram@arcofmonmouth.org,The Arc of Monmouth,200 F Campus Drive,Morganville,NJ,"	07751",Monmouth,,"Behavioral Supports,Career Planning,Day Habilitation,Prevocational Training,Respite,Transportation",Service Delivery
supportsprogram@arcofmonmouth.org,The Arc of Monmouth,135 Monmouth Street,Red Bank,NJ,"	07701",Monmouth,,"Behavioral Supports,Career Planning,Prevocational Training,Respite,Supported Employment - Individual,Supported Employment - Small Group",Service Delivery
supportsprogram@arcofmonmouth.org,The Arc of Monmouth,1345 Campus Pkwy Ste A9,Wall Township,NJ,"	07753",Monmouth,732.938.2525 x 0,"Behavioral Supports,Career Planning,Day Habilitation,Prevocational Training,Respite",Service Delivery
supportsprogram@arcofmonmouth.org,The Arc of Monmouth,1158 Wayside Road,Tinton Falls,NJ,"	07712",Monmouth,732.493.1919 x 150,"Behavioral Supports,Career Planning,Community Based Supports,Community Inclusion Services,Day Habilitation,Individual Supports,Natural Supports Training,Occupational Therapy,Physical Therapy,Prevocational Training,Respite,Speech, Language & Hearing Therapy,Supported Employment - Individual,Transportation",Admin/Service Delivery
Arc_Supports_Waiver_Info@arcunion.org,The Arc of Union County,54 Fadem Road,Springfield,NJ,"	07081",Union,,"Behavioral Supports,Day Habilitation",Service Delivery
arc_supports_waiver_Info@arcunion.org,The Arc of Union County,1181 Route 22,Mountainside,NJ,"	07092",Union,973.315.0000 x 0,"Assistive Technology,Behavioral Supports,Career Planning,Cognitive Rehabilitation,Community Based Supports,Community Inclusion Services,Day Habilitation,Individual Supports,Interpreter Services,Occupational Therapy,Physical Therapy,Prevocational Training,Respite,Speech, Language & Hearing Therapy,Supported Employment - Individual,Supported Employment - Small Group,Transportation",Service Delivery
Arc_Supports_Waiver_Info@arcunion.org,The Arc of Union County,70 Diamond Road,Springfield,NJ,"	07081",Union,,"Assistive Technology,Behavioral Supports,Career Planning,Cognitive Rehabilitation,Community Based Supports,Community Inclusion Services,Day Habilitation,Individual Supports,Interpreter Services,Natural Supports Training,Occupational Therapy,Physical Therapy,Prevocational Training,Respite,Speech, Language & Hearing Therapy,Supported Employment - Individual,Supported Employment - Small Group,Transportation",Admin/Service Delivery
arc_supports_waiver_Info@arcunion.org,The Arc of Union County,720 Lexington Avenue,Kenilworth,NJ,"	07033",Union,,"Career Planning,Day Habilitation,Prevocational Training,Supported Employment - Individual,Supported Employment - Small Group,Transportation",Service Delivery
info@arcmorrris.org,The Arc/Morris Chapter,1 Executive Drive,Morris Plains,NJ,"	07950",Morris,973.326.9750 x 213,"Behavioral Supports,Career Planning,Community Based Supports,Community Inclusion Services,Day Habilitation,Individual Supports,Natural Supports Training,Prevocational Training,Respite,Supported Employment - Individual,Supported Employment - Small Group,Transportation",Admin
info@arcmorrris.org,The Arc/Morris Chapter,26 Main Street,Flanders,NJ,"	07836",Morris,973.970.9326 x 326,"Behavioral Supports,Community Inclusion Services,Day Habilitation,Prevocational Training,Respite,Transportation",Service Delivery
info@arcmorrris.org,The Arc/Morris Chapter,150 Algonquin Parkway,Whippany,NJ,"	07981",Morris,973.970.9326 x 213,"Behavioral Supports,Community Inclusion Services,Day Habilitation,Prevocational Training,Respite,Transportation",Service Delivery
irecord@theopendoornj.com,"The Open Door, LLC",1808 Route 37 East,Toms River,NJ,"	08753",Ocean,,Day Habilitation,Service Delivery
irecord@theopendoornj.com,"The Open Door, LLC","1658 Lakewood Road,Suite 12",Toms River,NJ,"	08755",Ocean,732.408.5681 x 0,"Career Planning,Community Based Supports,Community Inclusion Services,Prevocational Training,Respite,Supported Employment - Individual,Supported Employment - Small Group,Transportation",Admin/Service Delivery
irecord@theopendoornj.om,"The Open Door, LLC",2110 Route 70,Manchester,NJ,"	08759",Ocean,,Prevocational Training,Service Delivery
irecord@theopendoornj.com,"The Open Door, LLC","1658 Lakewood Road,Suite 1-9",Toms River,NJ,"	08755",Ocean,732.408.5681 x 0,Day Habilitation,Service Delivery
tom@therosehouse.org,The Rose House,51 Gibraltar Dr Ste 2C,Morris Plains,NJ,"	07950",Morris,973.984.0006 x 0,"Community Based Supports,Community Inclusion Services,Individual Supports,Transportation",Admin/Service Delivery
grouphome@thecenternj.org,"The Special Children's Center, Inc.",1400 Prospect Street,Lakewood,NJ,"	08701",Ocean,,"Behavioral Supports,Career Planning,Community Based Supports,Community Inclusion Services,Day Habilitation,Occupational Therapy,Physical Therapy,Prevocational Training,Respite,Speech, Language & Hearing Therapy,Supported Employment - Individual,Supported Employment - Small Group,Transportation",Admin/Service Delivery
grouphome@thecenternj.org,"The Special Children's Center, Inc.",1 Havenwood Ct,Lakewood,NJ,"	08701",Ocean,,Day Habilitation,Service Delivery
dddsupportsprogram@uirehab.com,Universal Institute Inc.,"15-17 Microlab Road, Suite 101",Livingston,NJ,"	07039",Essex,973.992.8181 x 34,"Behavioral Supports,Cognitive Rehabilitation,Community Inclusion Services,Day Habilitation,Individual Supports,Occupational Therapy,Physical Therapy,Prevocational Training,Respite,Speech, Language & Hearing Therapy,Supported Employment - Individual,Supported Employment - Small Group",Admin/Service Delivery
dddsupportsprogram@uirehab.com,Universal Institute Inc.,1 Cooper Avenue,Long Branch,NJ,"	07740",Monmouth,973.992.8181 x 34,"Behavioral Supports,Cognitive Rehabilitation,Community Inclusion Services,Day Habilitation,Occupational Therapy,Physical Therapy,Speech, Language & Hearing Therapy",Service Delivery
kashley1@voa-gny.org,"Volunteers of America Greater New York, Inc",205 West Milton Avenue,Rahway,NJ,"	07065",Union,732.827.2453 x 0,"Behavioral Supports,Transportation",Admin/Service Delivery
supportsprogram@war-ministry.org,WAR Ministry Corp.,"211 Warren Street,Suite 313",Newark,NJ,"	07103",Essex,862.955.4600 x 0,"Behavioral Supports,Career Planning,Community Based Supports,Community Inclusion Services,Individual Supports,Respite,Supported Employment - Individual,Supported Employment - Small Group,Transportation",Admin/Service Delivery
info@windmillalliance.org,"Windmill Alliance, Inc.",141 Broadway,Bayonne,NJ,"	07002",Hudson,,"Behavioral Supports,Day Habilitation",Admin/Service Delivery
twoods@woodsmanor.org,Woods Manor,409 Steeplechase Ct,Woodbury,NJ,"	08096",Gloucester,856.244.8072 x 0,"Behavioral Supports,Community Based Supports,Individual Supports,Respite",Admin/Service Delivery
DDAdultServices@ycs.org,"Youth Consultation Service, Inc.",60 Evergreen Place,East Orange,NJ,"	07018",Essex,973.482.8411 x 0,"Behavioral Supports,Community Based Supports,Individual Supports,Respite",Admin/Service Delivery
